{
"type": "FeatureCollection",
"name": "ERT_Linien_Plan_HE02",
"crs": { "type": "name", "properties": { "name": "urn:ogc:def:crs:OGC:1.3:CRS84" } },
"features": [
{ "type": "Feature", "properties": { "Name": "Data_PATH_ERT_Linien_Plan_HE02", "description": null, "timestamp": null, "begin": null, "end": null, "altitudeMode": "clampToGround", "tessellate": 0, "extrude": 0, "visibility": -1, "drawOrder": null, "icon": null }, "geometry": { "type": "LineString", "coordinates": [ [ 9.69154610505932, 48.448868442376202, 0.0 ], [ 9.6896259272511, 48.448879965193697, 0.0 ] ] } },
{ "type": "Feature", "properties": { "Name": "Data_PATH_ERT_Linien_Plan_HE02_1", "description": null, "timestamp": null, "begin": null, "end": null, "altitudeMode": "clampToGround", "tessellate": 0, "extrude": 0, "visibility": -1, "drawOrder": null, "icon": null }, "geometry": { "type": "LineString", "coordinates": [ [ 9.69078018913739, 48.448234286680197, 0.0 ], [ 9.690797515133109, 48.449511694070601, 0.0 ] ] } },
{ "type": "Feature", "properties": { "Name": "Data_PATH_ERT_Linien_Plan_HE02_2", "description": null, "timestamp": null, "begin": null, "end": null, "altitudeMode": "clampToGround", "tessellate": 0, "extrude": 0, "visibility": -1, "drawOrder": null, "icon": null }, "geometry": { "type": "LineString", "coordinates": [ [ 9.69071257809421, 48.448234692503497, 0.0 ], [ 9.69072990239445, 48.449512099911999, 0.0 ] ] } },
{ "type": "Feature", "properties": { "Name": "Data_PATH_ERT_Linien_Plan_HE02_3", "description": null, "timestamp": null, "begin": null, "end": null, "altitudeMode": "clampToGround", "tessellate": 0, "extrude": 0, "visibility": -1, "drawOrder": null, "icon": null }, "geometry": { "type": "LineString", "coordinates": [ [ 9.690644967049529, 48.448235098287, 0.0 ], [ 9.69066228965429, 48.449512505713599, 0.0 ] ] } },
{ "type": "Feature", "properties": { "Name": "Data_PATH_ERT_Linien_Plan_HE02_4", "description": null, "timestamp": null, "begin": null, "end": null, "altitudeMode": "clampToGround", "tessellate": 0, "extrude": 0, "visibility": -1, "drawOrder": null, "icon": null }, "geometry": { "type": "LineString", "coordinates": [ [ 9.69037452285577, 48.448236721024003, 0.0 ], [ 9.69039183867862, 48.449514128522999, 0.0 ] ] } },
{ "type": "Feature", "properties": { "Name": "Data_PATH_ERT_Linien_Plan_HE02_5", "description": null, "timestamp": null, "begin": null, "end": null, "altitudeMode": "clampToGround", "tessellate": 0, "extrude": 0, "visibility": -1, "drawOrder": null, "icon": null }, "geometry": { "type": "LineString", "coordinates": [ [ 9.69044213390646, 48.448236315399299, 0.0 ], [ 9.69045945142479, 48.449513722880198, 0.0 ] ] } },
{ "type": "Feature", "properties": { "Name": "Data_PATH_ERT_Linien_Plan_HE02_6", "description": null, "timestamp": null, "begin": null, "end": null, "altitudeMode": "clampToGround", "tessellate": 0, "extrude": 0, "visibility": -1, "drawOrder": null, "icon": null }, "geometry": { "type": "LineString", "coordinates": [ [ 9.69050974495565, 48.448235909734997, 0.0 ], [ 9.69052706416946, 48.449513317197699, 0.0 ] ] } },
{ "type": "Feature", "properties": { "Name": "Data_PATH_ERT_Linien_Plan_HE02_7", "description": null, "timestamp": null, "begin": null, "end": null, "altitudeMode": "clampToGround", "tessellate": 0, "extrude": 0, "visibility": -1, "drawOrder": null, "icon": null }, "geometry": { "type": "LineString", "coordinates": [ [ 9.69057735600334, 48.448235504030897, 0.0 ], [ 9.690594676912619, 48.449512911475502, 0.0 ] ] } }
]
}
