{
"type": "FeatureCollection",
"name": "ERT_Linien_Plan_HE03",
"crs": { "type": "name", "properties": { "name": "urn:ogc:def:crs:OGC:1.3:CRS84" } },
"features": [
{ "type": "Feature", "properties": { "Name": "Data_PATH_ERT_Linien_Plan_HE03", "description": null, "timestamp": null, "begin": null, "end": null, "altitudeMode": "clampToGround", "tessellate": 0, "extrude": 0, "visibility": -1, "drawOrder": null, "icon": null }, "geometry": { "type": "LineString", "coordinates": [ [ 9.69704168221806, 48.443910927332297, 0.0 ], [ 9.69555965047463, 48.443098687897397, 0.0 ] ] } },
{ "type": "Feature", "properties": { "Name": "Data_PATH_ERT_Linien_Plan_HE03_1", "description": null, "timestamp": null, "begin": null, "end": null, "altitudeMode": "clampToGround", "tessellate": 0, "extrude": 0, "visibility": -1, "drawOrder": null, "icon": null }, "geometry": { "type": "LineString", "coordinates": [ [ 9.6970676027944, 48.443097570467799, 0.0 ], [ 9.69584678871775, 48.444083605652501, 0.0 ] ] } },
{ "type": "Feature", "properties": { "Name": "Data_PATH_ERT_Linien_Plan_HE03_2", "description": null, "timestamp": null, "begin": null, "end": null, "altitudeMode": "clampToGround", "tessellate": 0, "extrude": 0, "visibility": -1, "drawOrder": null, "icon": null }, "geometry": { "type": "LineString", "coordinates": [ [ 9.69701542291158, 48.443069007541901, 0.0 ], [ 9.69579460849751, 48.4440550421795, 0.0 ] ] } },
{ "type": "Feature", "properties": { "Name": "Data_PATH_ERT_Linien_Plan_HE03_3", "description": null, "timestamp": null, "begin": null, "end": null, "altitudeMode": "clampToGround", "tessellate": 0, "extrude": 0, "visibility": -1, "drawOrder": null, "icon": null }, "geometry": { "type": "LineString", "coordinates": [ [ 9.696963241856411, 48.443040354633702, 0.0 ], [ 9.695742427107019, 48.444026388724197, 0.0 ] ] } },
{ "type": "Feature", "properties": { "Name": "Data_PATH_ERT_Linien_Plan_HE03_4", "description": null, "timestamp": null, "begin": null, "end": null, "altitudeMode": "clampToGround", "tessellate": 0, "extrude": 0, "visibility": -1, "drawOrder": null, "icon": null }, "geometry": { "type": "LineString", "coordinates": [ [ 9.69675452191318, 48.4429260126348, 0.0 ], [ 9.69553370581624, 48.443912044536802, 0.0 ] ] } },
{ "type": "Feature", "properties": { "Name": "Data_PATH_ERT_Linien_Plan_HE03_5", "description": null, "timestamp": null, "begin": null, "end": null, "altitudeMode": "clampToGround", "tessellate": 0, "extrude": 0, "visibility": -1, "drawOrder": null, "icon": null }, "geometry": { "type": "LineString", "coordinates": [ [ 9.69680670150364, 48.4429545756811, 0.0 ], [ 9.69558588574411, 48.443940608130198, 0.0 ] ] } },
{ "type": "Feature", "properties": { "Name": "Data_PATH_ERT_Linien_Plan_HE03_6", "description": null, "timestamp": null, "begin": null, "end": null, "altitudeMode": "clampToGround", "tessellate": 0, "extrude": 0, "visibility": -1, "drawOrder": null, "icon": null }, "geometry": { "type": "LineString", "coordinates": [ [ 9.69685888238314, 48.442983228661497, 0.0 ], [ 9.69563806695891, 48.443969261657799, 0.0 ] ] } },
{ "type": "Feature", "properties": { "Name": "Data_PATH_ERT_Linien_Plan_HE03_7", "description": null, "timestamp": null, "begin": null, "end": null, "altitudeMode": "clampToGround", "tessellate": 0, "extrude": 0, "visibility": -1, "drawOrder": null, "icon": null }, "geometry": { "type": "LineString", "coordinates": [ [ 9.69691106209056, 48.4430117916597, 0.0 ], [ 9.69569024700375, 48.443997825202999, 0.0 ] ] } }
]
}
