{
"type": "FeatureCollection",
"name": "ERT_Linien_Plan_HE01",
"crs": { "type": "name", "properties": { "name": "urn:ogc:def:crs:OGC:1.3:CRS84" } },
"features": [
{ "type": "Feature", "properties": { "Name": "Data_PATH_ERT_Linien_Plan_HE01", "description": null, "timestamp": null, "begin": null, "end": null, "altitudeMode": "clampToGround", "tessellate": 0, "extrude": 0, "visibility": -1, "drawOrder": null, "icon": null }, "geometry": { "type": "LineString", "coordinates": [ [ 9.69108858663353, 48.453102540947, 0.0 ], [ 9.689194457410141, 48.452892044942701, 0.0 ] ] } },
{ "type": "Feature", "properties": { "Name": "Data_PATH_ERT_Linien_Plan_HE01_1", "description": null, "timestamp": null, "begin": null, "end": null, "altitudeMode": "clampToGround", "tessellate": 0, "extrude": 0, "visibility": -1, "drawOrder": null, "icon": null }, "geometry": { "type": "LineString", "coordinates": [ [ 9.69049979455585, 48.452389499787103, 0.0 ], [ 9.690183360631149, 48.4536495658513, 0.0 ] ] } },
{ "type": "Feature", "properties": { "Name": "Data_PATH_ERT_Linien_Plan_HE01_2", "description": null, "timestamp": null, "begin": null, "end": null, "altitudeMode": "clampToGround", "tessellate": 0, "extrude": 0, "visibility": -1, "drawOrder": null, "icon": null }, "geometry": { "type": "LineString", "coordinates": [ [ 9.690433154966341, 48.452382162573898, 0.0 ], [ 9.690116718215171, 48.453642138505899, 0.0 ] ] } },
{ "type": "Feature", "properties": { "Name": "Data_PATH_ERT_Linien_Plan_HE01_3", "description": null, "timestamp": null, "begin": null, "end": null, "altitudeMode": "clampToGround", "tessellate": 0, "extrude": 0, "visibility": -1, "drawOrder": null, "icon": null }, "geometry": { "type": "LineString", "coordinates": [ [ 9.69036637894299, 48.452374736175202, 0.0 ], [ 9.69005007581822, 48.4536347111219, 0.0 ] ] } },
{ "type": "Feature", "properties": { "Name": "Data_PATH_ERT_Linien_Plan_HE01_4", "description": null, "timestamp": null, "begin": null, "end": null, "altitudeMode": "clampToGround", "tessellate": 0, "extrude": 0, "visibility": -1, "drawOrder": null, "icon": null }, "geometry": { "type": "LineString", "coordinates": [ [ 9.690099680739401, 48.452345027758803, 0.0 ], [ 9.68978323716666, 48.453605092777998, 0.0 ] ] } },
{ "type": "Feature", "properties": { "Name": "Data_PATH_ERT_Linien_Plan_HE01_5", "description": null, "timestamp": null, "begin": null, "end": null, "altitudeMode": "clampToGround", "tessellate": 0, "extrude": 0, "visibility": -1, "drawOrder": null, "icon": null }, "geometry": { "type": "LineString", "coordinates": [ [ 9.690166321453461, 48.452352455123702, 0.0 ], [ 9.68984987826884, 48.453612430358802, 0.0 ] ] } },
{ "type": "Feature", "properties": { "Name": "Data_PATH_ERT_Linien_Plan_HE01_6", "description": null, "timestamp": null, "begin": null, "end": null, "altitudeMode": "clampToGround", "tessellate": 0, "extrude": 0, "visibility": -1, "drawOrder": null, "icon": null }, "geometry": { "type": "LineString", "coordinates": [ [ 9.69023296218657, 48.452359882449997, 0.0 ], [ 9.689916655845041, 48.453619857048302, 0.0 ] ] } },
{ "type": "Feature", "properties": { "Name": "Data_PATH_ERT_Linien_Plan_HE01_7", "description": null, "timestamp": null, "begin": null, "end": null, "altitudeMode": "clampToGround", "tessellate": 0, "extrude": 0, "visibility": -1, "drawOrder": null, "icon": null }, "geometry": { "type": "LineString", "coordinates": [ [ 9.690299738171779, 48.452367308926398, 0.0 ], [ 9.689983298203879, 48.453627284509899, 0.0 ] ] } }
]
}
