{
"type": "FeatureCollection",
"name": "Heroldstatt_WEA1_8",
"crs": { "type": "name", "properties": { "name": "urn:ogc:def:crs:OGC:1.3:CRS84" } },
"features": [
{ "type": "Feature", "properties": { "station": "000", "ost": 550957.544, "nord": 5366867.728, "hoehe": 739.481, "s_lage": 0.016, "s_hoehe": 0.024, "zeit": "06.06.2026 12:00:00", "ost_etrs89": 550958.482, "nord_etrs89": 5366868.568, "hoehe_etrs89": 739.458, "delta_ost_m": 0.938, "delta_nord_m": 0.84 }, "geometry": { "type": "Point", "coordinates": [ 9.68918635799143, 48.45289117794632 ] } },
{ "type": "Feature", "properties": { "station": "008", "ost": 550965.385, "nord": 5366869.019, "hoehe": 739.864, "s_lage": 0.02, "s_hoehe": 0.032, "zeit": "06.06.2026 12:00:00", "ost_etrs89": 550966.323, "nord_etrs89": 5366869.859, "hoehe_etrs89": 739.841, "delta_ost_m": 0.938, "delta_nord_m": 0.84 }, "geometry": { "type": "Point", "coordinates": [ 9.689292552558388, 48.452902156485237 ] } },
{ "type": "Feature", "properties": { "station": "016", "ost": 550973.287, "nord": 5366870.363, "hoehe": 740.551, "s_lage": 0.023, "s_hoehe": 0.04, "zeit": "06.06.2026 12:00:00", "ost_etrs89": 550974.225, "nord_etrs89": 5366871.203, "hoehe_etrs89": 740.528, "delta_ost_m": 0.938, "delta_nord_m": 0.84 }, "geometry": { "type": "Point", "coordinates": [ 9.689399578555511, 48.452913606762777 ] } },
{ "type": "Feature", "properties": { "station": "024", "ost": 550980.999, "nord": 5366871.858, "hoehe": 741.736, "s_lage": 0.018, "s_hoehe": 0.023, "zeit": "06.06.2026 12:00:00", "ost_etrs89": 550981.937, "nord_etrs89": 5366872.698, "hoehe_etrs89": 741.713, "delta_ost_m": 0.938, "delta_nord_m": 0.84 }, "geometry": { "type": "Point", "coordinates": [ 9.689504053535259, 48.452926430704466 ] } },
{ "type": "Feature", "properties": { "station": "032", "ost": 550988.757, "nord": 5366873.237, "hoehe": 742.641, "s_lage": 0.018, "s_hoehe": 0.034, "zeit": "06.06.2026 12:00:00", "ost_etrs89": 550989.695, "nord_etrs89": 5366874.077, "hoehe_etrs89": 742.618, "delta_ost_m": 0.938, "delta_nord_m": 0.84 }, "geometry": { "type": "Point", "coordinates": [ 9.689609136514383, 48.452938207307909 ] } },
{ "type": "Feature", "properties": { "station": "040", "ost": 550996.601, "nord": 5366874.612, "hoehe": 743.331, "s_lage": 0.017, "s_hoehe": 0.028, "zeit": "06.06.2026 12:00:00", "ost_etrs89": 550997.539, "nord_etrs89": 5366875.452, "hoehe_etrs89": 743.308, "delta_ost_m": 0.938, "delta_nord_m": 0.84 }, "geometry": { "type": "Point", "coordinates": [ 9.689715382071622, 48.452949940861615 ] } },
{ "type": "Feature", "properties": { "station": "048", "ost": 551004.43, "nord": 5366875.819, "hoehe": 743.816, "s_lage": 0.018, "s_hoehe": 0.025, "zeit": "06.06.2026 12:00:00", "ost_etrs89": 551005.368, "nord_etrs89": 5366876.659, "hoehe_etrs89": 743.793, "delta_ost_m": 0.938, "delta_nord_m": 0.84 }, "geometry": { "type": "Point", "coordinates": [ 9.689821404352216, 48.45296016423481 ] } },
{ "type": "Feature", "properties": { "station": "051_strasse", "ost": 551007.365, "nord": 5366876.343, "hoehe": 743.917, "s_lage": 0.02, "s_hoehe": 0.032, "zeit": "06.06.2026 12:00:00", "ost_etrs89": 551008.303, "nord_etrs89": 5366877.183, "hoehe_etrs89": 743.894, "delta_ost_m": 0.938, "delta_nord_m": 0.84 }, "geometry": { "type": "Point", "coordinates": [ 9.689861159583426, 48.452964640122254 ] } },
{ "type": "Feature", "properties": { "station": "056", "ost": 551012.302, "nord": 5366877.122, "hoehe": 743.949, "s_lage": 0.022, "s_hoehe": 0.035, "zeit": "06.06.2026 12:00:00", "ost_etrs89": 551013.24, "nord_etrs89": 5366877.962, "hoehe_etrs89": 743.926, "delta_ost_m": 0.938, "delta_nord_m": 0.84 }, "geometry": { "type": "Point", "coordinates": [ 9.68992801988394, 48.452971247622813 ] } },
{ "type": "Feature", "properties": { "station": "064", "ost": 551020.194, "nord": 5366878.329, "hoehe": 744.392, "s_lage": 0.014, "s_hoehe": 0.031, "zeit": "06.06.2026 12:00:00", "ost_etrs89": 551021.132, "nord_etrs89": 5366879.169, "hoehe_etrs89": 744.369, "delta_ost_m": 0.938, "delta_nord_m": 0.84 }, "geometry": { "type": "Point", "coordinates": [ 9.690034894228219, 48.452981465691174 ] } },
{ "type": "Feature", "properties": { "station": "071_mitte", "ost": 551027.401, "nord": 5366879.86, "hoehe": 744.764, "s_lage": 0.018, "s_hoehe": 0.026, "zeit": "06.06.2026 12:00:00", "ost_etrs89": 551028.339, "nord_etrs89": 5366880.7, "hoehe_etrs89": 744.741, "delta_ost_m": 0.938, "delta_nord_m": 0.84 }, "geometry": { "type": "Point", "coordinates": [ 9.690132544535706, 48.452994653859015 ] } },
{ "type": "Feature", "properties": { "station": "072", "ost": 551027.969, "nord": 5366879.968, "hoehe": 744.837, "s_lage": 0.023, "s_hoehe": 0.031, "zeit": "06.06.2026 12:00:00", "ost_etrs89": 551028.907, "nord_etrs89": 5366880.808, "hoehe_etrs89": 744.814, "delta_ost_m": 0.938, "delta_nord_m": 0.84 }, "geometry": { "type": "Point", "coordinates": [ 9.69014023903615, 48.452995579343565 ] } },
{ "type": "Feature", "properties": { "station": "080", "ost": 551035.848, "nord": 5366881.311, "hoehe": 745.332, "s_lage": 0.016, "s_hoehe": 0.022, "zeit": "06.06.2026 12:00:00", "ost_etrs89": 551036.786, "nord_etrs89": 5366882.151, "hoehe_etrs89": 745.309, "delta_ost_m": 0.938, "delta_nord_m": 0.84 }, "geometry": { "type": "Point", "coordinates": [ 9.690246954250128, 48.453007021700486 ] } },
{ "type": "Feature", "properties": { "station": "088", "ost": 551043.712, "nord": 5366882.639, "hoehe": 745.973, "s_lage": 0.017, "s_hoehe": 0.028, "zeit": "06.06.2026 12:00:00", "ost_etrs89": 551044.65, "nord_etrs89": 5366883.479, "hoehe_etrs89": 745.95, "delta_ost_m": 0.938, "delta_nord_m": 0.84 }, "geometry": { "type": "Point", "coordinates": [ 9.690353464829514, 48.453018330237775 ] } },
{ "type": "Feature", "properties": { "station": "096", "ost": 551051.516, "nord": 5366884.237, "hoehe": 746.467, "s_lage": 0.019, "s_hoehe": 0.029, "zeit": "06.06.2026 12:00:00", "ost_etrs89": 551052.454, "nord_etrs89": 5366885.077, "hoehe_etrs89": 746.444, "delta_ost_m": 0.938, "delta_nord_m": 0.84 }, "geometry": { "type": "Point", "coordinates": [ 9.690459196979099, 48.453032072416043 ] } },
{ "type": "Feature", "properties": { "station": "104", "ost": 551059.37, "nord": 5366885.835, "hoehe": 747.11, "s_lage": 0.013, "s_hoehe": 0.02, "zeit": "06.06.2026 12:00:00", "ost_etrs89": 551060.308, "nord_etrs89": 5366886.675, "hoehe_etrs89": 747.087, "delta_ost_m": 0.938, "delta_nord_m": 0.84 }, "geometry": { "type": "Point", "coordinates": [ 9.690565605359087, 48.453045810439413 ] } },
{ "type": "Feature", "properties": { "station": "112", "ost": 551067.267, "nord": 5366887.026, "hoehe": 747.566, "s_lage": 0.016, "s_hoehe": 0.026, "zeit": "06.06.2026 12:00:00", "ost_etrs89": 551068.205, "nord_etrs89": 5366887.866, "hoehe_etrs89": 747.543, "delta_ost_m": 0.938, "delta_nord_m": 0.84 }, "geometry": { "type": "Point", "coordinates": [ 9.690672545646892, 48.453055883575239 ] } },
{ "type": "Feature", "properties": { "station": "120", "ost": 551076.981, "nord": 5366886.153, "hoehe": 759.68, "s_lage": 0.024, "s_hoehe": 0.054, "zeit": "06.06.2026 12:00:00", "ost_etrs89": 551077.919, "nord_etrs89": 5366886.993, "hoehe_etrs89": 759.657, "delta_ost_m": 0.938, "delta_nord_m": 0.84 }, "geometry": { "type": "Point", "coordinates": [ 9.690803806280238, 48.453047241742048 ] } },
{ "type": "Feature", "properties": { "station": "128", "ost": 551082.906, "nord": 5366889.831, "hoehe": 748.747, "s_lage": 0.016, "s_hoehe": 0.029, "zeit": "06.06.2026 12:00:00", "ost_etrs89": 551083.844, "nord_etrs89": 5366890.671, "hoehe_etrs89": 748.724, "delta_ost_m": 0.938, "delta_nord_m": 0.84 }, "geometry": { "type": "Point", "coordinates": [ 9.690884381831474, 48.453079847363931 ] } },
{ "type": "Feature", "properties": { "station": "136", "ost": 551090.767, "nord": 5366891.277, "hoehe": 749.34, "s_lage": 0.014, "s_hoehe": 0.024, "zeit": "06.06.2026 12:00:00", "ost_etrs89": 551091.705, "nord_etrs89": 5366892.117, "hoehe_etrs89": 749.317, "delta_ost_m": 0.938, "delta_nord_m": 0.84 }, "geometry": { "type": "Point", "coordinates": [ 9.690990866532115, 48.453092217060025 ] } },
{ "type": "Feature", "properties": { "station": "142", "ost": 551096.706, "nord": 5366892.237, "hoehe": 749.62, "s_lage": 0.016, "s_hoehe": 0.032, "zeit": "06.06.2026 12:00:00", "ost_etrs89": 551097.644, "nord_etrs89": 5366893.077, "hoehe_etrs89": 749.597, "delta_ost_m": 0.938, "delta_nord_m": 0.84 }, "geometry": { "type": "Point", "coordinates": [ 9.691071299783035, 48.453100370775452 ] } }
]
}
