{
"type": "FeatureCollection",
"name": "Heroldstatt_WEA1_1",
"crs": { "type": "name", "properties": { "name": "urn:ogc:def:crs:OGC:1.3:CRS84" } },
"features": [
{ "type": "Feature", "properties": { "station": "142", "ost": 551024.889, "nord": 5366807.882, "hoehe": 740.365, "s_lage": 0.032, "s_hoehe": 0.038, "zeit": "06.06.2026 12:00:00", "ost_etrs89": 551025.827, "nord_etrs89": 5366808.722, "hoehe_etrs89": 740.342, "delta_ost_m": 0.938, "delta_nord_m": 0.84 }, "geometry": { "type": "Point", "coordinates": [ 9.690089798901848, 48.452347356294297 ] } },
{ "type": "Feature", "properties": { "station": "136", "ost": 551023.829, "nord": 5366813.702, "hoehe": 740.901, "s_lage": 0.036, "s_hoehe": 0.036, "zeit": "06.06.2026 12:00:00", "ost_etrs89": 551024.767, "nord_etrs89": 5366814.542, "hoehe_etrs89": 740.878, "delta_ost_m": 0.938, "delta_nord_m": 0.84 }, "geometry": { "type": "Point", "coordinates": [ 9.690076173677147, 48.452399797938781 ] } },
{ "type": "Feature", "properties": { "station": "128", "ost": 551022.667, "nord": 5366821.375, "hoehe": 741.356, "s_lage": 0.163, "s_hoehe": 0.196, "zeit": "06.06.2026 12:00:00", "ost_etrs89": 551023.605, "nord_etrs89": 5366822.215, "hoehe_etrs89": 741.333, "delta_ost_m": 0.938, "delta_nord_m": 0.84 }, "geometry": { "type": "Point", "coordinates": [ 9.690061394927602, 48.452468917111389 ] } },
{ "type": "Feature", "properties": { "station": "120", "ost": 551021.032, "nord": 5366829.464, "hoehe": 741.498, "s_lage": 0.047, "s_hoehe": 0.056, "zeit": "06.06.2026 12:00:00", "ost_etrs89": 551021.97, "nord_etrs89": 5366830.304, "hoehe_etrs89": 741.475, "delta_ost_m": 0.938, "delta_nord_m": 0.84 }, "geometry": { "type": "Point", "coordinates": [ 9.690040270302175, 48.452541816897906 ] } },
{ "type": "Feature", "properties": { "station": "112", "ost": 551019.711, "nord": 5366837.302, "hoehe": 741.951, "s_lage": 0.096, "s_hoehe": 0.299, "zeit": "06.06.2026 12:00:00", "ost_etrs89": 551020.649, "nord_etrs89": 5366838.142, "hoehe_etrs89": 741.928, "delta_ost_m": 0.938, "delta_nord_m": 0.84 }, "geometry": { "type": "Point", "coordinates": [ 9.690023361361078, 48.452612433267859 ] } },
{ "type": "Feature", "properties": { "station": "104", "ost": 551018.203, "nord": 5366845.136, "hoehe": 742.183, "s_lage": 0.031, "s_hoehe": 0.072, "zeit": "06.06.2026 12:00:00", "ost_etrs89": 551019.141, "nord_etrs89": 5366845.976, "hoehe_etrs89": 742.16, "delta_ost_m": 0.938, "delta_nord_m": 0.84 }, "geometry": { "type": "Point", "coordinates": [ 9.690003923012249, 48.452683028813944 ] } },
{ "type": "Feature", "properties": { "station": "096", "ost": 551016.752, "nord": 5366853.106, "hoehe": 742.863, "s_lage": 0.019, "s_hoehe": 0.023, "zeit": "06.06.2026 12:00:00", "ost_etrs89": 551017.69, "nord_etrs89": 5366853.946, "hoehe_etrs89": 742.84, "delta_ost_m": 0.938, "delta_nord_m": 0.84 }, "geometry": { "type": "Point", "coordinates": [ 9.689985272021808, 48.452754843166318 ] } },
{ "type": "Feature", "properties": { "station": "088", "ost": 551015.587, "nord": 5366860.936, "hoehe": 743.201, "s_lage": 0.099, "s_hoehe": 0.307, "zeit": "06.06.2026 12:00:00", "ost_etrs89": 551016.525, "nord_etrs89": 5366861.776, "hoehe_etrs89": 743.178, "delta_ost_m": 0.938, "delta_nord_m": 0.84 }, "geometry": { "type": "Point", "coordinates": [ 9.689970471616737, 48.452825374911377 ] } },
{ "type": "Feature", "properties": { "station": "080", "ost": 551013.758, "nord": 5366868.497, "hoehe": 747.398, "s_lage": 0.13, "s_hoehe": 0.179, "zeit": "06.06.2026 12:00:00", "ost_etrs89": 551014.696, "nord_etrs89": 5366869.337, "hoehe_etrs89": 747.375, "delta_ost_m": 0.938, "delta_nord_m": 0.84 }, "geometry": { "type": "Point", "coordinates": [ 9.689946658815417, 48.452893540612877 ] } },
{ "type": "Feature", "properties": { "station": "072", "ost": 551012.773, "nord": 5366876.629, "hoehe": 743.888, "s_lage": 0.027, "s_hoehe": 0.033, "zeit": "06.06.2026 12:00:00", "ost_etrs89": 551013.711, "nord_etrs89": 5366877.469, "hoehe_etrs89": 743.865, "delta_ost_m": 0.938, "delta_nord_m": 0.84 }, "geometry": { "type": "Point", "coordinates": [ 9.689934329350514, 48.452966774496424 ] } },
{ "type": "Feature", "properties": { "station": "064", "ost": 551011.374, "nord": 5366884.446, "hoehe": 744.539, "s_lage": 0.019, "s_hoehe": 0.023, "zeit": "06.06.2026 12:00:00", "ost_etrs89": 551012.312, "nord_etrs89": 5366885.286, "hoehe_etrs89": 744.516, "delta_ost_m": 0.938, "delta_nord_m": 0.84 }, "geometry": { "type": "Point", "coordinates": [ 9.689916362736154, 48.453037208258422 ] } },
{ "type": "Feature", "properties": { "station": "056", "ost": 551009.971, "nord": 5366892.355, "hoehe": 745.798, "s_lage": 0.022, "s_hoehe": 0.069, "zeit": "06.06.2026 12:00:00", "ost_etrs89": 551010.909, "nord_etrs89": 5366893.195, "hoehe_etrs89": 745.775, "delta_ost_m": 0.938, "delta_nord_m": 0.84 }, "geometry": { "type": "Point", "coordinates": [ 9.689898353191573, 48.453108469956859 ] } },
{ "type": "Feature", "properties": { "station": "048", "ost": 551008.79, "nord": 5366900.199, "hoehe": 745.631, "s_lage": 0.018, "s_hoehe": 0.028, "zeit": "06.06.2026 12:00:00", "ost_etrs89": 551009.728, "nord_etrs89": 5366901.039, "hoehe_etrs89": 745.608, "delta_ost_m": 0.938, "delta_nord_m": 0.84 }, "geometry": { "type": "Point", "coordinates": [ 9.689883337898268, 48.453179128926067 ] } },
{ "type": "Feature", "properties": { "station": "040", "ost": 551007.336, "nord": 5366908.028, "hoehe": 746.186, "s_lage": 0.016, "s_hoehe": 0.02, "zeit": "06.06.2026 12:00:00", "ost_etrs89": 551008.274, "nord_etrs89": 5366908.868, "hoehe_etrs89": 746.163, "delta_ost_m": 0.938, "delta_nord_m": 0.84 }, "geometry": { "type": "Point", "coordinates": [ 9.689864628809087, 48.453249675086759 ] } },
{ "type": "Feature", "properties": { "station": "032", "ost": 551005.839, "nord": 5366915.86, "hoehe": 746.759, "s_lage": 0.016, "s_hoehe": 0.021, "zeit": "06.06.2026 12:00:00", "ost_etrs89": 551006.777, "nord_etrs89": 5366916.7, "hoehe_etrs89": 746.736, "delta_ost_m": 0.938, "delta_nord_m": 0.84 }, "geometry": { "type": "Point", "coordinates": [ 9.689845338521527, 48.453320251717059 ] } },
{ "type": "Feature", "properties": { "station": "024", "ost": 551004.546, "nord": 5366923.778, "hoehe": 746.963, "s_lage": 0.018, "s_hoehe": 0.025, "zeit": "06.06.2026 12:00:00", "ost_etrs89": 551005.484, "nord_etrs89": 5366924.618, "hoehe_etrs89": 746.94, "delta_ost_m": 0.938, "delta_nord_m": 0.84 }, "geometry": { "type": "Point", "coordinates": [ 9.689828817472192, 48.453391585447285 ] } },
{ "type": "Feature", "properties": { "station": "016", "ost": 551003.437, "nord": 5366931.149, "hoehe": 748.293, "s_lage": 0.243, "s_hoehe": 0.307, "zeit": "06.06.2026 12:00:00", "ost_etrs89": 551004.375, "nord_etrs89": 5366931.989, "hoehe_etrs89": 748.27, "delta_ost_m": 0.938, "delta_nord_m": 0.84 }, "geometry": { "type": "Point", "coordinates": [ 9.689814718061614, 48.453457983544887 ] } },
{ "type": "Feature", "properties": { "station": "008", "ost": 551002.016, "nord": 5366938.221, "hoehe": 749.224, "s_lage": 0.387, "s_hoehe": 0.517, "zeit": "06.06.2026 12:00:00", "ost_etrs89": 551002.954, "nord_etrs89": 5366939.061, "hoehe_etrs89": 749.201, "delta_ost_m": 0.938, "delta_nord_m": 0.84 }, "geometry": { "type": "Point", "coordinates": [ 9.689796362811268, 48.453521717180273 ] } },
{ "type": "Feature", "properties": { "station": "008-2", "ost": 551002.009, "nord": 5366938.23, "hoehe": 749.186, "s_lage": 0.387, "s_hoehe": 0.518, "zeit": "06.06.2026 12:00:00", "ost_etrs89": 551002.947, "nord_etrs89": 5366939.07, "hoehe_etrs89": 749.163, "delta_ost_m": 0.938, "delta_nord_m": 0.84 }, "geometry": { "type": "Point", "coordinates": [ 9.689796269242688, 48.453521798710085 ] } },
{ "type": "Feature", "properties": { "station": "008-3", "ost": 551002.376, "nord": 5366938.19, "hoehe": 752.472, "s_lage": 0.02, "s_hoehe": 0.026, "zeit": "06.06.2026 12:00:00", "ost_etrs89": 551003.314, "nord_etrs89": 5366939.03, "hoehe_etrs89": 752.449, "delta_ost_m": 0.938, "delta_nord_m": 0.84 }, "geometry": { "type": "Point", "coordinates": [ 9.689801227535101, 48.453521409128257 ] } },
{ "type": "Feature", "properties": { "station": "000", "ost": 551000.319, "nord": 5366947.379, "hoehe": 747.935, "s_lage": 0.024, "s_hoehe": 0.042, "zeit": "06.06.2026 12:00:00", "ost_etrs89": 551001.257, "nord_etrs89": 5366948.219, "hoehe_etrs89": 747.912, "delta_ost_m": 0.938, "delta_nord_m": 0.84 }, "geometry": { "type": "Point", "coordinates": [ 9.689774529182992, 48.453604238467072 ] } }
]
}
