{
"type": "FeatureCollection",
"name": "Heroldstatt_WEA3_4",
"crs": { "type": "name", "properties": { "name": "urn:ogc:def:crs:OGC:1.3:CRS84" } },
"features": [
{ "type": "Feature", "properties": { "station": 0, "ost": 551446.829, "nord": 5365883.323, "hoehe": 753.787, "s_lage": 0.024, "s_hoehe": 0.036, "zeit": "10.06.2026 10:16:19", "ost_etrs89": 551447.767, "nord_etrs89": 5365884.164, "hoehe_etrs89": 753.764, "delta_ost_m": 0.938, "delta_nord_m": 0.841 }, "geometry": { "type": "Point", "coordinates": [ 9.695682201266305, 48.443995842764984 ] } },
{ "type": "Feature", "properties": { "station": 8, "ost": 551451.713, "nord": 5365877.155, "hoehe": 753.35, "s_lage": 0.024, "s_hoehe": 0.042, "zeit": "10.06.2026 10:21:49", "ost_etrs89": 551452.651, "nord_etrs89": 5365877.996, "hoehe_etrs89": 753.327, "delta_ost_m": 0.938, "delta_nord_m": 0.841 }, "geometry": { "type": "Point", "coordinates": [ 9.695747480313795, 48.443939957282936 ] } },
{ "type": "Feature", "properties": { "station": 16, "ost": 551456.905, "nord": 5365871.268, "hoehe": 752.966, "s_lage": 0.021, "s_hoehe": 0.041, "zeit": "10.06.2026 10:23:00", "ost_etrs89": 551457.843, "nord_etrs89": 5365872.109, "hoehe_etrs89": 752.943, "delta_ost_m": 0.938, "delta_nord_m": 0.841 }, "geometry": { "type": "Point", "coordinates": [ 9.695816958227867, 48.443886574410335 ] } },
{ "type": "Feature", "properties": { "station": 24, "ost": 551461.97, "nord": 5365865.01, "hoehe": 752.545, "s_lage": 0.026, "s_hoehe": 0.059, "zeit": "10.06.2026 10:23:52", "ost_etrs89": 551462.908, "nord_etrs89": 5365865.851, "hoehe_etrs89": 752.522, "delta_ost_m": 0.938, "delta_nord_m": 0.841 }, "geometry": { "type": "Point", "coordinates": [ 9.695884673233158, 48.443829864428871 ] } },
{ "type": "Feature", "properties": { "station": 32, "ost": 551467.058, "nord": 5365860.87, "hoehe": 751.342, "s_lage": 0.02, "s_hoehe": 0.03, "zeit": "10.06.2026 10:29:57", "ost_etrs89": 551467.996, "nord_etrs89": 5365861.711, "hoehe_etrs89": 751.319, "delta_ost_m": 0.938, "delta_nord_m": 0.841 }, "geometry": { "type": "Point", "coordinates": [ 9.695952959382154, 48.443792205684041 ] } },
{ "type": "Feature", "properties": { "station": 40, "ost": 551472.664, "nord": 5365853.151, "hoehe": 751.767, "s_lage": 0.039, "s_hoehe": 0.047, "zeit": "10.06.2026 10:31:31", "ost_etrs89": 551473.602, "nord_etrs89": 5365853.992, "hoehe_etrs89": 751.744, "delta_ost_m": 0.938, "delta_nord_m": 0.841 }, "geometry": { "type": "Point", "coordinates": [ 9.696027809389451, 48.443722308480353 ] } },
{ "type": "Feature", "properties": { "station": 48, "ost": 551477.417, "nord": 5365846.706, "hoehe": 751.211, "s_lage": 0.022, "s_hoehe": 0.026, "zeit": "10.06.2026 10:33:29", "ost_etrs89": 551478.355, "nord_etrs89": 5365847.547, "hoehe_etrs89": 751.188, "delta_ost_m": 0.938, "delta_nord_m": 0.841 }, "geometry": { "type": "Point", "coordinates": [ 9.696091282408787, 48.443663941673712 ] } },
{ "type": "Feature", "properties": { "station": 56, "ost": 551482.439, "nord": 5365840.594, "hoehe": 750.753, "s_lage": 0.02, "s_hoehe": 0.034, "zeit": "10.06.2026 10:34:21", "ost_etrs89": 551483.377, "nord_etrs89": 5365841.435, "hoehe_etrs89": 750.73, "delta_ost_m": 0.938, "delta_nord_m": 0.841 }, "geometry": { "type": "Point", "coordinates": [ 9.696158433361358, 48.443608548439066 ] } },
{ "type": "Feature", "properties": { "station": 64, "ost": 551487.769, "nord": 5365834.69, "hoehe": 750.441, "s_lage": 0.018, "s_hoehe": 0.027, "zeit": "10.06.2026 10:37:57", "ost_etrs89": 551488.707, "nord_etrs89": 5365835.531, "hoehe_etrs89": 750.418, "delta_ost_m": 0.938, "delta_nord_m": 0.841 }, "geometry": { "type": "Point", "coordinates": [ 9.696229774194832, 48.443555001101693 ] } },
{ "type": "Feature", "properties": { "station": 72, "ost": 551492.873, "nord": 5365828.601, "hoehe": 750.265, "s_lage": 0.019, "s_hoehe": 0.027, "zeit": "10.06.2026 10:39:43", "ost_etrs89": 551493.811, "nord_etrs89": 5365829.442, "hoehe_etrs89": 750.242, "delta_ost_m": 0.938, "delta_nord_m": 0.841 }, "geometry": { "type": "Point", "coordinates": [ 9.696298036398504, 48.443499807982057 ] } },
{ "type": "Feature", "properties": { "station": 80, "ost": 551498.058, "nord": 5365822.302, "hoehe": 749.924, "s_lage": 0.02, "s_hoehe": 0.03, "zeit": "10.06.2026 10:40:20", "ost_etrs89": 551498.996, "nord_etrs89": 5365823.143, "hoehe_etrs89": 749.901, "delta_ost_m": 0.938, "delta_nord_m": 0.841 }, "geometry": { "type": "Point", "coordinates": [ 9.696367367824131, 48.443442719071598 ] } },
{ "type": "Feature", "properties": { "station": 88, "ost": 551503.127, "nord": 5365816.275, "hoehe": 749.562, "s_lage": 0.058, "s_hoehe": 0.036, "zeit": "10.06.2026 10:41:21", "ost_etrs89": 551504.065, "nord_etrs89": 5365817.116, "hoehe_etrs89": 749.539, "delta_ost_m": 0.938, "delta_nord_m": 0.841 }, "geometry": { "type": "Point", "coordinates": [ 9.696435164122217, 48.443388086475792 ] } },
{ "type": "Feature", "properties": { "station": 96, "ost": 551508.342, "nord": 5365810.345, "hoehe": 749.246, "s_lage": 0.017, "s_hoehe": 0.025, "zeit": "10.06.2026 10:45:01", "ost_etrs89": 551509.28, "nord_etrs89": 5365811.186, "hoehe_etrs89": 749.223, "delta_ost_m": 0.938, "delta_nord_m": 0.841 }, "geometry": { "type": "Point", "coordinates": [ 9.696504946256169, 48.443334314487259 ] } },
{ "type": "Feature", "properties": { "station": 104, "ost": 551513.485, "nord": 5365804.107, "hoehe": 749.221, "s_lage": 0.019, "s_hoehe": 0.03, "zeit": "10.06.2026 10:46:07", "ost_etrs89": 551514.423, "nord_etrs89": 5365804.948, "hoehe_etrs89": 749.198, "delta_ost_m": 0.938, "delta_nord_m": 0.841 }, "geometry": { "type": "Point", "coordinates": [ 9.696573716852228, 48.443277777635402 ] } },
{ "type": "Feature", "properties": { "station": 112, "ost": 551518.541, "nord": 5365798.019, "hoehe": 748.812, "s_lage": 0.017, "s_hoehe": 0.024, "zeit": "10.06.2026 10:46:52", "ost_etrs89": 551519.479, "nord_etrs89": 5365798.86, "hoehe_etrs89": 748.789, "delta_ost_m": 0.938, "delta_nord_m": 0.841 }, "geometry": { "type": "Point", "coordinates": [ 9.69664132943446, 48.443222597237323 ] } },
{ "type": "Feature", "properties": { "station": 120, "ost": 551523.719, "nord": 5365791.824, "hoehe": 748.543, "s_lage": 0.016, "s_hoehe": 0.025, "zeit": "10.06.2026 10:47:31", "ost_etrs89": 551524.657, "nord_etrs89": 5365792.665, "hoehe_etrs89": 748.52, "delta_ost_m": 0.938, "delta_nord_m": 0.841 }, "geometry": { "type": "Point", "coordinates": [ 9.696710578248918, 48.443166444259688 ] } },
{ "type": "Feature", "properties": { "station": 128, "ost": 551528.754, "nord": 5365785.719, "hoehe": 748.262, "s_lage": 0.016, "s_hoehe": 0.025, "zeit": "10.06.2026 10:48:16", "ost_etrs89": 551529.692, "nord_etrs89": 5365786.56, "hoehe_etrs89": 748.239, "delta_ost_m": 0.938, "delta_nord_m": 0.841 }, "geometry": { "type": "Point", "coordinates": [ 9.696777904506295, 48.443111112571728 ] } },
{ "type": "Feature", "properties": { "station": 136, "ost": 551533.855, "nord": 5365779.466, "hoehe": 748.079, "s_lage": 0.016, "s_hoehe": 0.025, "zeit": "10.06.2026 10:49:32", "ost_etrs89": 551534.793, "nord_etrs89": 5365780.307, "hoehe_etrs89": 748.056, "delta_ost_m": 0.938, "delta_nord_m": 0.841 }, "geometry": { "type": "Point", "coordinates": [ 9.696846104778823, 48.443054444058824 ] } },
{ "type": "Feature", "properties": { "station": 142, "ost": 551537.747, "nord": 5365775.093, "hoehe": 747.772, "s_lage": 0.017, "s_hoehe": 0.023, "zeit": "10.06.2026 10:51:04", "ost_etrs89": 551538.685, "nord_etrs89": 5365775.934, "hoehe_etrs89": 747.749, "delta_ost_m": 0.938, "delta_nord_m": 0.841 }, "geometry": { "type": "Point", "coordinates": [ 9.696898189618832, 48.443014786650458 ] } }
]
}
