{
"type": "FeatureCollection",
"name": "Heroldstatt_WEA2_1",
"crs": { "type": "name", "properties": { "name": "urn:ogc:def:crs:OGC:1.3:CRS84" } },
"features": [
{ "type": "Feature", "properties": { "station": 0, "ost": 551049.334, "nord": 5366493.035, "hoehe": 744.415, "s_lage": 0.012, "s_hoehe": 0.016, "zeit": "05.06.2026 10:13:56", "ost_etrs89": 551050.272, "nord_etrs89": 5366493.875, "hoehe_etrs89": 744.391, "delta_ost_m": 0.938, "delta_nord_m": 0.84 }, "geometry": { "type": "Point", "coordinates": [ 9.690381979042124, 48.449513065249818 ] } },
{ "type": "Feature", "properties": { "station": 8, "ost": 551049.314, "nord": 5366484.968, "hoehe": 744.558, "s_lage": 0.02, "s_hoehe": 0.035, "zeit": "05.06.2026 10:15:04", "ost_etrs89": 551050.252, "nord_etrs89": 5366485.808, "hoehe_etrs89": 744.534, "delta_ost_m": 0.938, "delta_nord_m": 0.84 }, "geometry": { "type": "Point", "coordinates": [ 9.690380724863717, 48.449440497539783 ] } },
{ "type": "Feature", "properties": { "station": 16, "ost": 551049.458, "nord": 5366477.041, "hoehe": 744.71, "s_lage": 0.013, "s_hoehe": 0.02, "zeit": "05.06.2026 10:15:40", "ost_etrs89": 551050.396, "nord_etrs89": 5366477.881, "hoehe_etrs89": 744.686, "delta_ost_m": 0.938, "delta_nord_m": 0.84 }, "geometry": { "type": "Point", "coordinates": [ 9.690381705453923, 48.44936917594034 ] } },
{ "type": "Feature", "properties": { "station": 24, "ost": 551049.351, "nord": 5366469.023, "hoehe": 744.945, "s_lage": 0.015, "s_hoehe": 0.02, "zeit": "05.06.2026 10:16:19", "ost_etrs89": 551050.289, "nord_etrs89": 5366469.863, "hoehe_etrs89": 744.921, "delta_ost_m": 0.938, "delta_nord_m": 0.84 }, "geometry": { "type": "Point", "coordinates": [ 9.690379280800098, 48.449297056081676 ] } },
{ "type": "Feature", "properties": { "station": 32, "ost": 551049.286, "nord": 5366461.062, "hoehe": 745.257, "s_lage": 0.012, "s_hoehe": 0.018, "zeit": "05.06.2026 10:17:01", "ost_etrs89": 551050.224, "nord_etrs89": 5366461.902, "hoehe_etrs89": 745.233, "delta_ost_m": 0.938, "delta_nord_m": 0.84 }, "geometry": { "type": "Point", "coordinates": [ 9.690377431048825, 48.449225445577014 ] } },
{ "type": "Feature", "properties": { "station": 40, "ost": 551049.139, "nord": 5366453.114, "hoehe": 745.449, "s_lage": 0.011, "s_hoehe": 0.014, "zeit": "05.06.2026 10:19:27", "ost_etrs89": 551050.077, "nord_etrs89": 5366453.954, "hoehe_etrs89": 745.425, "delta_ost_m": 0.938, "delta_nord_m": 0.84 }, "geometry": { "type": "Point", "coordinates": [ 9.690374474047864, 48.449153958669172 ] } },
{ "type": "Feature", "properties": { "station": 48, "ost": 551049.174, "nord": 5366444.976, "hoehe": 745.563, "s_lage": 0.013, "s_hoehe": 0.02, "zeit": "05.06.2026 10:22:04", "ost_etrs89": 551050.112, "nord_etrs89": 5366445.816, "hoehe_etrs89": 745.539, "delta_ost_m": 0.938, "delta_nord_m": 0.84 }, "geometry": { "type": "Point", "coordinates": [ 9.690373954970497, 48.449080747789012 ] } },
{ "type": "Feature", "properties": { "station": 56, "ost": 551049.152, "nord": 5366437.094, "hoehe": 745.612, "s_lage": 0.016, "s_hoehe": 0.022, "zeit": "05.06.2026 10:24:42", "ost_etrs89": 551050.09, "nord_etrs89": 5366437.934, "hoehe_etrs89": 745.588, "delta_ost_m": 0.938, "delta_nord_m": 0.84 }, "geometry": { "type": "Point", "coordinates": [ 9.690372696335027, 48.449009844463617 ] } },
{ "type": "Feature", "properties": { "station": 64, "ost": 551049.309, "nord": 5366429.114, "hoehe": 745.541, "s_lage": 0.011, "s_hoehe": 0.015, "zeit": "05.06.2026 10:25:26", "ost_etrs89": 551050.247, "nord_etrs89": 5366429.954, "hoehe_etrs89": 745.517, "delta_ost_m": 0.938, "delta_nord_m": 0.84 }, "geometry": { "type": "Point", "coordinates": [ 9.690373846262906, 48.448938045025486 ] } },
{ "type": "Feature", "properties": { "station": 72, "ost": 551049.375, "nord": 5366421.087, "hoehe": 745.358, "s_lage": 0.012, "s_hoehe": 0.016, "zeit": "05.06.2026 10:27:19", "ost_etrs89": 551050.313, "nord_etrs89": 5366421.927, "hoehe_etrs89": 745.334, "delta_ost_m": 0.938, "delta_nord_m": 0.84 }, "geometry": { "type": "Point", "coordinates": [ 9.690373759921064, 48.448865830164642 ] } },
{ "type": "Feature", "properties": { "station": 80, "ost": 551049.394, "nord": 5366413.103, "hoehe": 745.075, "s_lage": 0.014, "s_hoehe": 0.026, "zeit": "05.06.2026 10:27:58", "ost_etrs89": 551050.332, "nord_etrs89": 5366413.943, "hoehe_etrs89": 745.051, "delta_ost_m": 0.938, "delta_nord_m": 0.84 }, "geometry": { "type": "Point", "coordinates": [ 9.690373043273162, 48.448794005936186 ] } },
{ "type": "Feature", "properties": { "station": 88, "ost": 551049.313, "nord": 5366405.154, "hoehe": 744.633, "s_lage": 0.013, "s_hoehe": 0.022, "zeit": "05.06.2026 10:28:58", "ost_etrs89": 551050.251, "nord_etrs89": 5366405.994, "hoehe_etrs89": 744.609, "delta_ost_m": 0.938, "delta_nord_m": 0.84 }, "geometry": { "type": "Point", "coordinates": [ 9.69037097866233, 48.448722504672922 ] } },
{ "type": "Feature", "properties": { "station": 96, "ost": 551049.229, "nord": 5366397.264, "hoehe": 744.269, "s_lage": 0.014, "s_hoehe": 0.023, "zeit": "05.06.2026 10:30:35", "ost_etrs89": 551050.167, "nord_etrs89": 5366398.104, "hoehe_etrs89": 744.245, "delta_ost_m": 0.938, "delta_nord_m": 0.84 }, "geometry": { "type": "Point", "coordinates": [ 9.690368880685799, 48.448651534405911 ] } },
{ "type": "Feature", "properties": { "station": 104, "ost": 551049.388, "nord": 5366389.179, "hoehe": 743.768, "s_lage": 0.016, "s_hoehe": 0.022, "zeit": "05.06.2026 10:31:39", "ost_etrs89": 551050.326, "nord_etrs89": 5366390.019, "hoehe_etrs89": 743.744, "delta_ost_m": 0.938, "delta_nord_m": 0.84 }, "geometry": { "type": "Point", "coordinates": [ 9.690370044857387, 48.448578790239182 ] } },
{ "type": "Feature", "properties": { "station": 112, "ost": 551049.306, "nord": 5366381.39, "hoehe": 742.227, "s_lage": 0.018, "s_hoehe": 0.022, "zeit": "05.06.2026 10:32:21", "ost_etrs89": 551050.244, "nord_etrs89": 5366382.23, "hoehe_etrs89": 742.203, "delta_ost_m": 0.938, "delta_nord_m": 0.84 }, "geometry": { "type": "Point", "coordinates": [ 9.690367986250537, 48.448508728386756 ] } },
{ "type": "Feature", "properties": { "station": 120, "ost": 551049.323, "nord": 5366373.661, "hoehe": 740.33, "s_lage": 0.019, "s_hoehe": 0.022, "zeit": "05.06.2026 10:33:34", "ost_etrs89": 551050.261, "nord_etrs89": 5366374.501, "hoehe_etrs89": 740.306, "delta_ost_m": 0.938, "delta_nord_m": 0.84 }, "geometry": { "type": "Point", "coordinates": [ 9.690367273670773, 48.448439198252174 ] } },
{ "type": "Feature", "properties": { "station": 128, "ost": 551049.372, "nord": 5366365.699, "hoehe": 739.164, "s_lage": 0.021, "s_hoehe": 0.027, "zeit": "05.06.2026 10:37:30", "ost_etrs89": 551050.31, "nord_etrs89": 5366366.539, "hoehe_etrs89": 739.14, "delta_ost_m": 0.938, "delta_nord_m": 0.84 }, "geometry": { "type": "Point", "coordinates": [ 9.690366965394416, 48.448367569492909 ] } },
{ "type": "Feature", "properties": { "station": 136, "ost": 551049.432, "nord": 5366357.762, "hoehe": 738.288, "s_lage": 0.016, "s_hoehe": 0.024, "zeit": "05.06.2026 10:40:13", "ost_etrs89": 551050.37, "nord_etrs89": 5366358.602, "hoehe_etrs89": 738.264, "delta_ost_m": 0.938, "delta_nord_m": 0.84 }, "geometry": { "type": "Point", "coordinates": [ 9.690366808912913, 48.448296164736142 ] } },
{ "type": "Feature", "properties": { "station": 142, "ost": 551049.187, "nord": 5366351.669, "hoehe": 737.952, "s_lage": 0.037, "s_hoehe": 0.06, "zeit": "05.06.2026 10:41:13", "ost_etrs89": 551050.125, "nord_etrs89": 5366352.509, "hoehe_etrs89": 737.928, "delta_ost_m": 0.938, "delta_nord_m": 0.84 }, "geometry": { "type": "Point", "coordinates": [ 9.690362753009794, 48.448241373027784 ] } }
]
}
