{
"type": "FeatureCollection",
"name": "Heroldstatt_WEA1_7",
"crs": { "type": "name", "properties": { "name": "urn:ogc:def:crs:OGC:1.3:CRS84" } },
"features": [
{ "type": "Feature", "properties": { "station": 0, "ost": 551029.801, "nord": 5366952.429, "hoehe": 749.886, "s_lage": 0.022, "s_hoehe": 0.047, "zeit": "03.06.2026 10:04:59", "ost_etrs89": 551030.739, "nord_etrs89": 5366953.269, "hoehe_etrs89": 749.863, "delta_ost_m": 0.938, "delta_nord_m": 0.84 }, "geometry": { "type": "Point", "coordinates": [ 9.690173848753767, 48.453647276943563 ] } },
{ "type": "Feature", "properties": { "station": 8, "ost": 551031.045, "nord": 5366944.608, "hoehe": 749.686, "s_lage": 0.017, "s_hoehe": 0.029, "zeit": "03.06.2026 10:08:49", "ost_etrs89": 551031.983, "nord_etrs89": 5366945.448, "hoehe_etrs89": 749.663, "delta_ost_m": 0.938, "delta_nord_m": 0.84 }, "geometry": { "type": "Point", "coordinates": [ 9.690189718567623, 48.453576819737641 ] } },
{ "type": "Feature", "properties": { "station": 16, "ost": 551032.772, "nord": 5366936.825, "hoehe": 749.476, "s_lage": 0.043, "s_hoehe": 0.042, "zeit": "03.06.2026 10:11:03", "ost_etrs89": 551033.71, "nord_etrs89": 5366937.665, "hoehe_etrs89": 749.453, "delta_ost_m": 0.938, "delta_nord_m": 0.84 }, "geometry": { "type": "Point", "coordinates": [ 9.690212124875611, 48.453506665194865 ] } },
{ "type": "Feature", "properties": { "station": 24, "ost": 551033.836, "nord": 5366928.894, "hoehe": 749.357, "s_lage": 0.016, "s_hoehe": 0.032, "zeit": "03.06.2026 10:11:38", "ost_etrs89": 551034.774, "nord_etrs89": 5366929.734, "hoehe_etrs89": 749.334, "delta_ost_m": 0.938, "delta_nord_m": 0.84 }, "geometry": { "type": "Point", "coordinates": [ 9.690225546935521, 48.453435233041937 ] } },
{ "type": "Feature", "properties": { "station": 32, "ost": 551035.331, "nord": 5366921.004, "hoehe": 748.936, "s_lage": 0.017, "s_hoehe": 0.035, "zeit": "03.06.2026 10:12:46", "ost_etrs89": 551036.269, "nord_etrs89": 5366921.844, "hoehe_etrs89": 748.913, "delta_ost_m": 0.938, "delta_nord_m": 0.84 }, "geometry": { "type": "Point", "coordinates": [ 9.690244802617791, 48.453364134756221 ] } },
{ "type": "Feature", "properties": { "station": 40, "ost": 551036.347, "nord": 5366913.018, "hoehe": 748.494, "s_lage": 0.015, "s_hoehe": 0.033, "zeit": "03.06.2026 10:13:23", "ost_etrs89": 551037.285, "nord_etrs89": 5366913.858, "hoehe_etrs89": 748.471, "delta_ost_m": 0.938, "delta_nord_m": 0.84 }, "geometry": { "type": "Point", "coordinates": [ 9.690257568759185, 48.453292211721426 ] } },
{ "type": "Feature", "properties": { "station": 48, "ost": 551038.017, "nord": 5366905.31, "hoehe": 747.683, "s_lage": 0.019, "s_hoehe": 0.036, "zeit": "03.06.2026 10:15:11", "ost_etrs89": 551038.955, "nord_etrs89": 5366906.15, "hoehe_etrs89": 747.66, "delta_ost_m": 0.938, "delta_nord_m": 0.84 }, "geometry": { "type": "Point", "coordinates": [ 9.690279213156753, 48.453222736473194 ] } },
{ "type": "Feature", "properties": { "station": 56, "ost": 551039.385, "nord": 5366897.524, "hoehe": 746.86, "s_lage": 0.019, "s_hoehe": 0.036, "zeit": "03.06.2026 10:15:53", "ost_etrs89": 551040.323, "nord_etrs89": 5366898.364, "hoehe_etrs89": 746.837, "delta_ost_m": 0.938, "delta_nord_m": 0.84 }, "geometry": { "type": "Point", "coordinates": [ 9.690296763882664, 48.453152584043977 ] } },
{ "type": "Feature", "properties": { "station": 64, "ost": 551040.71, "nord": 5366889.646, "hoehe": 746.329, "s_lage": 0.019, "s_hoehe": 0.036, "zeit": "03.06.2026 10:17:37", "ost_etrs89": 551041.648, "nord_etrs89": 5366890.486, "hoehe_etrs89": 746.306, "delta_ost_m": 0.938, "delta_nord_m": 0.84 }, "geometry": { "type": "Point", "coordinates": [ 9.690313721831618, 48.45308160748408 ] } },
{ "type": "Feature", "properties": { "station": 72, "ost": 551042.005, "nord": 5366881.831, "hoehe": 745.796, "s_lage": 0.017, "s_hoehe": 0.031, "zeit": "03.06.2026 10:18:29", "ost_etrs89": 551042.943, "nord_etrs89": 5366882.671, "hoehe_etrs89": 745.773, "delta_ost_m": 0.938, "delta_nord_m": 0.84 }, "geometry": { "type": "Point", "coordinates": [ 9.690330281712887, 48.453011200091431 ] } },
{ "type": "Feature", "properties": { "station": 80, "ost": 551043.401, "nord": 5366873.913, "hoehe": 745.269, "s_lage": 0.024, "s_hoehe": 0.049, "zeit": "03.06.2026 10:22:06", "ost_etrs89": 551044.339, "nord_etrs89": 5366874.753, "hoehe_etrs89": 745.246, "delta_ost_m": 0.938, "delta_nord_m": 0.84 }, "geometry": { "type": "Point", "coordinates": [ 9.690348194857549, 48.45293985793267 ] } },
{ "type": "Feature", "properties": { "station": 88, "ost": 551045.027, "nord": 5366866.189, "hoehe": 744.818, "s_lage": 0.02, "s_hoehe": 0.04, "zeit": "03.06.2026 10:24:13", "ost_etrs89": 551045.965, "nord_etrs89": 5366867.029, "hoehe_etrs89": 744.795, "delta_ost_m": 0.938, "delta_nord_m": 0.84 }, "geometry": { "type": "Point", "coordinates": [ 9.690369242003955, 48.452870242300861 ] } },
{ "type": "Feature", "properties": { "station": 96, "ost": 551046.235, "nord": 5366858.198, "hoehe": 744.404, "s_lage": 0.024, "s_hoehe": 0.041, "zeit": "03.06.2026 10:28:20", "ost_etrs89": 551047.173, "nord_etrs89": 5366859.038, "hoehe_etrs89": 744.381, "delta_ost_m": 0.938, "delta_nord_m": 0.84 }, "geometry": { "type": "Point", "coordinates": [ 9.690384603740192, 48.452798258691878 ] } },
{ "type": "Feature", "properties": { "station": 104, "ost": 551047.434, "nord": 5366850.276, "hoehe": 744.07, "s_lage": 0.019, "s_hoehe": 0.037, "zeit": "03.06.2026 10:34:26", "ost_etrs89": 551048.372, "nord_etrs89": 5366851.116, "hoehe_etrs89": 744.047, "delta_ost_m": 0.938, "delta_nord_m": 0.84 }, "geometry": { "type": "Point", "coordinates": [ 9.69039985213881, 48.452726896522023 ] } },
{ "type": "Feature", "properties": { "station": 112, "ost": 551049.07, "nord": 5366842.495, "hoehe": 743.645, "s_lage": 0.022, "s_hoehe": 0.038, "zeit": "03.06.2026 10:35:50", "ost_etrs89": 551050.008, "nord_etrs89": 5366843.335, "hoehe_etrs89": 743.622, "delta_ost_m": 0.938, "delta_nord_m": 0.84 }, "geometry": { "type": "Point", "coordinates": [ 9.690421027411402, 48.452656767305783 ] } },
{ "type": "Feature", "properties": { "station": 120, "ost": 551050.494, "nord": 5366834.676, "hoehe": 743.234, "s_lage": 0.032, "s_hoehe": 0.041, "zeit": "03.06.2026 10:42:10", "ost_etrs89": 551051.432, "nord_etrs89": 5366835.516, "hoehe_etrs89": 743.211, "delta_ost_m": 0.938, "delta_nord_m": 0.84 }, "geometry": { "type": "Point", "coordinates": [ 9.690439331038469, 48.4525863134443 ] } },
{ "type": "Feature", "properties": { "station": 128, "ost": 551051.877, "nord": 5366826.866, "hoehe": 742.763, "s_lage": 0.019, "s_hoehe": 0.032, "zeit": "03.06.2026 10:43:06", "ost_etrs89": 551052.815, "nord_etrs89": 5366827.706, "hoehe_etrs89": 742.74, "delta_ost_m": 0.938, "delta_nord_m": 0.84 }, "geometry": { "type": "Point", "coordinates": [ 9.690457081256442, 48.452515943868242 ] } },
{ "type": "Feature", "properties": { "station": 136, "ost": 551053.337, "nord": 5366819.012, "hoehe": 742.229, "s_lage": 0.02, "s_hoehe": 0.036, "zeit": "03.06.2026 10:43:48", "ost_etrs89": 551054.275, "nord_etrs89": 5366819.852, "hoehe_etrs89": 742.206, "delta_ost_m": 0.938, "delta_nord_m": 0.84 }, "geometry": { "type": "Point", "coordinates": [ 9.690475867355728, 48.452445172225048 ] } },
{ "type": "Feature", "properties": { "station": 142, "ost": 551054.431, "nord": 5366813.067, "hoehe": 742.185, "s_lage": 0.022, "s_hoehe": 0.038, "zeit": "03.06.2026 10:45:31", "ost_etrs89": 551055.369, "nord_etrs89": 5366813.907, "hoehe_etrs89": 742.162, "delta_ost_m": 0.938, "delta_nord_m": 0.84 }, "geometry": { "type": "Point", "coordinates": [ 9.690489936725568, 48.452391603299084 ] } }
]
}
