{
"type": "FeatureCollection",
"name": "Heroldstatt_WEA2_7",
"crs": { "type": "name", "properties": { "name": "urn:ogc:def:crs:OGC:1.3:CRS84" } },
"features": [
{ "type": "Feature", "properties": { "station": 142, "ost": 551079.29, "nord": 5366351.604, "hoehe": 739.952, "s_lage": 0.019, "s_hoehe": 0.028, "zeit": "06.06.2026 13:25:52", "ost_etrs89": 551080.228, "nord_etrs89": 5366352.444, "hoehe_etrs89": 739.928, "delta_ost_m": 0.938, "delta_nord_m": 0.84 }, "geometry": { "type": "Point", "coordinates": [ 9.690769804186553, 48.448238345636319 ] } },
{ "type": "Feature", "properties": { "station": 138, "ost": 551079.294, "nord": 5366355.572, "hoehe": 740.489, "s_lage": 0.016, "s_hoehe": 0.022, "zeit": "06.06.2026 13:29:10", "ost_etrs89": 551080.232, "nord_etrs89": 5366356.412, "hoehe_etrs89": 740.465, "delta_ost_m": 0.938, "delta_nord_m": 0.84 }, "geometry": { "type": "Point", "coordinates": [ 9.690770342403534, 48.44827404075594 ] } },
{ "type": "Feature", "properties": { "station": 132, "ost": 551079.276, "nord": 5366361.517, "hoehe": 740.778, "s_lage": 0.015, "s_hoehe": 0.021, "zeit": "06.06.2026 13:29:46", "ost_etrs89": 551080.214, "nord_etrs89": 5366362.357, "hoehe_etrs89": 740.754, "delta_ost_m": 0.938, "delta_nord_m": 0.84 }, "geometry": { "type": "Point", "coordinates": [ 9.690770824343264, 48.448327522412193 ] } },
{ "type": "Feature", "properties": { "station": 126, "ost": 551079.279, "nord": 5366367.492, "hoehe": 741.465, "s_lage": 0.016, "s_hoehe": 0.02, "zeit": "06.06.2026 13:32:17", "ost_etrs89": 551080.217, "nord_etrs89": 5366368.332, "hoehe_etrs89": 741.441, "delta_ost_m": 0.938, "delta_nord_m": 0.84 }, "geometry": { "type": "Point", "coordinates": [ 9.69077159391207, 48.448381272238258 ] } },
{ "type": "Feature", "properties": { "station": 120, "ost": 551079.267, "nord": 5366373.424, "hoehe": 742.356, "s_lage": 0.019, "s_hoehe": 0.03, "zeit": "06.06.2026 13:32:56", "ost_etrs89": 551080.205, "nord_etrs89": 5366374.264, "hoehe_etrs89": 742.332, "delta_ost_m": 0.938, "delta_nord_m": 0.84 }, "geometry": { "type": "Point", "coordinates": [ 9.690772155402781, 48.448434636460746 ] } },
{ "type": "Feature", "properties": { "station": 114, "ost": 551079.315, "nord": 5366379.315, "hoehe": 743.534, "s_lage": 0.017, "s_hoehe": 0.021, "zeit": "06.06.2026 13:34:50", "ost_etrs89": 551080.253, "nord_etrs89": 5366380.155, "hoehe_etrs89": 743.51, "delta_ost_m": 0.938, "delta_nord_m": 0.84 }, "geometry": { "type": "Point", "coordinates": [ 9.690773523229423, 48.448487626983713 ] } },
{ "type": "Feature", "properties": { "station": 108, "ost": 551079.32, "nord": 5366385.232, "hoehe": 744.419, "s_lage": 0.017, "s_hoehe": 0.027, "zeit": "06.06.2026 13:35:22", "ost_etrs89": 551080.258, "nord_etrs89": 5366386.072, "hoehe_etrs89": 744.395, "delta_ost_m": 0.938, "delta_nord_m": 0.84 }, "geometry": { "type": "Point", "coordinates": [ 9.690774312773298, 48.448540854887909 ] } },
{ "type": "Feature", "properties": { "station": 102, "ost": 551079.351, "nord": 5366391.19, "hoehe": 744.865, "s_lage": 0.016, "s_hoehe": 0.025, "zeit": "06.06.2026 13:35:54", "ost_etrs89": 551080.289, "nord_etrs89": 5366392.03, "hoehe_etrs89": 744.841, "delta_ost_m": 0.938, "delta_nord_m": 0.84 }, "geometry": { "type": "Point", "coordinates": [ 9.690775458901753, 48.448594449510146 ] } },
{ "type": "Feature", "properties": { "station": 96, "ost": 551079.371, "nord": 5366397.221, "hoehe": 745.402, "s_lage": 0.014, "s_hoehe": 0.022, "zeit": "06.06.2026 13:36:25", "ost_etrs89": 551080.309, "nord_etrs89": 5366398.061, "hoehe_etrs89": 745.378, "delta_ost_m": 0.938, "delta_nord_m": 0.84 }, "geometry": { "type": "Point", "coordinates": [ 9.690776465194515, 48.448648701720082 ] } },
{ "type": "Feature", "properties": { "station": 90, "ost": 551079.25, "nord": 5366403.127, "hoehe": 745.877, "s_lage": 0.015, "s_hoehe": 0.023, "zeit": "06.06.2026 13:37:25", "ost_etrs89": 551080.188, "nord_etrs89": 5366403.967, "hoehe_etrs89": 745.853, "delta_ost_m": 0.938, "delta_nord_m": 0.84 }, "geometry": { "type": "Point", "coordinates": [ 9.690775549589725, 48.448701840895929 ] } },
{ "type": "Feature", "properties": { "station": 84, "ost": 551079.273, "nord": 5366409.135, "hoehe": 746.151, "s_lage": 0.014, "s_hoehe": 0.018, "zeit": "06.06.2026 13:37:55", "ost_etrs89": 551080.211, "nord_etrs89": 5366409.975, "hoehe_etrs89": 746.127, "delta_ost_m": 0.938, "delta_nord_m": 0.84 }, "geometry": { "type": "Point", "coordinates": [ 9.690776593646708, 48.448755885957311 ] } },
{ "type": "Feature", "properties": { "station": 78, "ost": 551079.39, "nord": 5366415.12, "hoehe": 746.463, "s_lage": 0.014, "s_hoehe": 0.023, "zeit": "06.06.2026 13:38:29", "ost_etrs89": 551080.328, "nord_etrs89": 5366415.96, "hoehe_etrs89": 746.439, "delta_ost_m": 0.938, "delta_nord_m": 0.84 }, "geometry": { "type": "Point", "coordinates": [ 9.690778906002208, 48.44880971648427 ] } },
{ "type": "Feature", "properties": { "station": 72, "ost": 551079.176, "nord": 5366421.062, "hoehe": 746.624, "s_lage": 0.014, "s_hoehe": 0.027, "zeit": "06.06.2026 13:39:12", "ost_etrs89": 551080.114, "nord_etrs89": 5366421.902, "hoehe_etrs89": 746.6, "delta_ost_m": 0.938, "delta_nord_m": 0.84 }, "geometry": { "type": "Point", "coordinates": [ 9.690776737210383, 48.448863187057128 ] } },
{ "type": "Feature", "properties": { "station": 66, "ost": 551079.347, "nord": 5366427.052, "hoehe": 746.804, "s_lage": 0.013, "s_hoehe": 0.019, "zeit": "06.06.2026 13:39:48", "ost_etrs89": 551080.285, "nord_etrs89": 5366427.892, "hoehe_etrs89": 746.781, "delta_ost_m": 0.938, "delta_nord_m": 0.84 }, "geometry": { "type": "Point", "coordinates": [ 9.690779780391226, 48.448917058179049 ] } },
{ "type": "Feature", "properties": { "station": 60, "ost": 551079.425, "nord": 5366433.13, "hoehe": 746.93, "s_lage": 0.015, "s_hoehe": 0.026, "zeit": "06.06.2026 13:40:20", "ost_etrs89": 551080.363, "nord_etrs89": 5366433.97, "hoehe_etrs89": 746.907, "delta_ost_m": 0.938, "delta_nord_m": 0.84 }, "geometry": { "type": "Point", "coordinates": [ 9.690781576732702, 48.448971728481865 ] } },
{ "type": "Feature", "properties": { "station": 54, "ost": 551079.421, "nord": 5366439.126, "hoehe": 747.18, "s_lage": 0.018, "s_hoehe": 0.043, "zeit": "06.06.2026 13:40:53", "ost_etrs89": 551080.359, "nord_etrs89": 5366439.966, "hoehe_etrs89": 747.157, "delta_ost_m": 0.938, "delta_nord_m": 0.84 }, "geometry": { "type": "Point", "coordinates": [ 9.690782254235208, 48.449025667782294 ] } },
{ "type": "Feature", "properties": { "station": 48, "ost": 551079.422, "nord": 5366445.09, "hoehe": 747.281, "s_lage": 0.019, "s_hoehe": 0.049, "zeit": "06.06.2026 13:41:39", "ost_etrs89": 551080.36, "nord_etrs89": 5366445.93, "hoehe_etrs89": 747.258, "delta_ost_m": 0.938, "delta_nord_m": 0.84 }, "geometry": { "type": "Point", "coordinates": [ 9.690782995447478, 48.449079318809908 ] } },
{ "type": "Feature", "properties": { "station": 42, "ost": 551079.287, "nord": 5366451.116, "hoehe": 747.311, "s_lage": 0.013, "s_hoehe": 0.022, "zeit": "06.06.2026 13:42:08", "ost_etrs89": 551080.225, "nord_etrs89": 5366451.956, "hoehe_etrs89": 747.288, "delta_ost_m": 0.938, "delta_nord_m": 0.84 }, "geometry": { "type": "Point", "coordinates": [ 9.690781905173976, 48.449133538617374 ] } },
{ "type": "Feature", "properties": { "station": 36, "ost": 551079.275, "nord": 5366457.07, "hoehe": 747.278, "s_lage": 0.015, "s_hoehe": 0.029, "zeit": "06.06.2026 13:42:40", "ost_etrs89": 551080.213, "nord_etrs89": 5366457.91, "hoehe_etrs89": 747.255, "delta_ost_m": 0.938, "delta_nord_m": 0.84 }, "geometry": { "type": "Point", "coordinates": [ 9.690782469376524, 48.449187100740929 ] } },
{ "type": "Feature", "properties": { "station": 30, "ost": 551079.315, "nord": 5366463.103, "hoehe": 747.164, "s_lage": 0.02, "s_hoehe": 0.033, "zeit": "06.06.2026 13:43:19", "ost_etrs89": 551080.253, "nord_etrs89": 5366463.943, "hoehe_etrs89": 747.141, "delta_ost_m": 0.938, "delta_nord_m": 0.84 }, "geometry": { "type": "Point", "coordinates": [ 9.690783746388755, 48.449241369313398 ] } },
{ "type": "Feature", "properties": { "station": 24, "ost": 551079.384, "nord": 5366469.047, "hoehe": 746.977, "s_lage": 0.013, "s_hoehe": 0.021, "zeit": "06.06.2026 13:43:46", "ost_etrs89": 551080.322, "nord_etrs89": 5366469.887, "hoehe_etrs89": 746.954, "delta_ost_m": 0.938, "delta_nord_m": 0.84 }, "geometry": { "type": "Point", "coordinates": [ 9.690785404697188, 48.449294834902851 ] } },
{ "type": "Feature", "properties": { "station": 18, "ost": 551079.348, "nord": 5366475.103, "hoehe": 746.896, "s_lage": 0.016, "s_hoehe": 0.027, "zeit": "06.06.2026 13:44:13", "ost_etrs89": 551080.286, "nord_etrs89": 5366475.943, "hoehe_etrs89": 746.873, "delta_ost_m": 0.938, "delta_nord_m": 0.84 }, "geometry": { "type": "Point", "coordinates": [ 9.690785656812492, 48.449349316547213 ] } },
{ "type": "Feature", "properties": { "station": 12, "ost": 551079.315, "nord": 5366481.014, "hoehe": 746.772, "s_lage": 0.015, "s_hoehe": 0.023, "zeit": "06.06.2026 13:44:39", "ost_etrs89": 551080.253, "nord_etrs89": 5366481.854, "hoehe_etrs89": 746.749, "delta_ost_m": 0.938, "delta_nord_m": 0.84 }, "geometry": { "type": "Point", "coordinates": [ 9.690785931804227, 48.449402493552789 ] } },
{ "type": "Feature", "properties": { "station": 6, "ost": 551079.242, "nord": 5366487.04, "hoehe": 746.704, "s_lage": 0.011, "s_hoehe": 0.018, "zeit": "06.06.2026 13:45:31", "ost_etrs89": 551080.18, "nord_etrs89": 5366487.88, "hoehe_etrs89": 746.681, "delta_ost_m": 0.938, "delta_nord_m": 0.84 }, "geometry": { "type": "Point", "coordinates": [ 9.690785679927659, 48.449456708324668 ] } },
{ "type": "Feature", "properties": { "station": 0, "ost": 551079.247, "nord": 5366493.027, "hoehe": 746.56, "s_lage": 0.01, "s_hoehe": 0.016, "zeit": "06.06.2026 13:46:16", "ost_etrs89": 551080.185, "nord_etrs89": 5366493.867, "hoehe_etrs89": 746.537, "delta_ost_m": 0.938, "delta_nord_m": 0.84 }, "geometry": { "type": "Point", "coordinates": [ 9.690786478051228, 48.449510565927511 ] } }
]
}
