{
"type": "FeatureCollection",
"name": "Heroldstatt_WEA3_2",
"crs": { "type": "name", "properties": { "name": "urn:ogc:def:crs:OGC:1.3:CRS84" } },
"features": [
{ "type": "Feature", "properties": { "station": 0, "ost": 551439.047, "nord": 5365877.11, "hoehe": 753.403, "s_lage": 0.023, "s_hoehe": 0.027, "zeit": "09.06.2026 15:22:50", "ost_etrs89": 551439.985, "nord_etrs89": 5365877.951, "hoehe_etrs89": 753.38, "delta_ost_m": 0.938, "delta_nord_m": 0.841 }, "geometry": { "type": "Point", "coordinates": [ 9.695576217106986, 48.443940587749552 ] } },
{ "type": "Feature", "properties": { "station": 8, "ost": 551444.134, "nord": 5365870.793, "hoehe": 752.898, "s_lage": 0.033, "s_hoehe": 0.033, "zeit": "09.06.2026 15:25:07", "ost_etrs89": 551445.072, "nord_etrs89": 5365871.634, "hoehe_etrs89": 752.875, "delta_ost_m": 0.938, "delta_nord_m": 0.841 }, "geometry": { "type": "Point", "coordinates": [ 9.695644222667692, 48.443883345356774 ] } },
{ "type": "Feature", "properties": { "station": 16, "ost": 551449.287, "nord": 5365864.766, "hoehe": 752.44, "s_lage": 0.019, "s_hoehe": 0.027, "zeit": "09.06.2026 15:27:34", "ost_etrs89": 551450.225, "nord_etrs89": 5365865.607, "hoehe_etrs89": 752.417, "delta_ost_m": 0.938, "delta_nord_m": 0.841 }, "geometry": { "type": "Point", "coordinates": [ 9.695713156093401, 48.4438287063183 ] } },
{ "type": "Feature", "properties": { "station": 24, "ost": 551454.257, "nord": 5365858.536, "hoehe": 751.806, "s_lage": 0.018, "s_hoehe": 0.024, "zeit": "09.06.2026 15:31:34", "ost_etrs89": 551455.195, "nord_etrs89": 5365859.377, "hoehe_etrs89": 751.783, "delta_ost_m": 0.938, "delta_nord_m": 0.841 }, "geometry": { "type": "Point", "coordinates": [ 9.695779590083218, 48.443772256046557 ] } },
{ "type": "Feature", "properties": { "station": 32, "ost": 551459.604, "nord": 5365852.393, "hoehe": 751.484, "s_lage": 0.033, "s_hoehe": 0.052, "zeit": "09.06.2026 15:32:32", "ost_etrs89": 551460.542, "nord_etrs89": 5365853.234, "hoehe_etrs89": 751.461, "delta_ost_m": 0.938, "delta_nord_m": 0.841 }, "geometry": { "type": "Point", "coordinates": [ 9.695851132032072, 48.443716557550452 ] } },
{ "type": "Feature", "properties": { "station": 40, "ost": 551464.828, "nord": 5365846.612, "hoehe": 751.059, "s_lage": 0.033, "s_hoehe": 0.049, "zeit": "09.06.2026 15:38:05", "ost_etrs89": 551465.766, "nord_etrs89": 5365847.453, "hoehe_etrs89": 751.036, "delta_ost_m": 0.938, "delta_nord_m": 0.841 }, "geometry": { "type": "Point", "coordinates": [ 9.695921055233221, 48.443664125556097 ] } },
{ "type": "Feature", "properties": { "station": 48, "ost": 551469.451, "nord": 5365840.152, "hoehe": 750.57, "s_lage": 0.014, "s_hoehe": 0.019, "zeit": "09.06.2026 15:39:06", "ost_etrs89": 551470.389, "nord_etrs89": 5365840.993, "hoehe_etrs89": 750.547, "delta_ost_m": 0.938, "delta_nord_m": 0.841 }, "geometry": { "type": "Point", "coordinates": [ 9.695982768734657, 48.443605634500791 ] } },
{ "type": "Feature", "properties": { "station": 56, "ost": 551474.834, "nord": 5365834.211, "hoehe": 750.26, "s_lage": 0.019, "s_hoehe": 0.021, "zeit": "09.06.2026 15:40:05", "ost_etrs89": 551475.772, "nord_etrs89": 5365835.052, "hoehe_etrs89": 750.237, "delta_ost_m": 0.938, "delta_nord_m": 0.841 }, "geometry": { "type": "Point", "coordinates": [ 9.696054821812208, 48.443551750091416 ] } },
{ "type": "Feature", "properties": { "station": 64, "ost": 551480.113, "nord": 5365828.17, "hoehe": 750.037, "s_lage": 0.013, "s_hoehe": 0.019, "zeit": "09.06.2026 15:43:54", "ost_etrs89": 551481.051, "nord_etrs89": 5365829.011, "hoehe_etrs89": 750.014, "delta_ost_m": 0.938, "delta_nord_m": 0.841 }, "geometry": { "type": "Point", "coordinates": [ 9.696125456266772, 48.443496974560901 ] } },
{ "type": "Feature", "properties": { "station": 72, "ost": 551485.181, "nord": 5365822.076, "hoehe": 749.873, "s_lage": 0.045, "s_hoehe": 0.078, "zeit": "09.06.2026 15:45:06", "ost_etrs89": 551486.119, "nord_etrs89": 5365822.917, "hoehe_etrs89": 749.85, "delta_ost_m": 0.938, "delta_nord_m": 0.841 }, "geometry": { "type": "Point", "coordinates": [ 9.696193231139183, 48.443441739468071 ] } },
{ "type": "Feature", "properties": { "station": 80, "ost": 551490.42, "nord": 5365815.884, "hoehe": 749.505, "s_lage": 0.018, "s_hoehe": 0.024, "zeit": "09.06.2026 15:48:38", "ost_etrs89": 551491.358, "nord_etrs89": 5365816.725, "hoehe_etrs89": 749.482, "delta_ost_m": 0.938, "delta_nord_m": 0.841 }, "geometry": { "type": "Point", "coordinates": [ 9.696263305889936, 48.443385608755698 ] } },
{ "type": "Feature", "properties": { "station": 88, "ost": 551495.485, "nord": 5365809.862, "hoehe": 749.118, "s_lage": 0.017, "s_hoehe": 0.027, "zeit": "09.06.2026 15:49:39", "ost_etrs89": 551496.423, "nord_etrs89": 5365810.703, "hoehe_etrs89": 749.095, "delta_ost_m": 0.938, "delta_nord_m": 0.841 }, "geometry": { "type": "Point", "coordinates": [ 9.696331048756223, 48.443331021526852 ] } },
{ "type": "Feature", "properties": { "station": 96, "ost": 551500.713, "nord": 5365803.818, "hoehe": 749.5, "s_lage": 0.015, "s_hoehe": 0.022, "zeit": "09.06.2026 15:51:12", "ost_etrs89": 551501.651, "nord_etrs89": 5365804.659, "hoehe_etrs89": 749.477, "delta_ost_m": 0.938, "delta_nord_m": 0.841 }, "geometry": { "type": "Point", "coordinates": [ 9.696400992674782, 48.443276223013058 ] } },
{ "type": "Feature", "properties": { "station": 104, "ost": 551505.92, "nord": 5365797.438, "hoehe": 748.862, "s_lage": 0.017, "s_hoehe": 0.031, "zeit": "09.06.2026 15:57:54", "ost_etrs89": 551506.858, "nord_etrs89": 5365798.279, "hoehe_etrs89": 748.839, "delta_ost_m": 0.938, "delta_nord_m": 0.841 }, "geometry": { "type": "Point", "coordinates": [ 9.696470611179237, 48.443218403578278 ] } },
{ "type": "Feature", "properties": { "station": 112, "ost": 551510.894, "nord": 5365791.267, "hoehe": 748.448, "s_lage": 0.018, "s_hoehe": 0.028, "zeit": "09.06.2026 16:00:44", "ost_etrs89": 551511.832, "nord_etrs89": 5365792.108, "hoehe_etrs89": 748.425, "delta_ost_m": 0.938, "delta_nord_m": 0.841 }, "geometry": { "type": "Point", "coordinates": [ 9.696537104876942, 48.443162483297378 ] } },
{ "type": "Feature", "properties": { "station": 120, "ost": 551516.066, "nord": 5365785.217, "hoehe": 748.186, "s_lage": 0.014, "s_hoehe": 0.021, "zeit": "09.06.2026 16:01:30", "ost_etrs89": 551517.004, "nord_etrs89": 5365786.058, "hoehe_etrs89": 748.163, "delta_ost_m": 0.938, "delta_nord_m": 0.841 }, "geometry": { "type": "Point", "coordinates": [ 9.696606290438391, 48.443107635267381 ] } },
{ "type": "Feature", "properties": { "station": 128, "ost": 551521.197, "nord": 5365779.059, "hoehe": 747.878, "s_lage": 0.016, "s_hoehe": 0.025, "zeit": "09.06.2026 16:04:54", "ost_etrs89": 551522.135, "nord_etrs89": 5365779.9, "hoehe_etrs89": 747.855, "delta_ost_m": 0.938, "delta_nord_m": 0.841 }, "geometry": { "type": "Point", "coordinates": [ 9.696674908210497, 48.44305181900296 ] } },
{ "type": "Feature", "properties": { "station": 136, "ost": 551526.234, "nord": 5365772.955, "hoehe": 747.594, "s_lage": 0.016, "s_hoehe": 0.028, "zeit": "09.06.2026 16:05:38", "ost_etrs89": 551527.172, "nord_etrs89": 5365773.796, "hoehe_etrs89": 747.571, "delta_ost_m": 0.938, "delta_nord_m": 0.841 }, "geometry": { "type": "Point", "coordinates": [ 9.696742261521328, 48.442996496167403 ] } },
{ "type": "Feature", "properties": { "station": 142, "ost": 551530.106, "nord": 5365768.343, "hoehe": 747.43, "s_lage": 0.019, "s_hoehe": 0.03, "zeit": "09.06.2026 16:06:46", "ost_etrs89": 551531.044, "nord_etrs89": 5365769.184, "hoehe_etrs89": 747.407, "delta_ost_m": 0.938, "delta_nord_m": 0.841 }, "geometry": { "type": "Point", "coordinates": [ 9.696794046559368, 48.442954690440857 ] } }
]
}
