{
"type": "FeatureCollection",
"name": "Heroldstatt_WEA2_5",
"crs": { "type": "name", "properties": { "name": "urn:ogc:def:crs:OGC:1.3:CRS84" } },
"features": [
{ "type": "Feature", "properties": { "station": 0.0, "ost": 551069.369, "nord": 5366493.042, "hoehe": 745.942, "s_lage": 0.011, "s_hoehe": 0.019, "zeit": "06.06.2026 09:49:48", "ost_etrs89": 551070.307, "nord_etrs89": 5366493.882, "hoehe_etrs89": 745.919, "delta_ost_m": 0.938, "delta_nord_m": 0.84 }, "geometry": { "type": "Point", "coordinates": [ 9.690652904155826, 48.449511502593992 ] } },
{ "type": "Feature", "properties": { "station": 8.0, "ost": 551069.337, "nord": 5366485.047, "hoehe": 746.077, "s_lage": 0.013, "s_hoehe": 0.021, "zeit": "06.06.2026 09:51:36", "ost_etrs89": 551070.275, "nord_etrs89": 5366485.887, "hoehe_etrs89": 746.054, "delta_ost_m": 0.938, "delta_nord_m": 0.84 }, "geometry": { "type": "Point", "coordinates": [ 9.690651496104568, 48.449439583562054 ] } },
{ "type": "Feature", "properties": { "station": 16.0, "ost": 551069.363, "nord": 5366476.981, "hoehe": 746.245, "s_lage": 0.016, "s_hoehe": 0.023, "zeit": "06.06.2026 09:52:35", "ost_etrs89": 551070.301, "nord_etrs89": 5366477.821, "hoehe_etrs89": 746.222, "delta_ost_m": 0.938, "delta_nord_m": 0.84 }, "geometry": { "type": "Point", "coordinates": [ 9.690650863702521, 48.449367021118547 ] } },
{ "type": "Feature", "properties": { "station": 24.0, "ost": 551069.395, "nord": 5366469.056, "hoehe": 746.321, "s_lage": 0.014, "s_hoehe": 0.021, "zeit": "06.06.2026 09:53:39", "ost_etrs89": 551070.333, "nord_etrs89": 5366469.896, "hoehe_etrs89": 746.298, "delta_ost_m": 0.938, "delta_nord_m": 0.84 }, "geometry": { "type": "Point", "coordinates": [ 9.690650329639107, 48.44929572659867 ] } },
{ "type": "Feature", "properties": { "station": 32.0, "ost": 551069.334, "nord": 5366461.021, "hoehe": 746.328, "s_lage": 0.015, "s_hoehe": 0.023, "zeit": "06.06.2026 09:54:25", "ost_etrs89": 551070.272, "nord_etrs89": 5366461.861, "hoehe_etrs89": 746.305, "delta_ost_m": 0.938, "delta_nord_m": 0.84 }, "geometry": { "type": "Point", "coordinates": [ 9.690648524569399, 48.449223450084368 ] } },
{ "type": "Feature", "properties": { "station": 39.9, "ost": 551069.361, "nord": 5366453.122, "hoehe": 746.688, "s_lage": 0.011, "s_hoehe": 0.018, "zeit": "06.06.2026 09:55:50", "ost_etrs89": 551070.299, "nord_etrs89": 5366453.962, "hoehe_etrs89": 746.665, "delta_ost_m": 0.938, "delta_nord_m": 0.84 }, "geometry": { "type": "Point", "coordinates": [ 9.690647926072401, 48.449152389859968 ] } },
{ "type": "Feature", "properties": { "station": 48.0, "ost": 551069.31, "nord": 5366445.061, "hoehe": 746.884, "s_lage": 0.013, "s_hoehe": 0.02, "zeit": "06.06.2026 09:56:38", "ost_etrs89": 551070.248, "nord_etrs89": 5366445.901, "hoehe_etrs89": 746.86, "delta_ost_m": 0.938, "delta_nord_m": 0.84 }, "geometry": { "type": "Point", "coordinates": [ 9.690646253065957, 48.449079878640752 ] } },
{ "type": "Feature", "properties": { "station": 56.0, "ost": 551069.343, "nord": 5366437.093, "hoehe": 746.558, "s_lage": 0.014, "s_hoehe": 0.021, "zeit": "06.06.2026 09:57:26", "ost_etrs89": 551070.281, "nord_etrs89": 5366437.933, "hoehe_etrs89": 746.534, "delta_ost_m": 0.938, "delta_nord_m": 0.84 }, "geometry": { "type": "Point", "coordinates": [ 9.690645727293175, 48.449008197215583 ] } },
{ "type": "Feature", "properties": { "station": 64.0, "ost": 551069.459, "nord": 5366429.082, "hoehe": 746.489, "s_lage": 0.017, "s_hoehe": 0.029, "zeit": "06.06.2026 09:58:21", "ost_etrs89": 551070.397, "nord_etrs89": 5366429.922, "hoehe_etrs89": 746.465, "delta_ost_m": 0.938, "delta_nord_m": 0.84 }, "geometry": { "type": "Point", "coordinates": [ 9.690646318636228, 48.448936122233185 ] } },
{ "type": "Feature", "properties": { "station": 72.0, "ost": 551069.341, "nord": 5366421.074, "hoehe": 746.357, "s_lage": 0.012, "s_hoehe": 0.019, "zeit": "06.06.2026 09:58:58", "ost_etrs89": 551070.279, "nord_etrs89": 5366421.914, "hoehe_etrs89": 746.333, "delta_ost_m": 0.938, "delta_nord_m": 0.84 }, "geometry": { "type": "Point", "coordinates": [ 9.690643746108663, 48.448864093227314 ] } },
{ "type": "Feature", "properties": { "station": 80.0, "ost": 551069.358, "nord": 5366413.095, "hoehe": 746.123, "s_lage": 0.012, "s_hoehe": 0.019, "zeit": "06.06.2026 09:59:42", "ost_etrs89": 551070.296, "nord_etrs89": 5366413.935, "hoehe_etrs89": 746.099, "delta_ost_m": 0.938, "delta_nord_m": 0.84 }, "geometry": { "type": "Point", "coordinates": [ 9.690643002645302, 48.448792314143766 ] } },
{ "type": "Feature", "properties": { "station": 88.0, "ost": 551069.383, "nord": 5366405.086, "hoehe": 745.844, "s_lage": 0.012, "s_hoehe": 0.016, "zeit": "06.06.2026 10:00:24", "ost_etrs89": 551070.321, "nord_etrs89": 5366405.926, "hoehe_etrs89": 745.82, "delta_ost_m": 0.938, "delta_nord_m": 0.84 }, "geometry": { "type": "Point", "coordinates": [ 9.690642363704194, 48.448720264535268 ] } },
{ "type": "Feature", "properties": { "station": 96.0, "ost": 551069.539, "nord": 5366397.088, "hoehe": 745.528, "s_lage": 0.017, "s_hoehe": 0.03, "zeit": "06.06.2026 10:01:25", "ost_etrs89": 551070.477, "nord_etrs89": 5366397.928, "hoehe_etrs89": 745.504, "delta_ost_m": 0.938, "delta_nord_m": 0.84 }, "geometry": { "type": "Point", "coordinates": [ 9.690643497531603, 48.448648303248923 ] } },
{ "type": "Feature", "properties": { "station": 104.0, "ost": 551069.435, "nord": 5366389.232, "hoehe": 744.862, "s_lage": 0.016, "s_hoehe": 0.024, "zeit": "06.06.2026 10:12:11", "ost_etrs89": 551070.373, "nord_etrs89": 5366390.072, "hoehe_etrs89": 744.838, "delta_ost_m": 0.938, "delta_nord_m": 0.84 }, "geometry": { "type": "Point", "coordinates": [ 9.690641132881087, 48.448577640468926 ] } },
{ "type": "Feature", "properties": { "station": 112.0, "ost": 551069.327, "nord": 5366381.234, "hoehe": 744.017, "s_lage": 0.02, "s_hoehe": 0.031, "zeit": "06.06.2026 10:17:34", "ost_etrs89": 551070.265, "nord_etrs89": 5366382.074, "hoehe_etrs89": 743.993, "delta_ost_m": 0.938, "delta_nord_m": 0.84 }, "geometry": { "type": "Point", "coordinates": [ 9.690638696827046, 48.448505700605082 ] } },
{ "type": "Feature", "properties": { "station": 120.0, "ost": 551069.735, "nord": 5366373.422, "hoehe": 742.394, "s_lage": 0.036, "s_hoehe": 0.034, "zeit": "06.06.2026 10:19:01", "ost_etrs89": 551070.673, "nord_etrs89": 5366374.262, "hoehe_etrs89": 742.37, "delta_ost_m": 0.938, "delta_nord_m": 0.84 }, "geometry": { "type": "Point", "coordinates": [ 9.690643260957561, 48.448435392089607 ] } },
{ "type": "Feature", "properties": { "station": 128.0, "ost": 551069.452, "nord": 5366365.575, "hoehe": 740.561, "s_lage": 0.02, "s_hoehe": 0.03, "zeit": "06.06.2026 10:19:49", "ost_etrs89": 551070.39, "nord_etrs89": 5366366.415, "hoehe_etrs89": 740.537, "delta_ost_m": 0.938, "delta_nord_m": 0.84 }, "geometry": { "type": "Point", "coordinates": [ 9.690638476936694, 48.44836482479564 ] } },
{ "type": "Feature", "properties": { "station": 136.0, "ost": 551069.374, "nord": 5366357.679, "hoehe": 739.912, "s_lage": 0.018, "s_hoehe": 0.037, "zeit": "06.06.2026 10:23:20", "ost_etrs89": 551070.312, "nord_etrs89": 5366358.519, "hoehe_etrs89": 739.888, "delta_ost_m": 0.938, "delta_nord_m": 0.84 }, "geometry": { "type": "Point", "coordinates": [ 9.690636459008962, 48.448293800068924 ] } },
{ "type": "Feature", "properties": { "station": 142.0, "ost": 551069.378, "nord": 5366351.666, "hoehe": 739.52, "s_lage": 0.038, "s_hoehe": 0.044, "zeit": "06.06.2026 10:25:58", "ost_etrs89": 551070.316, "nord_etrs89": 5366352.506, "hoehe_etrs89": 739.496, "delta_ost_m": 0.938, "delta_nord_m": 0.84 }, "geometry": { "type": "Point", "coordinates": [ 9.690635779605138, 48.44823970783095 ] } }
]
}
