{
"type": "FeatureCollection",
"name": "Herolfstatt_WEA3_6",
"crs": { "type": "name", "properties": { "name": "urn:ogc:def:crs:OGC:1.3:CRS84" } },
"features": [
{ "type": "Feature", "properties": { "station": "0", "ost": 551454.389, "nord": 5365889.737, "hoehe": 754.212, "s_lage": 0.018, "s_hoehe": 0.025, "zeit": "10.06.2026 14:44:12", "ost_etrs89": 551455.327, "nord_etrs89": 5365890.578, "hoehe_etrs89": 754.189, "delta_ost_m": 0.938, "delta_nord_m": 0.841 }, "geometry": { "type": "Point", "coordinates": [ 9.69578520867258, 48.444052923990832 ] } },
{ "type": "Feature", "properties": { "station": "8", "ost": 551459.509, "nord": 5365883.723, "hoehe": 753.949, "s_lage": 0.018, "s_hoehe": 0.034, "zeit": "10.06.2026 14:48:11", "ost_etrs89": 551460.447, "nord_etrs89": 5365884.564, "hoehe_etrs89": 753.926, "delta_ost_m": 0.938, "delta_nord_m": 0.841 }, "geometry": { "type": "Point", "coordinates": [ 9.695853697575926, 48.443998404512911 ] } },
{ "type": "Feature", "properties": { "station": "16", "ost": 551464.82, "nord": 5365877.87, "hoehe": 753.464, "s_lage": 0.026, "s_hoehe": 0.064, "zeit": "10.06.2026 14:49:37", "ost_etrs89": 551465.758, "nord_etrs89": 5365878.711, "hoehe_etrs89": 753.441, "delta_ost_m": 0.938, "delta_nord_m": 0.841 }, "geometry": { "type": "Point", "coordinates": [ 9.695924788641214, 48.443945317704575 ] } },
{ "type": "Feature", "properties": { "station": "24", "ost": 551470.058, "nord": 5365871.851, "hoehe": 752.858, "s_lage": 0.03, "s_hoehe": 0.047, "zeit": "10.06.2026 14:51:25", "ost_etrs89": 551470.996, "nord_etrs89": 5365872.692, "hoehe_etrs89": 752.835, "delta_ost_m": 0.938, "delta_nord_m": 0.841 }, "geometry": { "type": "Point", "coordinates": [ 9.695994872119057, 48.44389074351529 ] } },
{ "type": "Feature", "properties": { "station": "32", "ost": 551475.16, "nord": 5365865.69, "hoehe": 752.512, "s_lage": 0.018, "s_hoehe": 0.028, "zeit": "10.06.2026 14:52:20", "ost_etrs89": 551476.098, "nord_etrs89": 5365866.531, "hoehe_etrs89": 752.489, "delta_ost_m": 0.938, "delta_nord_m": 0.841 }, "geometry": { "type": "Point", "coordinates": [ 9.696063099132189, 48.443834902999072 ] } },
{ "type": "Feature", "properties": { "station": "40", "ost": 551479.888, "nord": 5365859.304, "hoehe": 752.15, "s_lage": 0.021, "s_hoehe": 0.048, "zeit": "10.06.2026 14:53:00", "ost_etrs89": 551480.826, "nord_etrs89": 5365860.145, "hoehe_etrs89": 752.127, "delta_ost_m": 0.938, "delta_nord_m": 0.841 }, "geometry": { "type": "Point", "coordinates": [ 9.696126241477696, 48.443777068972047 ] } },
{ "type": "Feature", "properties": { "station": "48", "ost": 551484.725, "nord": 5365852.835, "hoehe": 751.821, "s_lage": 0.024, "s_hoehe": 0.073, "zeit": "10.06.2026 14:57:03", "ost_etrs89": 551485.663, "nord_etrs89": 5365853.676, "hoehe_etrs89": 751.798, "delta_ost_m": 0.938, "delta_nord_m": 0.841 }, "geometry": { "type": "Point", "coordinates": [ 9.696190847264042, 48.443718479341008 ] } },
{ "type": "Feature", "properties": { "station": "56", "ost": 551490.035, "nord": 5365847.083, "hoehe": 751.28, "s_lage": 0.015, "s_hoehe": 0.048, "zeit": "10.06.2026 14:58:14", "ost_etrs89": 551490.973, "nord_etrs89": 5365847.924, "hoehe_etrs89": 751.257, "delta_ost_m": 0.938, "delta_nord_m": 0.841 }, "geometry": { "type": "Point", "coordinates": [ 9.696261936485996, 48.443666300985434 ] } },
{ "type": "Feature", "properties": { "station": "64", "ost": 551495.259, "nord": 5365841.011, "hoehe": 750.965, "s_lage": 0.019, "s_hoehe": 0.042, "zeit": "10.06.2026 14:59:06", "ost_etrs89": 551496.197, "nord_etrs89": 5365841.852, "hoehe_etrs89": 750.942, "delta_ost_m": 0.938, "delta_nord_m": 0.841 }, "geometry": { "type": "Point", "coordinates": [ 9.696331823408812, 48.443611250958448 ] } },
{ "type": "Feature", "properties": { "station": "72", "ost": 551500.261, "nord": 5365834.766, "hoehe": 750.512, "s_lage": 0.019, "s_hoehe": 0.039, "zeit": "10.06.2026 14:59:52", "ost_etrs89": 551501.199, "nord_etrs89": 5365835.607, "hoehe_etrs89": 750.489, "delta_ost_m": 0.938, "delta_nord_m": 0.841 }, "geometry": { "type": "Point", "coordinates": [ 9.696398687253847, 48.44355466277635 ] } },
{ "type": "Feature", "properties": { "station": "80", "ost": 551505.721, "nord": 5365828.914, "hoehe": 750.203, "s_lage": 0.029, "s_hoehe": 0.038, "zeit": "10.06.2026 15:00:38", "ost_etrs89": 551506.659, "nord_etrs89": 5365829.755, "hoehe_etrs89": 750.18, "delta_ost_m": 0.938, "delta_nord_m": 0.841 }, "geometry": { "type": "Point", "coordinates": [ 9.696471791875672, 48.443501572435856 ] } },
{ "type": "Feature", "properties": { "station": "88", "ost": 551510.981, "nord": 5365822.985, "hoehe": 750.051, "s_lage": 0.023, "s_hoehe": 0.044, "zeit": "10.06.2026 15:04:10", "ost_etrs89": 551511.919, "nord_etrs89": 5365823.826, "hoehe_etrs89": 750.028, "delta_ost_m": 0.938, "delta_nord_m": 0.841 }, "geometry": { "type": "Point", "coordinates": [ 9.696542182689365, 48.443447805738685 ] } },
{ "type": "Feature", "properties": { "station": "96", "ost": 551516.366, "nord": 5365817.194, "hoehe": 749.652, "s_lage": 0.021, "s_hoehe": 0.038, "zeit": "10.06.2026 15:05:08", "ost_etrs89": 551517.304, "nord_etrs89": 5365818.035, "hoehe_etrs89": 749.629, "delta_ost_m": 0.938, "delta_nord_m": 0.841 }, "geometry": { "type": "Point", "coordinates": [ 9.69661428044464, 48.443395270191381 ] } },
{ "type": "Feature", "properties": { "station": "104", "ost": 551521.68, "nord": 5365810.886, "hoehe": 749.385, "s_lage": 0.017, "s_hoehe": 0.028, "zeit": "10.06.2026 15:08:38", "ost_etrs89": 551522.618, "nord_etrs89": 5365811.727, "hoehe_etrs89": 749.362, "delta_ost_m": 0.938, "delta_nord_m": 0.841 }, "geometry": { "type": "Point", "coordinates": [ 9.696685354460545, 48.443338089569856 ] } },
{ "type": "Feature", "properties": { "station": "112", "ost": 551526.364, "nord": 5365804.43, "hoehe": 749.181, "s_lage": 0.022, "s_hoehe": 0.037, "zeit": "10.06.2026 15:11:12", "ost_etrs89": 551527.302, "nord_etrs89": 5365805.271, "hoehe_etrs89": 749.158, "delta_ost_m": 0.938, "delta_nord_m": 0.841 }, "geometry": { "type": "Point", "coordinates": [ 9.696747891954612, 48.443279629097063 ] } },
{ "type": "Feature", "properties": { "station": "120", "ost": 551531.629, "nord": 5365798.348, "hoehe": 749.311, "s_lage": 0.034, "s_hoehe": 0.052, "zeit": "10.06.2026 15:17:23", "ost_etrs89": 551532.567, "nord_etrs89": 5365799.189, "hoehe_etrs89": 749.288, "delta_ost_m": 0.938, "delta_nord_m": 0.841 }, "geometry": { "type": "Point", "coordinates": [ 9.696818330947847, 48.443224485461322 ] } },
{ "type": "Feature", "properties": { "station": "120,2", "ost": 551531.614, "nord": 5365798.355, "hoehe": 749.29, "s_lage": 0.05, "s_hoehe": 0.08, "zeit": "10.06.2026 15:17:51", "ost_etrs89": 551532.552, "nord_etrs89": 5365799.196, "hoehe_etrs89": 749.267, "delta_ost_m": 0.938, "delta_nord_m": 0.841 }, "geometry": { "type": "Point", "coordinates": [ 9.696818128996309, 48.443224549660165 ] } },
{ "type": "Feature", "properties": { "station": "120,3", "ost": 551531.647, "nord": 5365798.317, "hoehe": 749.265, "s_lage": 0.025, "s_hoehe": 0.039, "zeit": "10.06.2026 15:19:20", "ost_etrs89": 551532.585, "nord_etrs89": 5365799.158, "hoehe_etrs89": 749.242, "delta_ost_m": 0.938, "delta_nord_m": 0.841 }, "geometry": { "type": "Point", "coordinates": [ 9.696818570508658, 48.443224205117076 ] } },
{ "type": "Feature", "properties": { "station": "128", "ost": 551536.815, "nord": 5365792.336, "hoehe": 748.833, "s_lage": 0.025, "s_hoehe": 0.06, "zeit": "10.06.2026 15:22:44", "ost_etrs89": 551537.753, "nord_etrs89": 5365793.177, "hoehe_etrs89": 748.81, "delta_ost_m": 0.938, "delta_nord_m": 0.841 }, "geometry": { "type": "Point", "coordinates": [ 9.696887710256545, 48.443169977958867 ] } },
{ "type": "Feature", "properties": { "station": "136", "ost": 551541.686, "nord": 5365785.962, "hoehe": 748.538, "s_lage": 0.022, "s_hoehe": 0.038, "zeit": "10.06.2026 15:28:00", "ost_etrs89": 551542.624, "nord_etrs89": 5365786.803, "hoehe_etrs89": 748.515, "delta_ost_m": 0.938, "delta_nord_m": 0.841 }, "geometry": { "type": "Point", "coordinates": [ 9.696952785800665, 48.443112239721124 ] } },
{ "type": "Feature", "properties": { "station": "142", "ost": 551545.127, "nord": 5365781.252, "hoehe": 748.195, "s_lage": 0.016, "s_hoehe": 0.026, "zeit": "10.06.2026 15:28:30", "ost_etrs89": 551546.065, "nord_etrs89": 5365782.093, "hoehe_etrs89": 748.172, "delta_ost_m": 0.938, "delta_nord_m": 0.841 }, "geometry": { "type": "Point", "coordinates": [ 9.696998731245744, 48.443069587606125 ] } }
]
}
