{
"type": "FeatureCollection",
"name": "Heroldstatt_WEA3_1",
"crs": { "type": "name", "properties": { "name": "urn:ogc:def:crs:OGC:1.3:CRS84" } },
"features": [
{ "type": "Feature", "properties": { "station": "stz", "ost": 551435.093, "nord": 5365873.636, "hoehe": 753.071, "s_lage": 0.014, "s_hoehe": 0.02, "zeit": "09.06.2026 13:24:40", "ost_etrs89": 551436.031, "nord_etrs89": 5365874.477, "hoehe_etrs89": 753.048, "delta_ost_m": 0.938, "delta_nord_m": 0.841 }, "geometry": { "type": "Point", "coordinates": [ 9.69552232814784, 48.443909659387138 ] } },
{ "type": "Feature", "properties": { "station": "0", "ost": 551435.096, "nord": 5365873.661, "hoehe": 753.073, "s_lage": 0.015, "s_hoehe": 0.022, "zeit": "09.06.2026 13:27:19", "ost_etrs89": 551436.034, "nord_etrs89": 5365874.502, "hoehe_etrs89": 753.05, "delta_ost_m": 0.938, "delta_nord_m": 0.841 }, "geometry": { "type": "Point", "coordinates": [ 9.695522371781699, 48.443909884037602 ] } },
{ "type": "Feature", "properties": { "station": "8", "ost": 551440.312, "nord": 5365867.589, "hoehe": 752.613, "s_lage": 0.018, "s_hoehe": 0.027, "zeit": "09.06.2026 13:28:21", "ost_etrs89": 551441.25, "nord_etrs89": 5365868.43, "hoehe_etrs89": 752.59, "delta_ost_m": 0.938, "delta_nord_m": 0.841 }, "geometry": { "type": "Point", "coordinates": [ 9.695592151671704, 48.443854835110542 ] } },
{ "type": "Feature", "properties": { "station": "16", "ost": 551445.584, "nord": 5365861.544, "hoehe": 752.057, "s_lage": 0.014, "s_hoehe": 0.021, "zeit": "09.06.2026 13:28:55", "ost_etrs89": 551446.522, "nord_etrs89": 5365862.385, "hoehe_etrs89": 752.034, "delta_ost_m": 0.938, "delta_nord_m": 0.841 }, "geometry": { "type": "Point", "coordinates": [ 9.695662691905076, 48.44380002445137 ] } },
{ "type": "Feature", "properties": { "station": "24", "ost": 551450.744, "nord": 5365855.489, "hoehe": 751.606, "s_lage": 0.018, "s_hoehe": 0.03, "zeit": "09.06.2026 13:29:34", "ost_etrs89": 551451.682, "nord_etrs89": 5365856.33, "hoehe_etrs89": 751.583, "delta_ost_m": 0.938, "delta_nord_m": 0.841 }, "geometry": { "type": "Point", "coordinates": [ 9.695731716405863, 48.443745132946354 ] } },
{ "type": "Feature", "properties": { "station": "32", "ost": 551455.793, "nord": 5365849.363, "hoehe": 751.088, "s_lage": 0.016, "s_hoehe": 0.023, "zeit": "09.06.2026 13:30:16", "ost_etrs89": 551456.731, "nord_etrs89": 5365850.204, "hoehe_etrs89": 751.065, "delta_ost_m": 0.938, "delta_nord_m": 0.841 }, "geometry": { "type": "Point", "coordinates": [ 9.695799231204179, 48.443689611771063 ] } },
{ "type": "Feature", "properties": { "station": "40", "ost": 551460.676, "nord": 5365843.205, "hoehe": 750.921, "s_lage": 0.019, "s_hoehe": 0.028, "zeit": "09.06.2026 13:31:06", "ost_etrs89": 551461.614, "nord_etrs89": 5365844.046, "hoehe_etrs89": 750.898, "delta_ost_m": 0.938, "delta_nord_m": 0.841 }, "geometry": { "type": "Point", "coordinates": [ 9.69586449744164, 48.443633816262157 ] } },
{ "type": "Feature", "properties": { "station": "48", "ost": 551465.916, "nord": 5365837.038, "hoehe": 750.342, "s_lage": 0.022, "s_hoehe": 0.033, "zeit": "09.06.2026 13:31:42", "ost_etrs89": 551466.854, "nord_etrs89": 5365837.879, "hoehe_etrs89": 750.319, "delta_ost_m": 0.938, "delta_nord_m": 0.841 }, "geometry": { "type": "Point", "coordinates": [ 9.695934589412198, 48.443577910562709 ] } },
{ "type": "Feature", "properties": { "station": "56", "ost": 551470.961, "nord": 5365830.872, "hoehe": 749.996, "s_lage": 0.024, "s_hoehe": 0.039, "zeit": "09.06.2026 13:41:08", "ost_etrs89": 551471.899, "nord_etrs89": 5365831.713, "hoehe_etrs89": 749.973, "delta_ost_m": 0.938, "delta_nord_m": 0.841 }, "geometry": { "type": "Point", "coordinates": [ 9.696002044768194, 48.44352202976301 ] } },
{ "type": "Feature", "properties": { "station": "64", "ost": 551476.335, "nord": 5365824.917, "hoehe": 749.875, "s_lage": 0.017, "s_hoehe": 0.028, "zeit": "09.06.2026 13:42:01", "ost_etrs89": 551477.273, "nord_etrs89": 5365825.758, "hoehe_etrs89": 749.852, "delta_ost_m": 0.938, "delta_nord_m": 0.841 }, "geometry": { "type": "Point", "coordinates": [ 9.696073974298628, 48.443468020135953 ] } },
{ "type": "Feature", "properties": { "station": "72", "ost": 551481.433, "nord": 5365818.879, "hoehe": 749.688, "s_lage": 0.017, "s_hoehe": 0.027, "zeit": "09.06.2026 13:42:54", "ost_etrs89": 551482.371, "nord_etrs89": 5365819.72, "hoehe_etrs89": 749.665, "delta_ost_m": 0.938, "delta_nord_m": 0.841 }, "geometry": { "type": "Point", "coordinates": [ 9.696142161700818, 48.443413286385493 ] } },
{ "type": "Feature", "properties": { "station": "80", "ost": 551486.479, "nord": 5365812.76, "hoehe": 749.315, "s_lage": 0.019, "s_hoehe": 0.032, "zeit": "09.06.2026 13:46:49", "ost_etrs89": 551487.417, "nord_etrs89": 5365813.601, "hoehe_etrs89": 749.292, "delta_ost_m": 0.938, "delta_nord_m": 0.841 }, "geometry": { "type": "Point", "coordinates": [ 9.696209635911179, 48.443357828186613 ] } },
{ "type": "Feature", "properties": { "station": "88", "ost": 551491.707, "nord": 5365806.689, "hoehe": 749.314, "s_lage": 0.019, "s_hoehe": 0.028, "zeit": "09.06.2026 13:47:24", "ost_etrs89": 551492.645, "nord_etrs89": 5365807.53, "hoehe_etrs89": 749.291, "delta_ost_m": 0.938, "delta_nord_m": 0.841 }, "geometry": { "type": "Point", "coordinates": [ 9.696279576677728, 48.443302786858801 ] } },
{ "type": "Feature", "properties": { "station": "96", "ost": 551496.89, "nord": 5365800.59, "hoehe": 748.975, "s_lage": 0.018, "s_hoehe": 0.03, "zeit": "09.06.2026 13:48:49", "ost_etrs89": 551497.828, "nord_etrs89": 5365801.431, "hoehe_etrs89": 748.952, "delta_ost_m": 0.938, "delta_nord_m": 0.841 }, "geometry": { "type": "Point", "coordinates": [ 9.696348905411003, 48.443247497287331 ] } },
{ "type": "Feature", "properties": { "station": "104", "ost": 551502.164, "nord": 5365794.488, "hoehe": 748.682, "s_lage": 0.016, "s_hoehe": 0.024, "zeit": "09.06.2026 13:49:56", "ost_etrs89": 551503.102, "nord_etrs89": 5365795.329, "hoehe_etrs89": 748.659, "delta_ost_m": 0.938, "delta_nord_m": 0.841 }, "geometry": { "type": "Point", "coordinates": [ 9.696419464022735, 48.443192173240739 ] } },
{ "type": "Feature", "properties": { "station": "112", "ost": 551507.472, "nord": 5365788.58, "hoehe": 748.189, "s_lage": 0.015, "s_hoehe": 0.02, "zeit": "09.06.2026 13:52:04", "ost_etrs89": 551508.41, "nord_etrs89": 5365789.421, "hoehe_etrs89": 748.166, "delta_ost_m": 0.938, "delta_nord_m": 0.841 }, "geometry": { "type": "Point", "coordinates": [ 9.696490506051198, 48.443138591558778 ] } },
{ "type": "Feature", "properties": { "station": "120", "ost": 551512.386, "nord": 5365782.198, "hoehe": 748.055, "s_lage": 0.016, "s_hoehe": 0.027, "zeit": "09.06.2026 13:52:42", "ost_etrs89": 551513.324, "nord_etrs89": 5365783.039, "hoehe_etrs89": 748.032, "delta_ost_m": 0.938, "delta_nord_m": 0.841 }, "geometry": { "type": "Point", "coordinates": [ 9.696556162419611, 48.443080778057627 ] } },
{ "type": "Feature", "properties": { "station": "128", "ost": 551517.349, "nord": 5365775.873, "hoehe": 747.696, "s_lage": 0.031, "s_hoehe": 0.046, "zeit": "09.06.2026 13:55:10", "ost_etrs89": 551518.287, "nord_etrs89": 5365776.714, "hoehe_etrs89": 747.673, "delta_ost_m": 0.938, "delta_nord_m": 0.841 }, "geometry": { "type": "Point", "coordinates": [ 9.696622488171004, 48.443023473270586 ] } },
{ "type": "Feature", "properties": { "station": "136", "ost": 551522.375, "nord": 5365769.764, "hoehe": 747.411, "s_lage": 0.015, "s_hoehe": 0.026, "zeit": "09.06.2026 13:55:52", "ost_etrs89": 551523.313, "nord_etrs89": 5365770.605, "hoehe_etrs89": 747.388, "delta_ost_m": 0.938, "delta_nord_m": 0.841 }, "geometry": { "type": "Point", "coordinates": [ 9.696689692158063, 48.442968106386658 ] } },
{ "type": "Feature", "properties": { "station": "142", "ost": 551526.268, "nord": 5365765.18, "hoehe": 747.172, "s_lage": 0.015, "s_hoehe": 0.023, "zeit": "09.06.2026 13:56:34", "ost_etrs89": 551527.206, "nord_etrs89": 5365766.021, "hoehe_etrs89": 747.149, "delta_ost_m": 0.938, "delta_nord_m": 0.841 }, "geometry": { "type": "Point", "coordinates": [ 9.69674176459244, 48.442926550847453 ] } },
{ "type": "Feature", "properties": { "station": "STR", "ost": 551492.772, "nord": 5365805.494, "hoehe": 749.336, "s_lage": 0.019, "s_hoehe": 0.024, "zeit": "09.06.2026 13:58:05", "ost_etrs89": 551493.71, "nord_etrs89": 5365806.335, "hoehe_etrs89": 749.313, "delta_ost_m": 0.938, "delta_nord_m": 0.841 }, "geometry": { "type": "Point", "coordinates": [ 9.696293829478883, 48.443291949720887 ] } }
]
}
