{
"type": "FeatureCollection",
"name": "Heroldstatt_WEA1_turmmitelpunkt",
"crs": { "type": "name", "properties": { "name": "urn:ogc:def:crs:OGC:1.3:CRS84" } },
"features": [
{ "type": "Feature", "properties": { "station": "mitte", "ost": 551027.319, "nord": 5366879.952, "hoehe": 744.713, "s_lage": 0.022, "s_hoehe": 0.034, "zeit": "03.06.2026 11:53:49", "ost_etrs89": 551028.257, "nord_etrs89": 5366880.792, "hoehe_etrs89": 744.69, "delta_ost_m": 0.938, "delta_nord_m": 0.84 }, "geometry": { "type": "Point", "coordinates": [ 9.690131446827046, 48.452995488124657 ] } }
]
}
