{
"type": "FeatureCollection",
"name": "Heroldstatt_WEA3_7",
"crs": { "type": "name", "properties": { "name": "urn:ogc:def:crs:OGC:1.3:CRS84" } },
"features": [
{ "type": "Feature", "properties": { "station": 0, "ost": 551458.137, "nord": 5365893.021, "hoehe": 754.585, "s_lage": 0.023, "s_hoehe": 0.039, "zeit": "11.06.2026 09:13:56", "ost_etrs89": 551459.075, "nord_etrs89": 5365893.862, "hoehe_etrs89": 754.562, "delta_ost_m": 0.938, "delta_nord_m": 0.841 }, "geometry": { "type": "Point", "coordinates": [ 9.69583628924938, 48.444082159863278 ] } },
{ "type": "Feature", "properties": { "station": 8, "ost": 551463.367, "nord": 5365886.871, "hoehe": 754.058, "s_lage": 0.017, "s_hoehe": 0.03, "zeit": "11.06.2026 09:14:41", "ost_etrs89": 551464.305, "nord_etrs89": 5365887.712, "hoehe_etrs89": 754.035, "delta_ost_m": 0.938, "delta_nord_m": 0.841 }, "geometry": { "type": "Point", "coordinates": [ 9.695906248741192, 48.444026407928952 ] } },
{ "type": "Feature", "properties": { "station": 16, "ost": 551468.611, "nord": 5365880.782, "hoehe": 753.704, "s_lage": 0.02, "s_hoehe": 0.034, "zeit": "11.06.2026 09:15:40", "ost_etrs89": 551469.549, "nord_etrs89": 5365881.623, "hoehe_etrs89": 753.681, "delta_ost_m": 0.938, "delta_nord_m": 0.841 }, "geometry": { "type": "Point", "coordinates": [ 9.695976404872386, 48.443971203552749 ] } },
{ "type": "Feature", "properties": { "station": 24, "ost": 551473.388, "nord": 5365874.379, "hoehe": 753.107, "s_lage": 0.024, "s_hoehe": 0.044, "zeit": "11.06.2026 09:18:42", "ost_etrs89": 551474.326, "nord_etrs89": 5365875.22, "hoehe_etrs89": 753.084, "delta_ost_m": 0.938, "delta_nord_m": 0.841 }, "geometry": { "type": "Point", "coordinates": [ 9.696040207925757, 48.443913212637106 ] } },
{ "type": "Feature", "properties": { "station": 32, "ost": 551478.793, "nord": 5365868.639, "hoehe": 752.682, "s_lage": 0.019, "s_hoehe": 0.029, "zeit": "11.06.2026 09:19:26", "ost_etrs89": 551479.731, "nord_etrs89": 5365869.48, "hoehe_etrs89": 752.659, "delta_ost_m": 0.938, "delta_nord_m": 0.841 }, "geometry": { "type": "Point", "coordinates": [ 9.696112583545903, 48.443861134554197 ] } },
{ "type": "Feature", "properties": { "station": 40, "ost": 551483.983, "nord": 5365862.427, "hoehe": 752.328, "s_lage": 0.021, "s_hoehe": 0.036, "zeit": "11.06.2026 09:20:38", "ost_etrs89": 551484.921, "nord_etrs89": 5365863.268, "hoehe_etrs89": 752.305, "delta_ost_m": 0.938, "delta_nord_m": 0.841 }, "geometry": { "type": "Point", "coordinates": [ 9.696181993969281, 48.443804827983449 ] } },
{ "type": "Feature", "properties": { "station": 48, "ost": 551489.102, "nord": 5365856.297, "hoehe": 751.988, "s_lage": 0.013, "s_hoehe": 0.019, "zeit": "11.06.2026 09:21:27", "ost_etrs89": 551490.04, "nord_etrs89": 5365857.138, "hoehe_etrs89": 751.965, "delta_ost_m": 0.938, "delta_nord_m": 0.841 }, "geometry": { "type": "Point", "coordinates": [ 9.696250454330722, 48.443749264836832 ] } },
{ "type": "Feature", "properties": { "station": 56, "ost": 551494.39, "nord": 5365850.46, "hoehe": 751.622, "s_lage": 0.014, "s_hoehe": 0.026, "zeit": "11.06.2026 09:22:21", "ost_etrs89": 551495.328, "nord_etrs89": 5365851.301, "hoehe_etrs89": 751.599, "delta_ost_m": 0.938, "delta_nord_m": 0.841 }, "geometry": { "type": "Point", "coordinates": [ 9.696321235619752, 48.443696323599632 ] } },
{ "type": "Feature", "properties": { "station": 64, "ost": 551499.174, "nord": 5365844.082, "hoehe": 751.079, "s_lage": 0.016, "s_hoehe": 0.029, "zeit": "11.06.2026 09:23:09", "ost_etrs89": 551500.112, "nord_etrs89": 5365844.923, "hoehe_etrs89": 751.056, "delta_ost_m": 0.938, "delta_nord_m": 0.841 }, "geometry": { "type": "Point", "coordinates": [ 9.696385135658867, 48.44363855681641 ] } },
{ "type": "Feature", "properties": { "station": 72, "ost": 551504.54, "nord": 5365838.086, "hoehe": 750.878, "s_lage": 0.019, "s_hoehe": 0.032, "zeit": "11.06.2026 09:24:06", "ost_etrs89": 551505.478, "nord_etrs89": 5365838.927, "hoehe_etrs89": 750.855, "delta_ost_m": 0.938, "delta_nord_m": 0.841 }, "geometry": { "type": "Point", "coordinates": [ 9.696456951733399, 48.443584178777996 ] } },
{ "type": "Feature", "properties": { "station": 80, "ost": 551509.711, "nord": 5365831.912, "hoehe": 750.439, "s_lage": 0.018, "s_hoehe": 0.029, "zeit": "11.06.2026 09:25:46", "ost_etrs89": 551510.649, "nord_etrs89": 5365832.753, "hoehe_etrs89": 750.416, "delta_ost_m": 0.938, "delta_nord_m": 0.841 }, "geometry": { "type": "Point", "coordinates": [ 9.696526109176048, 48.443528215396675 ] } },
{ "type": "Feature", "properties": { "station": 88, "ost": 551514.867, "nord": 5365825.958, "hoehe": 750.131, "s_lage": 0.015, "s_hoehe": 0.024, "zeit": "11.06.2026 09:27:21", "ost_etrs89": 551515.805, "nord_etrs89": 5365826.799, "hoehe_etrs89": 750.108, "delta_ost_m": 0.938, "delta_nord_m": 0.841 }, "geometry": { "type": "Point", "coordinates": [ 9.696595090716611, 48.443474232282995 ] } },
{ "type": "Feature", "properties": { "station": 96, "ost": 551520.173, "nord": 5365819.951, "hoehe": 749.87, "s_lage": 0.018, "s_hoehe": 0.027, "zeit": "11.06.2026 09:28:26", "ost_etrs89": 551521.111, "nord_etrs89": 5365820.792, "hoehe_etrs89": 749.847, "delta_ost_m": 0.938, "delta_nord_m": 0.841 }, "geometry": { "type": "Point", "coordinates": [ 9.696666093727687, 48.443419760071357 ] } },
{ "type": "Feature", "properties": { "station": 104, "ost": 551525.08, "nord": 5365813.658, "hoehe": 749.575, "s_lage": 0.015, "s_hoehe": 0.023, "zeit": "11.06.2026 09:30:06", "ost_etrs89": 551526.018, "nord_etrs89": 5365814.499, "hoehe_etrs89": 749.552, "delta_ost_m": 0.938, "delta_nord_m": 0.841 }, "geometry": { "type": "Point", "coordinates": [ 9.696731666558964, 48.44336274767344 ] } },
{ "type": "Feature", "properties": { "station": 112, "ost": 551530.128, "nord": 5365807.406, "hoehe": 749.28, "s_lage": 0.016, "s_hoehe": 0.026, "zeit": "11.06.2026 09:34:52", "ost_etrs89": 551531.066, "nord_etrs89": 5365808.247, "hoehe_etrs89": 749.257, "delta_ost_m": 0.938, "delta_nord_m": 0.841 }, "geometry": { "type": "Point", "coordinates": [ 9.696799150733359, 48.443306092523478 ] } },
{ "type": "Feature", "properties": { "station": 120, "ost": 551534.948, "nord": 5365801.131, "hoehe": 749.262, "s_lage": 0.018, "s_hoehe": 0.037, "zeit": "11.06.2026 09:37:53", "ost_etrs89": 551535.886, "nord_etrs89": 5365801.972, "hoehe_etrs89": 749.239, "delta_ost_m": 0.938, "delta_nord_m": 0.841 }, "geometry": { "type": "Point", "coordinates": [ 9.696863549169581, 48.443249249098166 ] } },
{ "type": "Feature", "properties": { "station": 128, "ost": 551540.167, "nord": 5365795.064, "hoehe": 748.805, "s_lage": 0.02, "s_hoehe": 0.032, "zeit": "11.06.2026 09:38:37", "ost_etrs89": 551541.105, "nord_etrs89": 5365795.905, "hoehe_etrs89": 748.782, "delta_ost_m": 0.938, "delta_nord_m": 0.841 }, "geometry": { "type": "Point", "coordinates": [ 9.696933367882082, 48.443194244096233 ] } },
{ "type": "Feature", "properties": { "station": 136, "ost": 551545.128, "nord": 5365788.871, "hoehe": 748.625, "s_lage": 0.026, "s_hoehe": 0.064, "zeit": "11.06.2026 09:39:35", "ost_etrs89": 551546.066, "nord_etrs89": 5365789.712, "hoehe_etrs89": 748.602, "delta_ost_m": 0.938, "delta_nord_m": 0.841 }, "geometry": { "type": "Point", "coordinates": [ 9.696999682558861, 48.443138126706778 ] } },
{ "type": "Feature", "properties": { "station": 142, "ost": 551549.153, "nord": 5365784.463, "hoehe": 748.44, "s_lage": 0.015, "s_hoehe": 0.034, "zeit": "11.06.2026 09:40:13", "ost_etrs89": 551550.091, "nord_etrs89": 5365785.304, "hoehe_etrs89": 748.417, "delta_ost_m": 0.938, "delta_nord_m": 0.841 }, "geometry": { "type": "Point", "coordinates": [ 9.697053561325097, 48.443098143483191 ] } }
]
}
