{
"type": "FeatureCollection",
"name": "Heroldstatt_WEA2_3",
"crs": { "type": "name", "properties": { "name": "urn:ogc:def:crs:OGC:1.3:CRS84" } },
"features": [
{ "type": "Feature", "properties": { "station": 0, "ost": 551059.379, "nord": 5366492.977, "hoehe": 745.276, "s_lage": 0.015, "s_hoehe": 0.026, "zeit": "05.06.2026 13:36:44", "ost_etrs89": 551060.317, "nord_etrs89": 5366493.817, "hoehe_etrs89": 745.252, "delta_ost_m": 0.938, "delta_nord_m": 0.84 }, "geometry": { "type": "Point", "coordinates": [ 9.690517805970901, 48.449511728526986 ] } },
{ "type": "Feature", "properties": { "station": 6, "ost": 551059.372, "nord": 5366486.981, "hoehe": 745.413, "s_lage": 0.018, "s_hoehe": 0.03, "zeit": "05.06.2026 13:37:23", "ost_etrs89": 551060.31, "nord_etrs89": 5366487.821, "hoehe_etrs89": 745.389, "delta_ost_m": 0.938, "delta_nord_m": 0.84 }, "geometry": { "type": "Point", "coordinates": [ 9.690516979988621, 48.449457790120796 ] } },
{ "type": "Feature", "properties": { "station": 12, "ost": 551059.356, "nord": 5366481.014, "hoehe": 745.499, "s_lage": 0.027, "s_hoehe": 0.05, "zeit": "05.06.2026 13:38:00", "ost_etrs89": 551060.294, "nord_etrs89": 5366481.854, "hoehe_etrs89": 745.475, "delta_ost_m": 0.938, "delta_nord_m": 0.84 }, "geometry": { "type": "Point", "coordinates": [ 9.690516035843096, 48.44940411332329 ] } },
{ "type": "Feature", "properties": { "station": 18, "ost": 551059.365, "nord": 5366474.978, "hoehe": 745.659, "s_lage": 0.019, "s_hoehe": 0.026, "zeit": "05.06.2026 13:38:38", "ost_etrs89": 551060.303, "nord_etrs89": 5366475.818, "hoehe_etrs89": 745.635, "delta_ost_m": 0.938, "delta_nord_m": 0.84 }, "geometry": { "type": "Point", "coordinates": [ 9.690515421347026, 48.449349813784778 ] } },
{ "type": "Feature", "properties": { "station": 24, "ost": 551059.299, "nord": 5366469.006, "hoehe": 745.779, "s_lage": 0.016, "s_hoehe": 0.047, "zeit": "05.06.2026 13:39:48", "ost_etrs89": 551060.237, "nord_etrs89": 5366469.846, "hoehe_etrs89": 745.755, "delta_ost_m": 0.938, "delta_nord_m": 0.84 }, "geometry": { "type": "Point", "coordinates": [ 9.690513800471969, 48.449296096064046 ] } },
{ "type": "Feature", "properties": { "station": 30, "ost": 551059.404, "nord": 5366463.066, "hoehe": 746.005, "s_lage": 0.017, "s_hoehe": 0.028, "zeit": "05.06.2026 13:40:21", "ost_etrs89": 551060.342, "nord_etrs89": 5366463.906, "hoehe_etrs89": 745.981, "delta_ost_m": 0.938, "delta_nord_m": 0.84 }, "geometry": { "type": "Point", "coordinates": [ 9.690514495847429, 48.449242652334547 ] } },
{ "type": "Feature", "properties": { "station": 36, "ost": 551059.399, "nord": 5366457.059, "hoehe": 746.202, "s_lage": 0.016, "s_hoehe": 0.032, "zeit": "05.06.2026 13:41:04", "ost_etrs89": 551060.337, "nord_etrs89": 5366457.899, "hoehe_etrs89": 746.178, "delta_ost_m": 0.938, "delta_nord_m": 0.84 }, "geometry": { "type": "Point", "coordinates": [ 9.690513695579353, 48.449188614809394 ] } },
{ "type": "Feature", "properties": { "station": 42, "ost": 551059.328, "nord": 5366451.054, "hoehe": 746.449, "s_lage": 0.016, "s_hoehe": 0.033, "zeit": "05.06.2026 13:41:37", "ost_etrs89": 551060.266, "nord_etrs89": 5366451.894, "hoehe_etrs89": 746.425, "delta_ost_m": 0.938, "delta_nord_m": 0.84 }, "geometry": { "type": "Point", "coordinates": [ 9.690512003075932, 48.449134600630501 ] } },
{ "type": "Feature", "properties": { "station": 48, "ost": 551059.383, "nord": 5366445.031, "hoehe": 746.474, "s_lage": 0.014, "s_hoehe": 0.023, "zeit": "05.06.2026 13:42:05", "ost_etrs89": 551060.321, "nord_etrs89": 5366445.871, "hoehe_etrs89": 746.45, "delta_ost_m": 0.938, "delta_nord_m": 0.84 }, "geometry": { "type": "Point", "coordinates": [ 9.690512012208, 48.449080414302799 ] } },
{ "type": "Feature", "properties": { "station": 54, "ost": 551059.358, "nord": 5366439.08, "hoehe": 746.482, "s_lage": 0.019, "s_hoehe": 0.029, "zeit": "05.06.2026 13:42:29", "ost_etrs89": 551060.296, "nord_etrs89": 5366439.92, "hoehe_etrs89": 746.458, "delta_ost_m": 0.938, "delta_nord_m": 0.84 }, "geometry": { "type": "Point", "coordinates": [ 9.690510948328628, 48.449026882165157 ] } },
{ "type": "Feature", "properties": { "station": 60, "ost": 551059.358, "nord": 5366433.045, "hoehe": 746.43, "s_lage": 0.016, "s_hoehe": 0.029, "zeit": "05.06.2026 13:43:14", "ost_etrs89": 551060.296, "nord_etrs89": 5366433.885, "hoehe_etrs89": 746.406, "delta_ost_m": 0.938, "delta_nord_m": 0.84 }, "geometry": { "type": "Point", "coordinates": [ 9.690510212267149, 48.448972592349079 ] } },
{ "type": "Feature", "properties": { "station": 66, "ost": 551059.378, "nord": 5366427.036, "hoehe": 746.636, "s_lage": 0.013, "s_hoehe": 0.025, "zeit": "05.06.2026 13:43:47", "ost_etrs89": 551060.316, "nord_etrs89": 5366427.876, "hoehe_etrs89": 746.612, "delta_ost_m": 0.938, "delta_nord_m": 0.84 }, "geometry": { "type": "Point", "coordinates": [ 9.690509749826763, 48.448918534801237 ] } },
{ "type": "Feature", "properties": { "station": 72, "ost": 551059.404, "nord": 5366421.079, "hoehe": 746.578, "s_lage": 0.012, "s_hoehe": 0.019, "zeit": "05.06.2026 13:44:21", "ost_etrs89": 551060.342, "nord_etrs89": 5366421.919, "hoehe_etrs89": 746.554, "delta_ost_m": 0.938, "delta_nord_m": 0.84 }, "geometry": { "type": "Point", "coordinates": [ 9.690509374864391, 48.448864944549065 ] } },
{ "type": "Feature", "properties": { "station": 78, "ost": 551059.08, "nord": 5366415.09, "hoehe": 746.008, "s_lage": 0.015, "s_hoehe": 0.024, "zeit": "05.06.2026 13:44:51", "ost_etrs89": 551060.018, "nord_etrs89": 5366415.93, "hoehe_etrs89": 745.984, "delta_ost_m": 0.938, "delta_nord_m": 0.84 }, "geometry": { "type": "Point", "coordinates": [ 9.690504263173716, 48.448811094827938 ] } },
{ "type": "Feature", "properties": { "station": 84, "ost": 551059.413, "nord": 5366409.126, "hoehe": 745.499, "s_lage": 0.018, "s_hoehe": 0.03, "zeit": "05.06.2026 13:45:27", "ost_etrs89": 551060.351, "nord_etrs89": 5366409.966, "hoehe_etrs89": 745.475, "delta_ost_m": 0.938, "delta_nord_m": 0.84 }, "geometry": { "type": "Point", "coordinates": [ 9.690508038726257, 48.448757416694868 ] } },
{ "type": "Feature", "properties": { "station": 90, "ost": 551059.487, "nord": 5366403.155, "hoehe": 745.181, "s_lage": 0.014, "s_hoehe": 0.024, "zeit": "05.06.2026 13:46:07", "ost_etrs89": 551060.425, "nord_etrs89": 5366403.995, "hoehe_etrs89": 745.157, "delta_ost_m": 0.938, "delta_nord_m": 0.84 }, "geometry": { "type": "Point", "coordinates": [ 9.69050831113322, 48.448703696605001 ] } },
{ "type": "Feature", "properties": { "station": 96, "ost": 551059.407, "nord": 5366397.189, "hoehe": 744.92, "s_lage": 0.019, "s_hoehe": 0.029, "zeit": "05.06.2026 13:46:51", "ost_etrs89": 551060.345, "nord_etrs89": 5366398.029, "hoehe_etrs89": 744.896, "delta_ost_m": 0.938, "delta_nord_m": 0.84 }, "geometry": { "type": "Point", "coordinates": [ 9.690506501712806, 48.448650033988919 ] } },
{ "type": "Feature", "properties": { "station": 102, "ost": 551059.278, "nord": 5366391.039, "hoehe": 744.655, "s_lage": 0.018, "s_hoehe": 0.03, "zeit": "05.06.2026 13:50:45", "ost_etrs89": 551060.216, "nord_etrs89": 5366391.879, "hoehe_etrs89": 744.631, "delta_ost_m": 0.938, "delta_nord_m": 0.84 }, "geometry": { "type": "Point", "coordinates": [ 9.690504007262733, 48.448594720115679 ] } },
{ "type": "Feature", "properties": { "station": 108, "ost": 551059.269, "nord": 5366385.145, "hoehe": 743.846, "s_lage": 0.019, "s_hoehe": 0.029, "zeit": "05.06.2026 13:51:13", "ost_etrs89": 551060.207, "nord_etrs89": 5366385.985, "hoehe_etrs89": 743.822, "delta_ost_m": 0.938, "delta_nord_m": 0.84 }, "geometry": { "type": "Point", "coordinates": [ 9.690503166715871, 48.448541699437364 ] } },
{ "type": "Feature", "properties": { "station": 114, "ost": 551059.351, "nord": 5366379.309, "hoehe": 742.669, "s_lage": 0.02, "s_hoehe": 0.033, "zeit": "05.06.2026 13:52:24", "ost_etrs89": 551060.289, "nord_etrs89": 5366380.149, "hoehe_etrs89": 742.645, "delta_ost_m": 0.938, "delta_nord_m": 0.84 }, "geometry": { "type": "Point", "coordinates": [ 9.690503563772332, 48.448489193133163 ] } },
{ "type": "Feature", "properties": { "station": 120, "ost": 551059.243, "nord": 5366373.437, "hoehe": 741.166, "s_lage": 0.02, "s_hoehe": 0.029, "zeit": "05.06.2026 13:53:30", "ost_etrs89": 551060.181, "nord_etrs89": 5366374.277, "hoehe_etrs89": 741.142, "delta_ost_m": 0.938, "delta_nord_m": 0.84 }, "geometry": { "type": "Point", "coordinates": [ 9.690501387207972, 48.448436378394561 ] } },
{ "type": "Feature", "properties": { "station": 126, "ost": 551059.496, "nord": 5366367.539, "hoehe": 740.082, "s_lage": 0.024, "s_hoehe": 0.034, "zeit": "05.06.2026 13:55:15", "ost_etrs89": 551060.434, "nord_etrs89": 5366368.379, "hoehe_etrs89": 740.058, "delta_ost_m": 0.938, "delta_nord_m": 0.84 }, "geometry": { "type": "Point", "coordinates": [ 9.690504089009561, 48.448383300473772 ] } },
{ "type": "Feature", "properties": { "station": 132, "ost": 551059.421, "nord": 5366361.612, "hoehe": 739.504, "s_lage": 0.019, "s_hoehe": 0.028, "zeit": "05.06.2026 13:58:25", "ost_etrs89": 551060.359, "nord_etrs89": 5366362.452, "hoehe_etrs89": 739.48, "delta_ost_m": 0.938, "delta_nord_m": 0.84 }, "geometry": { "type": "Point", "coordinates": [ 9.690502351976242, 48.448329988286162 ] } },
{ "type": "Feature", "properties": { "station": 138, "ost": 551059.401, "nord": 5366355.611, "hoehe": 739.084, "s_lage": 0.021, "s_hoehe": 0.03, "zeit": "05.06.2026 13:59:16", "ost_etrs89": 551060.339, "nord_etrs89": 5366356.451, "hoehe_etrs89": 739.06, "delta_ost_m": 0.938, "delta_nord_m": 0.84 }, "geometry": { "type": "Point", "coordinates": [ 9.69050134964419, 48.448276005944273 ] } },
{ "type": "Feature", "properties": { "station": 142, "ost": 551059.367, "nord": 5366351.586, "hoehe": 738.975, "s_lage": 0.018, "s_hoehe": 0.025, "zeit": "05.06.2026 14:01:09", "ost_etrs89": 551060.305, "nord_etrs89": 5366352.426, "hoehe_etrs89": 738.951, "delta_ost_m": 0.938, "delta_nord_m": 0.84 }, "geometry": { "type": "Point", "coordinates": [ 9.690500398997616, 48.448239800494363 ] } }
]
}
