{
"type": "FeatureCollection",
"name": "Heroldstatt_WEA2_8",
"crs": { "type": "name", "properties": { "name": "urn:ogc:def:crs:OGC:1.3:CRS84" } },
"features": [
{ "type": "Feature", "properties": { "station": "0", "ost": 550993.319, "nord": 5366421.987, "hoehe": 743.928, "s_lage": 0.014, "s_hoehe": 0.022, "zeit": "03.06.2026 14:39:31", "ost_etrs89": 550994.257, "nord_etrs89": 5366422.827, "hoehe_etrs89": 743.904, "delta_ost_m": 0.938, "delta_nord_m": 0.84 }, "geometry": { "type": "Point", "coordinates": [ 9.689615859070331, 48.448878471269822 ] } },
{ "type": "Feature", "properties": { "station": "8", "ost": 551001.353, "nord": 5366421.861, "hoehe": 744.234, "s_lage": 0.02, "s_hoehe": 0.033, "zeit": "03.06.2026 14:40:54", "ost_etrs89": 551002.291, "nord_etrs89": 5366422.701, "hoehe_etrs89": 744.21, "delta_ost_m": 0.938, "delta_nord_m": 0.84 }, "geometry": { "type": "Point", "coordinates": [ 9.689724482541928, 48.44887668672812 ] } },
{ "type": "Feature", "properties": { "station": "16", "ost": 551009.319, "nord": 5366421.863, "hoehe": 744.704, "s_lage": 0.016, "s_hoehe": 0.023, "zeit": "03.06.2026 14:41:50", "ost_etrs89": 551010.257, "nord_etrs89": 5366422.703, "hoehe_etrs89": 744.68, "delta_ost_m": 0.938, "delta_nord_m": 0.84 }, "geometry": { "type": "Point", "coordinates": [ 9.689832202079067, 48.448876059061874 ] } },
{ "type": "Feature", "properties": { "station": "24", "ost": 551017.34, "nord": 5366421.82, "hoehe": 744.746, "s_lage": 0.014, "s_hoehe": 0.021, "zeit": "03.06.2026 14:42:31", "ost_etrs89": 551018.278, "nord_etrs89": 5366422.66, "hoehe_etrs89": 744.722, "delta_ost_m": 0.938, "delta_nord_m": 0.84 }, "geometry": { "type": "Point", "coordinates": [ 9.689940659859545, 48.448875022023671 ] } },
{ "type": "Feature", "properties": { "station": "32", "ost": 551025.303, "nord": 5366421.633, "hoehe": 745.023, "s_lage": 0.009, "s_hoehe": 0.013, "zeit": "03.06.2026 14:43:24", "ost_etrs89": 551026.241, "nord_etrs89": 5366422.473, "hoehe_etrs89": 744.999, "delta_ost_m": 0.938, "delta_nord_m": 0.84 }, "geometry": { "type": "Point", "coordinates": [ 9.69004831578526, 48.448872694186889 ] } },
{ "type": "Feature", "properties": { "station": "40", "ost": 551033.263, "nord": 5366421.899, "hoehe": 745.287, "s_lage": 0.009, "s_hoehe": 0.014, "zeit": "03.06.2026 14:44:10", "ost_etrs89": 551034.201, "nord_etrs89": 5366422.739, "hoehe_etrs89": 745.263, "delta_ost_m": 0.938, "delta_nord_m": 0.84 }, "geometry": { "type": "Point", "coordinates": [ 9.69015598635465, 48.448874441602726 ] } },
{ "type": "Feature", "properties": { "station": "48", "ost": 551041.196, "nord": 5366422.048, "hoehe": 745.571, "s_lage": 0.012, "s_hoehe": 0.018, "zeit": "03.06.2026 14:44:40", "ost_etrs89": 551042.134, "nord_etrs89": 5366422.888, "hoehe_etrs89": 745.547, "delta_ost_m": 0.938, "delta_nord_m": 0.84 }, "geometry": { "type": "Point", "coordinates": [ 9.690263277561298, 48.448875138595902 ] } },
{ "type": "Feature", "properties": { "station": "50 Forststraße", "ost": 551043.206, "nord": 5366421.834, "hoehe": 745.577, "s_lage": 0.011, "s_hoehe": 0.019, "zeit": "03.06.2026 14:45:33", "ost_etrs89": 551044.144, "nord_etrs89": 5366422.674, "hoehe_etrs89": 745.553, "delta_ost_m": 0.938, "delta_nord_m": 0.84 }, "geometry": { "type": "Point", "coordinates": [ 9.690290431453004, 48.448873050457131 ] } },
{ "type": "Feature", "properties": { "station": "56", "ost": 551049.183, "nord": 5366421.779, "hoehe": 745.692, "s_lage": 0.011, "s_hoehe": 0.017, "zeit": "03.06.2026 14:46:19", "ost_etrs89": 551050.121, "nord_etrs89": 5366422.619, "hoehe_etrs89": 745.668, "delta_ost_m": 0.938, "delta_nord_m": 0.84 }, "geometry": { "type": "Point", "coordinates": [ 9.690371248007287, 48.448872070852588 ] } },
{ "type": "Feature", "properties": { "station": "64", "ost": 551057.214, "nord": 5366421.65, "hoehe": 746.192, "s_lage": 0.014, "s_hoehe": 0.021, "zeit": "03.06.2026 14:47:14", "ost_etrs89": 551058.152, "nord_etrs89": 5366422.49, "hoehe_etrs89": 746.168, "delta_ost_m": 0.938, "delta_nord_m": 0.84 }, "geometry": { "type": "Point", "coordinates": [ 9.690479830498139, 48.448870258853958 ] } },
{ "type": "Feature", "properties": { "station": "72", "ost": 551065.189, "nord": 5366421.997, "hoehe": 746.444, "s_lage": 0.016, "s_hoehe": 0.025, "zeit": "03.06.2026 14:47:48", "ost_etrs89": 551066.127, "nord_etrs89": 5366422.837, "hoehe_etrs89": 746.42, "delta_ost_m": 0.938, "delta_nord_m": 0.84 }, "geometry": { "type": "Point", "coordinates": [ 9.690587713788807, 48.448872733310829 ] } },
{ "type": "Feature", "properties": { "station": "80", "ost": 551073.152, "nord": 5366421.97, "hoehe": 746.558, "s_lage": 0.011, "s_hoehe": 0.018, "zeit": "03.06.2026 14:48:18", "ost_etrs89": 551074.09, "nord_etrs89": 5366422.81, "hoehe_etrs89": 746.534, "delta_ost_m": 0.938, "delta_nord_m": 0.84 }, "geometry": { "type": "Point", "coordinates": [ 9.69069538919325, 48.448871844201157 ] } },
{ "type": "Feature", "properties": { "station": "88", "ost": 551081.103, "nord": 5366421.927, "hoehe": 746.691, "s_lage": 0.016, "s_hoehe": 0.023, "zeit": "03.06.2026 14:48:56", "ost_etrs89": 551082.041, "nord_etrs89": 5366422.767, "hoehe_etrs89": 746.667, "delta_ost_m": 0.938, "delta_nord_m": 0.84 }, "geometry": { "type": "Point", "coordinates": [ 9.690802900372061, 48.448870812031601 ] } },
{ "type": "Feature", "properties": { "station": "96", "ost": 551089.021, "nord": 5366422.021, "hoehe": 747.537, "s_lage": 0.016, "s_hoehe": 0.03, "zeit": "03.06.2026 14:55:56", "ost_etrs89": 551089.959, "nord_etrs89": 5366422.861, "hoehe_etrs89": 747.513, "delta_ost_m": 0.938, "delta_nord_m": 0.84 }, "geometry": { "type": "Point", "coordinates": [ 9.690909982025861, 48.448871014868928 ] } },
{ "type": "Feature", "properties": { "station": "104", "ost": 551097.064, "nord": 5366421.958, "hoehe": 747.74, "s_lage": 0.017, "s_hoehe": 0.026, "zeit": "03.06.2026 14:56:33", "ost_etrs89": 551098.002, "nord_etrs89": 5366422.798, "hoehe_etrs89": 747.716, "delta_ost_m": 0.938, "delta_nord_m": 0.84 }, "geometry": { "type": "Point", "coordinates": [ 9.691018734813982, 48.448869795112259 ] } },
{ "type": "Feature", "properties": { "station": "112", "ost": 551105.046, "nord": 5366422.078, "hoehe": 747.85, "s_lage": 0.016, "s_hoehe": 0.025, "zeit": "03.06.2026 14:57:25", "ost_etrs89": 551105.984, "nord_etrs89": 5366422.918, "hoehe_etrs89": 747.826, "delta_ost_m": 0.938, "delta_nord_m": 0.84 }, "geometry": { "type": "Point", "coordinates": [ 9.691126685070357, 48.448870226442793 ] } },
{ "type": "Feature", "properties": { "station": "120", "ost": 551112.957, "nord": 5366422.017, "hoehe": 748.009, "s_lage": 0.017, "s_hoehe": 0.025, "zeit": "03.06.2026 14:58:13", "ost_etrs89": 551113.895, "nord_etrs89": 5366422.857, "hoehe_etrs89": 747.986, "delta_ost_m": 0.938, "delta_nord_m": 0.84 }, "geometry": { "type": "Point", "coordinates": [ 9.691233653140005, 48.448869035194406 ] } },
{ "type": "Feature", "properties": { "station": "128", "ost": 551121.02, "nord": 5366422.05, "hoehe": 748.514, "s_lage": 0.018, "s_hoehe": 0.025, "zeit": "03.06.2026 14:59:53", "ost_etrs89": 551121.958, "nord_etrs89": 5366422.89, "hoehe_etrs89": 748.491, "delta_ost_m": 0.938, "delta_nord_m": 0.84 }, "geometry": { "type": "Point", "coordinates": [ 9.691342688083116, 48.448868677106447 ] } },
{ "type": "Feature", "properties": { "station": "136", "ost": 551128.987, "nord": 5366421.901, "hoehe": 748.553, "s_lage": 0.026, "s_hoehe": 0.048, "zeit": "03.06.2026 15:01:23", "ost_etrs89": 551129.925, "nord_etrs89": 5366422.741, "hoehe_etrs89": 748.53, "delta_ost_m": 0.938, "delta_nord_m": 0.84 }, "geometry": { "type": "Point", "coordinates": [ 9.69145040264778, 48.448866689474791 ] } },
{ "type": "Feature", "properties": { "station": "142", "ost": 551134.949, "nord": 5366422.025, "hoehe": 749.283, "s_lage": 0.024, "s_hoehe": 0.048, "zeit": "03.06.2026 15:02:28", "ost_etrs89": 551135.887, "nord_etrs89": 5366422.865, "hoehe_etrs89": 749.26, "delta_ost_m": 0.938, "delta_nord_m": 0.84 }, "geometry": { "type": "Point", "coordinates": [ 9.691531038189307, 48.44886732052737 ] } }
]
}
