{
"type": "FeatureCollection",
"name": "Heroldstatt_WEA2_4",
"crs": { "type": "name", "properties": { "name": "urn:ogc:def:crs:OGC:1.3:CRS84" } },
"features": [
{ "type": "Feature", "properties": { "station": 0, "ost": 551064.391, "nord": 5366492.967, "hoehe": 745.316, "s_lage": 0.012, "s_hoehe": 0.018, "zeit": "05.06.2026 16:39:04", "ost_etrs89": 551065.329, "nord_etrs89": 5366493.807, "hoehe_etrs89": 745.293, "delta_ost_m": 0.938, "delta_nord_m": 0.84 }, "geometry": { "type": "Point", "coordinates": [ 9.690585579762857, 48.449511231878198 ] } },
{ "type": "Feature", "properties": { "station": 8, "ost": 551064.236, "nord": 5366485.007, "hoehe": 745.365, "s_lage": 0.011, "s_hoehe": 0.018, "zeit": "05.06.2026 16:39:48", "ost_etrs89": 551065.174, "nord_etrs89": 5366485.847, "hoehe_etrs89": 745.342, "delta_ost_m": 0.938, "delta_nord_m": 0.84 }, "geometry": { "type": "Point", "coordinates": [ 9.690582512804912, 48.44943963767998 ] } },
{ "type": "Feature", "properties": { "station": 16, "ost": 551064.47, "nord": 5366477.056, "hoehe": 745.575, "s_lage": 0.018, "s_hoehe": 0.025, "zeit": "05.06.2026 16:40:47", "ost_etrs89": 551065.408, "nord_etrs89": 5366477.896, "hoehe_etrs89": 745.551, "delta_ost_m": 0.938, "delta_nord_m": 0.84 }, "geometry": { "type": "Point", "coordinates": [ 9.690584707210895, 48.449368092877094 ] } },
{ "type": "Feature", "properties": { "station": 24, "ost": 551064.357, "nord": 5366468.996, "hoehe": 745.781, "s_lage": 0.015, "s_hoehe": 0.021, "zeit": "05.06.2026 16:41:24", "ost_etrs89": 551065.295, "nord_etrs89": 5366469.836, "hoehe_etrs89": 745.757, "delta_ost_m": 0.938, "delta_nord_m": 0.84 }, "geometry": { "type": "Point", "coordinates": [ 9.690582196011635, 48.449295595686216 ] } },
{ "type": "Feature", "properties": { "station": 32, "ost": 551064.258, "nord": 5366461.071, "hoehe": 745.833, "s_lage": 0.013, "s_hoehe": 0.017, "zeit": "05.06.2026 16:42:47", "ost_etrs89": 551065.196, "nord_etrs89": 5366461.911, "hoehe_etrs89": 745.809, "delta_ost_m": 0.938, "delta_nord_m": 0.84 }, "geometry": { "type": "Point", "coordinates": [ 9.690579890602343, 48.449224311794879 ] } },
{ "type": "Feature", "properties": { "station": 40, "ost": 551064.309, "nord": 5366453.128, "hoehe": 746.062, "s_lage": 0.012, "s_hoehe": 0.016, "zeit": "05.06.2026 16:43:42", "ost_etrs89": 551065.247, "nord_etrs89": 5366453.968, "hoehe_etrs89": 746.038, "delta_ost_m": 0.938, "delta_nord_m": 0.84 }, "geometry": { "type": "Point", "coordinates": [ 9.690579611372907, 48.449152853805785 ] } },
{ "type": "Feature", "properties": { "station": 48, "ost": 551064.236, "nord": 5366445.131, "hoehe": 746.214, "s_lage": 0.013, "s_hoehe": 0.018, "zeit": "05.06.2026 16:44:53", "ost_etrs89": 551065.174, "nord_etrs89": 5366445.971, "hoehe_etrs89": 746.19, "delta_ost_m": 0.938, "delta_nord_m": 0.84 }, "geometry": { "type": "Point", "coordinates": [ 9.690577648776724, 48.449080920103249 ] } },
{ "type": "Feature", "properties": { "station": 56, "ost": 551064.382, "nord": 5366437.115, "hoehe": 746.273, "s_lage": 0.012, "s_hoehe": 0.017, "zeit": "05.06.2026 16:45:55", "ost_etrs89": 551065.32, "nord_etrs89": 5366437.955, "hoehe_etrs89": 746.249, "delta_ost_m": 0.938, "delta_nord_m": 0.84 }, "geometry": { "type": "Point", "coordinates": [ 9.690578645278423, 48.449008797708146 ] } },
{ "type": "Feature", "properties": { "station": 64, "ost": 551064.341, "nord": 5366429.134, "hoehe": 746.257, "s_lage": 0.014, "s_hoehe": 0.021, "zeit": "05.06.2026 16:46:54", "ost_etrs89": 551065.279, "nord_etrs89": 5366429.974, "hoehe_etrs89": 746.233, "delta_ost_m": 0.938, "delta_nord_m": 0.84 }, "geometry": { "type": "Point", "coordinates": [ 9.690577117359618, 48.448937005340355 ] } },
{ "type": "Feature", "properties": { "station": 72, "ost": 551064.364, "nord": 5366421.15, "hoehe": 746.171, "s_lage": 0.014, "s_hoehe": 0.02, "zeit": "05.06.2026 16:47:36", "ost_etrs89": 551065.302, "nord_etrs89": 5366421.99, "hoehe_etrs89": 746.147, "delta_ost_m": 0.938, "delta_nord_m": 0.84 }, "geometry": { "type": "Point", "coordinates": [ 9.690576454512373, 48.44886518079084 ] } },
{ "type": "Feature", "properties": { "station": 80, "ost": 551064.343, "nord": 5366413.232, "hoehe": 745.666, "s_lage": 0.014, "s_hoehe": 0.019, "zeit": "05.06.2026 16:48:52", "ost_etrs89": 551065.281, "nord_etrs89": 5366414.072, "hoehe_etrs89": 745.642, "delta_ost_m": 0.938, "delta_nord_m": 0.84 }, "geometry": { "type": "Point", "coordinates": [ 9.690575204734763, 48.448793953535386 ] } },
{ "type": "Feature", "properties": { "station": 88, "ost": 551064.216, "nord": 5366405.229, "hoehe": 745.167, "s_lage": 0.013, "s_hoehe": 0.018, "zeit": "05.06.2026 16:49:40", "ost_etrs89": 551065.154, "nord_etrs89": 5366406.069, "hoehe_etrs89": 745.143, "delta_ost_m": 0.938, "delta_nord_m": 0.84 }, "geometry": { "type": "Point", "coordinates": [ 9.690572511225913, 48.448721970235091 ] } },
{ "type": "Feature", "properties": { "station": 96, "ost": 551064.348, "nord": 5366397.261, "hoehe": 744.651, "s_lage": 0.021, "s_hoehe": 0.023, "zeit": "05.06.2026 16:51:11", "ost_etrs89": 551065.286, "nord_etrs89": 5366398.101, "hoehe_etrs89": 744.627, "delta_ost_m": 0.938, "delta_nord_m": 0.84 }, "geometry": { "type": "Point", "coordinates": [ 9.690573324275624, 48.448650280771275 ] } },
{ "type": "Feature", "properties": { "station": 104, "ost": 551064.284, "nord": 5366389.222, "hoehe": 744.118, "s_lage": 0.018, "s_hoehe": 0.023, "zeit": "05.06.2026 16:52:18", "ost_etrs89": 551065.222, "nord_etrs89": 5366390.062, "hoehe_etrs89": 744.094, "delta_ost_m": 0.938, "delta_nord_m": 0.84 }, "geometry": { "type": "Point", "coordinates": [ 9.690571478293046, 48.44857796850718 ] } },
{ "type": "Feature", "properties": { "station": 112, "ost": 551064.259, "nord": 5366381.341, "hoehe": 743.197, "s_lage": 0.017, "s_hoehe": 0.024, "zeit": "05.06.2026 16:53:01", "ost_etrs89": 551065.197, "nord_etrs89": 5366382.181, "hoehe_etrs89": 743.173, "delta_ost_m": 0.938, "delta_nord_m": 0.84 }, "geometry": { "type": "Point", "coordinates": [ 9.690570178957643, 48.448507074418274 ] } },
{ "type": "Feature", "properties": { "station": 120, "ost": 551064.388, "nord": 5366373.51, "hoehe": 741.416, "s_lage": 0.015, "s_hoehe": 0.021, "zeit": "05.06.2026 16:53:44", "ost_etrs89": 551065.326, "nord_etrs89": 5366374.35, "hoehe_etrs89": 741.392, "delta_ost_m": 0.938, "delta_nord_m": 0.84 }, "geometry": { "type": "Point", "coordinates": [ 9.690570968154047, 48.448436617623649 ] } },
{ "type": "Feature", "properties": { "station": 128, "ost": 551064.251, "nord": 5366365.644, "hoehe": 740.075, "s_lage": 0.026, "s_hoehe": 0.041, "zeit": "05.06.2026 16:56:40", "ost_etrs89": 551065.189, "nord_etrs89": 5366366.484, "hoehe_etrs89": 740.051, "delta_ost_m": 0.938, "delta_nord_m": 0.84 }, "geometry": { "type": "Point", "coordinates": [ 9.690568156163328, 48.448365867558529 ] } },
{ "type": "Feature", "properties": { "station": 136, "ost": 551064.454, "nord": 5366357.587, "hoehe": 739.214, "s_lage": 0.022, "s_hoehe": 0.031, "zeit": "05.06.2026 16:57:30", "ost_etrs89": 551065.392, "nord_etrs89": 5366358.427, "hoehe_etrs89": 739.19, "delta_ost_m": 0.938, "delta_nord_m": 0.84 }, "geometry": { "type": "Point", "coordinates": [ 9.690569918441224, 48.44829337170043 ] } },
{ "type": "Feature", "properties": { "station": 142, "ost": 551063.436, "nord": 5366351.7, "hoehe": 740.906, "s_lage": 0.02, "s_hoehe": 0.026, "zeit": "05.06.2026 17:02:34", "ost_etrs89": 551064.374, "nord_etrs89": 5366352.54, "hoehe_etrs89": 740.882, "delta_ost_m": 0.938, "delta_nord_m": 0.84 }, "geometry": { "type": "Point", "coordinates": [ 9.69055543477724, 48.448240495864219 ] } }
]
}
