{
"type": "FeatureCollection",
"name": "Heroldstatt_WEA2_6",
"crs": { "type": "name", "properties": { "name": "urn:ogc:def:crs:OGC:1.3:CRS84" } },
"features": [
{ "type": "Feature", "properties": { "station": 0, "ost": 551074.268, "nord": 5366493.039, "hoehe": 746.379, "s_lage": 0.015, "s_hoehe": 0.02, "zeit": "06.06.2026 11:59:39", "ost_etrs89": 551075.206, "nord_etrs89": 5366493.879, "hoehe_etrs89": 746.356, "delta_ost_m": 0.938, "delta_nord_m": 0.84 }, "geometry": { "type": "Point", "coordinates": [ 9.690719150751463, 48.449511078007873 ] } },
{ "type": "Feature", "properties": { "station": 8, "ost": 551074.405, "nord": 5366485.044, "hoehe": 746.431, "s_lage": 0.018, "s_hoehe": 0.024, "zeit": "06.06.2026 12:00:16", "ost_etrs89": 551075.343, "nord_etrs89": 5366485.884, "hoehe_etrs89": 746.408, "delta_ost_m": 0.938, "delta_nord_m": 0.84 }, "geometry": { "type": "Point", "coordinates": [ 9.690720027914004, 48.449439145260634 ] } },
{ "type": "Feature", "properties": { "station": 16, "ost": 551074.385, "nord": 5366477.091, "hoehe": 746.633, "s_lage": 0.015, "s_hoehe": 0.021, "zeit": "06.06.2026 12:00:55", "ost_etrs89": 551075.323, "nord_etrs89": 5366477.931, "hoehe_etrs89": 746.61, "delta_ost_m": 0.938, "delta_nord_m": 0.84 }, "geometry": { "type": "Point", "coordinates": [ 9.690718787165332, 48.449367603079786 ] } },
{ "type": "Feature", "properties": { "station": 24, "ost": 551074.539, "nord": 5366469.09, "hoehe": 746.715, "s_lage": 0.017, "s_hoehe": 0.031, "zeit": "06.06.2026 12:01:41", "ost_etrs89": 551075.477, "nord_etrs89": 5366469.93, "hoehe_etrs89": 746.692, "delta_ost_m": 0.938, "delta_nord_m": 0.84 }, "geometry": { "type": "Point", "coordinates": [ 9.690719893478397, 48.449295614976052 ] } },
{ "type": "Feature", "properties": { "station": 32, "ost": 551074.45, "nord": 5366461.079, "hoehe": 746.996, "s_lage": 0.019, "s_hoehe": 0.03, "zeit": "06.06.2026 12:02:38", "ost_etrs89": 551075.388, "nord_etrs89": 5366461.919, "hoehe_etrs89": 746.973, "delta_ost_m": 0.938, "delta_nord_m": 0.84 }, "geometry": { "type": "Point", "coordinates": [ 9.690717712608862, 48.449223556635701 ] } },
{ "type": "Feature", "properties": { "station": 40, "ost": 551074.443, "nord": 5366453.118, "hoehe": 747.444, "s_lage": 0.015, "s_hoehe": 0.021, "zeit": "06.06.2026 12:03:58", "ost_etrs89": 551075.381, "nord_etrs89": 5366453.958, "hoehe_etrs89": 747.421, "delta_ost_m": 0.938, "delta_nord_m": 0.84 }, "geometry": { "type": "Point", "coordinates": [ 9.69071664668779, 48.449151941430387 ] } },
{ "type": "Feature", "properties": { "station": 48, "ost": 551074.487, "nord": 5366445.089, "hoehe": 747.247, "s_lage": 0.014, "s_hoehe": 0.022, "zeit": "06.06.2026 12:04:41", "ost_etrs89": 551075.425, "nord_etrs89": 5366445.929, "hoehe_etrs89": 747.224, "delta_ost_m": 0.938, "delta_nord_m": 0.84 }, "geometry": { "type": "Point", "coordinates": [ 9.690716262118743, 48.449079710368693 ] } },
{ "type": "Feature", "properties": { "station": 56, "ost": 551074.161, "nord": 5366437.124, "hoehe": 746.861, "s_lage": 0.016, "s_hoehe": 0.027, "zeit": "06.06.2026 12:05:32", "ost_etrs89": 551075.099, "nord_etrs89": 5366437.964, "hoehe_etrs89": 746.837, "delta_ost_m": 0.938, "delta_nord_m": 0.84 }, "geometry": { "type": "Point", "coordinates": [ 9.690710882066773, 48.449008085068833 ] } },
{ "type": "Feature", "properties": { "station": 64, "ost": 551074.334, "nord": 5366429.155, "hoehe": 746.731, "s_lage": 0.015, "s_hoehe": 0.021, "zeit": "06.06.2026 12:06:13", "ost_etrs89": 551075.272, "nord_etrs89": 5366429.995, "hoehe_etrs89": 746.707, "delta_ost_m": 0.938, "delta_nord_m": 0.84 }, "geometry": { "type": "Point", "coordinates": [ 9.690712249218164, 48.448936383285066 ] } },
{ "type": "Feature", "properties": { "station": 72, "ost": 551074.319, "nord": 5366421.138, "hoehe": 746.579, "s_lage": 0.013, "s_hoehe": 0.02, "zeit": "06.06.2026 12:06:52", "ost_etrs89": 551075.257, "nord_etrs89": 5366421.978, "hoehe_etrs89": 746.555, "delta_ost_m": 0.938, "delta_nord_m": 0.84 }, "geometry": { "type": "Point", "coordinates": [ 9.690711068304074, 48.448864264959056 ] } },
{ "type": "Feature", "properties": { "station": 80, "ost": 551074.4, "nord": 5366413.217, "hoehe": 746.295, "s_lage": 0.019, "s_hoehe": 0.031, "zeit": "06.06.2026 12:07:34", "ost_etrs89": 551075.338, "nord_etrs89": 5366414.057, "hoehe_etrs89": 746.271, "delta_ost_m": 0.938, "delta_nord_m": 0.84 }, "geometry": { "type": "Point", "coordinates": [ 9.69071119725267, 48.448793002440048 ] } },
{ "type": "Feature", "properties": { "station": 88, "ost": 551074.293, "nord": 5366405.255, "hoehe": 745.797, "s_lage": 0.014, "s_hoehe": 0.026, "zeit": "06.06.2026 12:08:16", "ost_etrs89": 551075.231, "nord_etrs89": 5366406.095, "hoehe_etrs89": 745.773, "delta_ost_m": 0.938, "delta_nord_m": 0.84 }, "geometry": { "type": "Point", "coordinates": [ 9.690708779000436, 48.448721386349504 ] } },
{ "type": "Feature", "properties": { "station": 96, "ost": 551074.336, "nord": 5366397.267, "hoehe": 745.382, "s_lage": 0.019, "s_hoehe": 0.024, "zeit": "06.06.2026 12:09:12", "ost_etrs89": 551075.274, "nord_etrs89": 5366398.107, "hoehe_etrs89": 745.358, "delta_ost_m": 0.938, "delta_nord_m": 0.84 }, "geometry": { "type": "Point", "coordinates": [ 9.690708385931957, 48.448649524192398 ] } },
{ "type": "Feature", "properties": { "station": 104, "ost": 551074.279, "nord": 5366389.173, "hoehe": 744.688, "s_lage": 0.017, "s_hoehe": 0.021, "zeit": "06.06.2026 12:09:55", "ost_etrs89": 551075.217, "nord_etrs89": 5366390.013, "hoehe_etrs89": 744.664, "delta_ost_m": 0.938, "delta_nord_m": 0.84 }, "geometry": { "type": "Point", "coordinates": [ 9.690706627703872, 48.44857671659274 ] } },
{ "type": "Feature", "properties": { "station": 112, "ost": 551074.359, "nord": 5366381.3, "hoehe": 743.834, "s_lage": 0.016, "s_hoehe": 0.033, "zeit": "06.06.2026 12:10:54", "ost_etrs89": 551075.297, "nord_etrs89": 5366382.14, "hoehe_etrs89": 743.81, "delta_ost_m": 0.938, "delta_nord_m": 0.84 }, "geometry": { "type": "Point", "coordinates": [ 9.690706748995874, 48.448505885951022 ] } },
{ "type": "Feature", "properties": { "station": 120, "ost": 551074.346, "nord": 5366373.449, "hoehe": 742.394, "s_lage": 0.018, "s_hoehe": 0.033, "zeit": "06.06.2026 12:13:30", "ost_etrs89": 551075.284, "nord_etrs89": 5366374.289, "hoehe_etrs89": 742.37, "delta_ost_m": 0.938, "delta_nord_m": 0.84 }, "geometry": { "type": "Point", "coordinates": [ 9.69070561540217, 48.448435260764562 ] } },
{ "type": "Feature", "properties": { "station": 128, "ost": 551074.349, "nord": 5366365.523, "hoehe": 740.719, "s_lage": 0.016, "s_hoehe": 0.025, "zeit": "06.06.2026 12:15:51", "ost_etrs89": 551075.287, "nord_etrs89": 5366366.363, "hoehe_etrs89": 740.695, "delta_ost_m": 0.938, "delta_nord_m": 0.84 }, "geometry": { "type": "Point", "coordinates": [ 9.690704689018773, 48.448363959591561 ] } },
{ "type": "Feature", "properties": { "station": 136, "ost": 551074.437, "nord": 5366357.613, "hoehe": 740.107, "s_lage": 0.019, "s_hoehe": 0.031, "zeit": "06.06.2026 12:16:50", "ost_etrs89": 551075.375, "nord_etrs89": 5366358.453, "hoehe_etrs89": 740.083, "delta_ost_m": 0.938, "delta_nord_m": 0.84 }, "geometry": { "type": "Point", "coordinates": [ 9.69070491398004, 48.448292795452311 ] } },
{ "type": "Feature", "properties": { "station": 144, "ost": 551074.386, "nord": 5366351.611, "hoehe": 739.844, "s_lage": 0.02, "s_hoehe": 0.031, "zeit": "06.06.2026 12:17:31", "ost_etrs89": 551075.324, "nord_etrs89": 5366352.451, "hoehe_etrs89": 739.82, "delta_ost_m": 0.938, "delta_nord_m": 0.84 }, "geometry": { "type": "Point", "coordinates": [ 9.690703492123959, 48.448238806632972 ] } }
]
}
