{
"type": "FeatureCollection",
"name": "Heroldstatt_WEA3_8",
"crs": { "type": "name", "properties": { "name": "urn:ogc:def:crs:OGC:1.3:CRS84" } },
"features": [
{ "type": "Feature", "properties": { "station": "0", "ost": 551546.703, "nord": 5365874.48, "hoehe": 753.229, "s_lage": 0.022, "s_hoehe": 0.04, "zeit": "09.06.2026 10:26:32", "ost_etrs89": 551547.641, "nord_etrs89": 5365875.321, "hoehe_etrs89": 753.206, "delta_ost_m": 0.938, "delta_nord_m": 0.841 }, "geometry": { "type": "Point", "coordinates": [ 9.697031515712322, 48.443908121153449 ] } },
{ "type": "Feature", "properties": { "station": "8", "ost": 551540.701, "nord": 5365869.343, "hoehe": 752.917, "s_lage": 0.018, "s_hoehe": 0.033, "zeit": "09.06.2026 10:28:16", "ost_etrs89": 551541.639, "nord_etrs89": 5365870.184, "hoehe_etrs89": 752.894, "delta_ost_m": 0.938, "delta_nord_m": 0.841 }, "geometry": { "type": "Point", "coordinates": [ 9.696949730150379, 48.443862401133224 ] } },
{ "type": "Feature", "properties": { "station": "16", "ost": 551534.407, "nord": 5365864.425, "hoehe": 752.691, "s_lage": 0.019, "s_hoehe": 0.032, "zeit": "09.06.2026 10:30:20", "ost_etrs89": 551535.345, "nord_etrs89": 5365865.266, "hoehe_etrs89": 752.668, "delta_ost_m": 0.938, "delta_nord_m": 0.841 }, "geometry": { "type": "Point", "coordinates": [ 9.696864023548976, 48.44381867504746 ] } },
{ "type": "Feature", "properties": { "station": "24", "ost": 551528.152, "nord": 5365859.444, "hoehe": 752.352, "s_lage": 0.017, "s_hoehe": 0.035, "zeit": "09.06.2026 10:33:19", "ost_etrs89": 551529.09, "nord_etrs89": 5365860.285, "hoehe_etrs89": 752.329, "delta_ost_m": 0.938, "delta_nord_m": 0.841 }, "geometry": { "type": "Point", "coordinates": [ 9.696778836661576, 48.443774378967134 ] } },
{ "type": "Feature", "properties": { "station": "32", "ost": 551522.077, "nord": 5365854.34, "hoehe": 751.939, "s_lage": 0.016, "s_hoehe": 0.033, "zeit": "09.06.2026 10:35:21", "ost_etrs89": 551523.015, "nord_etrs89": 5365855.181, "hoehe_etrs89": 751.916, "delta_ost_m": 0.938, "delta_nord_m": 0.841 }, "geometry": { "type": "Point", "coordinates": [ 9.696696068568007, 48.443728961601977 ] } },
{ "type": "Feature", "properties": { "station": "40", "ost": 551515.992, "nord": 5365849.113, "hoehe": 751.512, "s_lage": 0.021, "s_hoehe": 0.031, "zeit": "09.06.2026 10:37:31", "ost_etrs89": 551516.93, "nord_etrs89": 5365849.954, "hoehe_etrs89": 751.489, "delta_ost_m": 0.938, "delta_nord_m": 0.841 }, "geometry": { "type": "Point", "coordinates": [ 9.696613150280486, 48.443682438508382 ] } },
{ "type": "Feature", "properties": { "station": "48", "ost": 551509.865, "nord": 5365844.068, "hoehe": 751.171, "s_lage": 0.021, "s_hoehe": 0.03, "zeit": "09.06.2026 10:38:32", "ost_etrs89": 551510.803, "nord_etrs89": 5365844.909, "hoehe_etrs89": 751.148, "delta_ost_m": 0.938, "delta_nord_m": 0.841 }, "geometry": { "type": "Point", "coordinates": [ 9.69652968665042, 48.443637556031135 ] } },
{ "type": "Feature", "properties": { "station": "56", "ost": 551503.684, "nord": 5365838.834, "hoehe": 750.975, "s_lage": 0.023, "s_hoehe": 0.037, "zeit": "09.06.2026 10:40:24", "ost_etrs89": 551504.622, "nord_etrs89": 5365839.675, "hoehe_etrs89": 750.952, "delta_ost_m": 0.938, "delta_nord_m": 0.841 }, "geometry": { "type": "Point", "coordinates": [ 9.69644546979019, 48.443590977700246 ] } },
{ "type": "Feature", "properties": { "station": "64", "ost": 551497.823, "nord": 5365833.539, "hoehe": 750.517, "s_lage": 0.03, "s_hoehe": 0.046, "zeit": "09.06.2026 10:43:08", "ost_etrs89": 551498.761, "nord_etrs89": 5365834.38, "hoehe_etrs89": 750.494, "delta_ost_m": 0.938, "delta_nord_m": 0.841 }, "geometry": { "type": "Point", "coordinates": [ 9.696365572285456, 48.443543824379326 ] } },
{ "type": "Feature", "properties": { "station": "72", "ost": 551491.814, "nord": 5365828.33, "hoehe": 750.204, "s_lage": 0.02, "s_hoehe": 0.036, "zeit": "09.06.2026 10:43:58", "ost_etrs89": 551492.752, "nord_etrs89": 5365829.171, "hoehe_etrs89": 750.181, "delta_ost_m": 0.938, "delta_nord_m": 0.841 }, "geometry": { "type": "Point", "coordinates": [ 9.696283684404788, 48.443497456750556 ] } },
{ "type": "Feature", "properties": { "station": "80", "ost": 551485.569, "nord": 5365823.264, "hoehe": 749.918, "s_lage": 0.031, "s_hoehe": 0.062, "zeit": "09.06.2026 10:45:38", "ost_etrs89": 551486.507, "nord_etrs89": 5365824.105, "hoehe_etrs89": 749.895, "delta_ost_m": 0.938, "delta_nord_m": 0.841 }, "geometry": { "type": "Point", "coordinates": [ 9.696198623316429, 48.443452394770091 ] } },
{ "type": "Feature", "properties": { "station": "88", "ost": 551479.594, "nord": 5365818.068, "hoehe": 749.571, "s_lage": 0.017, "s_hoehe": 0.028, "zeit": "09.06.2026 10:46:39", "ost_etrs89": 551480.532, "nord_etrs89": 5365818.909, "hoehe_etrs89": 749.548, "delta_ost_m": 0.938, "delta_nord_m": 0.841 }, "geometry": { "type": "Point", "coordinates": [ 9.696117197043428, 48.443406141185235 ] } },
{ "type": "Feature", "properties": { "station": "96", "ost": 551473.257, "nord": 5365813.106, "hoehe": 749.086, "s_lage": 0.021, "s_hoehe": 0.039, "zeit": "09.06.2026 10:47:24", "ost_etrs89": 551474.195, "nord_etrs89": 5365813.947, "hoehe_etrs89": 749.063, "delta_ost_m": 0.938, "delta_nord_m": 0.841 }, "geometry": { "type": "Point", "coordinates": [ 9.696030905114862, 48.443362022169097 ] } },
{ "type": "Feature", "properties": { "station": "104", "ost": 551467.402, "nord": 5365807.68, "hoehe": 749.246, "s_lage": 0.017, "s_hoehe": 0.031, "zeit": "09.06.2026 10:48:06", "ost_etrs89": 551468.34, "nord_etrs89": 5365808.521, "hoehe_etrs89": 749.223, "delta_ost_m": 0.938, "delta_nord_m": 0.841 }, "geometry": { "type": "Point", "coordinates": [ 9.695951073377366, 48.443313689611159 ] } },
{ "type": "Feature", "properties": { "station": "112", "ost": 551461.14, "nord": 5365802.744, "hoehe": 748.58, "s_lage": 0.017, "s_hoehe": 0.025, "zeit": "09.06.2026 10:48:42", "ost_etrs89": 551462.078, "nord_etrs89": 5365803.585, "hoehe_etrs89": 748.557, "delta_ost_m": 0.938, "delta_nord_m": 0.841 }, "geometry": { "type": "Point", "coordinates": [ 9.695865799009573, 48.443269798227803 ] } },
{ "type": "Feature", "properties": { "station": "120", "ost": 551455.062, "nord": 5365797.5, "hoehe": 748.237, "s_lage": 0.024, "s_hoehe": 0.029, "zeit": "09.06.2026 10:49:18", "ost_etrs89": 551456.0, "nord_etrs89": 5365798.341, "hoehe_etrs89": 748.214, "delta_ost_m": 0.938, "delta_nord_m": 0.841 }, "geometry": { "type": "Point", "coordinates": [ 9.695782974783064, 48.443223121023777 ] } },
{ "type": "Feature", "properties": { "station": "128", "ost": 551448.983, "nord": 5365792.472, "hoehe": 747.945, "s_lage": 0.02, "s_hoehe": 0.035, "zeit": "09.06.2026 10:50:35", "ost_etrs89": 551449.921, "nord_etrs89": 5365793.313, "hoehe_etrs89": 747.922, "delta_ost_m": 0.938, "delta_nord_m": 0.841 }, "geometry": { "type": "Point", "coordinates": [ 9.695700163724403, 48.443178386939273 ] } },
{ "type": "Feature", "properties": { "station": "136", "ost": 551442.598, "nord": 5365787.56, "hoehe": 747.664, "s_lage": 0.019, "s_hoehe": 0.027, "zeit": "09.06.2026 10:51:20", "ost_etrs89": 551443.536, "nord_etrs89": 5365788.401, "hoehe_etrs89": 747.641, "delta_ost_m": 0.938, "delta_nord_m": 0.841 }, "geometry": { "type": "Point", "coordinates": [ 9.695613229683316, 48.443134721319488 ] } },
{ "type": "Feature", "properties": { "station": "142", "ost": 551438.156, "nord": 5365783.492, "hoehe": 747.528, "s_lage": 0.02, "s_hoehe": 0.034, "zeit": "09.06.2026 10:52:36", "ost_etrs89": 551439.094, "nord_etrs89": 5365784.333, "hoehe_etrs89": 747.505, "delta_ost_m": 0.938, "delta_nord_m": 0.841 }, "geometry": { "type": "Point", "coordinates": [ 9.695552670431837, 48.443098489326083 ] } },
{ "type": "Feature", "properties": { "station": "str", "ost": 551467.833, "nord": 5365808.206, "hoehe": 749.204, "s_lage": 0.016, "s_hoehe": 0.023, "zeit": "09.06.2026 10:53:48", "ost_etrs89": 551468.771, "nord_etrs89": 5365809.047, "hoehe_etrs89": 749.181, "delta_ost_m": 0.938, "delta_nord_m": 0.841 }, "geometry": { "type": "Point", "coordinates": [ 9.695956965526795, 48.443318386172386 ] } }
]
}
