{
"type": "FeatureCollection",
"name": "Heroldstatt_WEA2_2",
"crs": { "type": "name", "properties": { "name": "urn:ogc:def:crs:OGC:1.3:CRS84" } },
"features": [
{ "type": "Feature", "properties": { "station": 0, "ost": 551054.303, "nord": 5366492.969, "hoehe": 744.715, "s_lage": 0.017, "s_hoehe": 0.019, "zeit": "05.06.2026 11:59:06", "ost_etrs89": 551055.241, "nord_etrs89": 5366493.809, "hoehe_etrs89": 744.691, "delta_ost_m": 0.938, "delta_nord_m": 0.84 }, "geometry": { "type": "Point", "coordinates": [ 9.690449164538858, 48.449512068403394 ] } },
{ "type": "Feature", "properties": { "station": 6, "ost": 551054.48, "nord": 5366486.951, "hoehe": 744.807, "s_lage": 0.014, "s_hoehe": 0.019, "zeit": "05.06.2026 12:00:10", "ost_etrs89": 551055.418, "nord_etrs89": 5366487.791, "hoehe_etrs89": 744.783, "delta_ost_m": 0.938, "delta_nord_m": 0.84 }, "geometry": { "type": "Point", "coordinates": [ 9.690450824092528, 48.449457917160025 ] } },
{ "type": "Feature", "properties": { "station": 12, "ost": 551054.685, "nord": 5366480.949, "hoehe": 744.913, "s_lage": 0.014, "s_hoehe": 0.02, "zeit": "05.06.2026 12:00:57", "ost_etrs89": 551055.623, "nord_etrs89": 5366481.789, "hoehe_etrs89": 744.889, "delta_ost_m": 0.938, "delta_nord_m": 0.84 }, "geometry": { "type": "Point", "coordinates": [ 9.690452864225156, 48.449403907577675 ] } },
{ "type": "Feature", "properties": { "station": 18, "ost": 551054.742, "nord": 5366475.135, "hoehe": 745.203, "s_lage": 0.038, "s_hoehe": 0.028, "zeit": "05.06.2026 12:01:50", "ost_etrs89": 551055.68, "nord_etrs89": 5366475.975, "hoehe_etrs89": 745.179, "delta_ost_m": 0.938, "delta_nord_m": 0.84 }, "geometry": { "type": "Point", "coordinates": [ 9.690452925951108, 48.449351601217685 ] } },
{ "type": "Feature", "properties": { "station": 24, "ost": 551054.681, "nord": 5366468.955, "hoehe": 745.22, "s_lage": 0.015, "s_hoehe": 0.022, "zeit": "05.06.2026 12:02:42", "ost_etrs89": 551055.619, "nord_etrs89": 5366469.795, "hoehe_etrs89": 745.196, "delta_ost_m": 0.938, "delta_nord_m": 0.84 }, "geometry": { "type": "Point", "coordinates": [ 9.690451347387436, 48.449296011958175 ] } },
{ "type": "Feature", "properties": { "station": 30, "ost": 551054.456, "nord": 5366463.022, "hoehe": 745.367, "s_lage": 0.012, "s_hoehe": 0.019, "zeit": "05.06.2026 12:03:24", "ost_etrs89": 551055.394, "nord_etrs89": 5366463.862, "hoehe_etrs89": 745.343, "delta_ost_m": 0.938, "delta_nord_m": 0.84 }, "geometry": { "type": "Point", "coordinates": [ 9.690447581264678, 48.449242657972775 ] } },
{ "type": "Feature", "properties": { "station": 36, "ost": 551054.426, "nord": 5366456.996, "hoehe": 745.616, "s_lage": 0.018, "s_hoehe": 0.025, "zeit": "05.06.2026 12:04:21", "ost_etrs89": 551055.364, "nord_etrs89": 5366457.836, "hoehe_etrs89": 745.592, "delta_ost_m": 0.938, "delta_nord_m": 0.84 }, "geometry": { "type": "Point", "coordinates": [ 9.690446440688881, 48.449188451554384 ] } },
{ "type": "Feature", "properties": { "station": 42, "ost": 551054.348, "nord": 5366451.059, "hoehe": 745.778, "s_lage": 0.017, "s_hoehe": 0.026, "zeit": "05.06.2026 12:04:53", "ost_etrs89": 551055.286, "nord_etrs89": 5366451.899, "hoehe_etrs89": 745.754, "delta_ost_m": 0.938, "delta_nord_m": 0.84 }, "geometry": { "type": "Point", "coordinates": [ 9.690444661892544, 48.449135049658317 ] } },
{ "type": "Feature", "properties": { "station": 48, "ost": 551054.145, "nord": 5366445.076, "hoehe": 746.01, "s_lage": 0.019, "s_hoehe": 0.029, "zeit": "05.06.2026 12:05:27", "ost_etrs89": 551055.083, "nord_etrs89": 5366445.916, "hoehe_etrs89": 745.986, "delta_ost_m": 0.938, "delta_nord_m": 0.84 }, "geometry": { "type": "Point", "coordinates": [ 9.690441187186369, 48.449081244094913 ] } },
{ "type": "Feature", "properties": { "station": 54, "ost": 551054.346, "nord": 5366438.987, "hoehe": 745.947, "s_lage": 0.016, "s_hoehe": 0.021, "zeit": "05.06.2026 12:05:57", "ost_etrs89": 551055.284, "nord_etrs89": 5366439.827, "hoehe_etrs89": 745.923, "delta_ost_m": 0.938, "delta_nord_m": 0.84 }, "geometry": { "type": "Point", "coordinates": [ 9.690443162618747, 48.44902645219679 ] } },
{ "type": "Feature", "properties": { "station": 60, "ost": 551054.48, "nord": 5366433.148, "hoehe": 745.991, "s_lage": 0.017, "s_hoehe": 0.025, "zeit": "05.06.2026 12:06:44", "ost_etrs89": 551055.418, "nord_etrs89": 5366433.988, "hoehe_etrs89": 745.967, "delta_ost_m": 0.938, "delta_nord_m": 0.84 }, "geometry": { "type": "Point", "coordinates": [ 9.690444262534758, 48.448973914690647 ] } },
{ "type": "Feature", "properties": { "station": 66, "ost": 551054.307, "nord": 5366427.052, "hoehe": 745.782, "s_lage": 0.017, "s_hoehe": 0.022, "zeit": "05.06.2026 12:07:44", "ost_etrs89": 551055.245, "nord_etrs89": 5366427.892, "hoehe_etrs89": 745.758, "delta_ost_m": 0.938, "delta_nord_m": 0.84 }, "geometry": { "type": "Point", "coordinates": [ 9.690441179732892, 48.448919090163308 ] } },
{ "type": "Feature", "properties": { "station": 72, "ost": 551054.368, "nord": 5366421.023, "hoehe": 745.408, "s_lage": 0.015, "s_hoehe": 0.024, "zeit": "05.06.2026 12:08:24", "ost_etrs89": 551055.306, "nord_etrs89": 5366421.863, "hoehe_etrs89": 745.384, "delta_ost_m": 0.938, "delta_nord_m": 0.84 }, "geometry": { "type": "Point", "coordinates": [ 9.690441269345268, 48.448864849371482 ] } },
{ "type": "Feature", "properties": { "station": 78, "ost": 551054.599, "nord": 5366415.136, "hoehe": 745.356, "s_lage": 0.013, "s_hoehe": 0.016, "zeit": "05.06.2026 12:08:55", "ost_etrs89": 551055.537, "nord_etrs89": 5366415.976, "hoehe_etrs89": 745.332, "delta_ost_m": 0.938, "delta_nord_m": 0.84 }, "geometry": { "type": "Point", "coordinates": [ 9.690443675076988, 48.44881187219459 ] } },
{ "type": "Feature", "properties": { "station": 84, "ost": 551054.496, "nord": 5366409.073, "hoehe": 745.052, "s_lage": 0.019, "s_hoehe": 0.034, "zeit": "05.06.2026 12:09:41", "ost_etrs89": 551055.434, "nord_etrs89": 5366409.913, "hoehe_etrs89": 745.028, "delta_ost_m": 0.938, "delta_nord_m": 0.84 }, "geometry": { "type": "Point", "coordinates": [ 9.690441542876226, 48.448757338848885 ] } },
{ "type": "Feature", "properties": { "station": 90, "ost": 551054.405, "nord": 5366403.099, "hoehe": 744.807, "s_lage": 0.013, "s_hoehe": 0.023, "zeit": "05.06.2026 12:10:50", "ost_etrs89": 551055.343, "nord_etrs89": 5366403.939, "hoehe_etrs89": 744.783, "delta_ost_m": 0.938, "delta_nord_m": 0.84 }, "geometry": { "type": "Point", "coordinates": [ 9.690439583802355, 48.448703605157718 ] } },
{ "type": "Feature", "properties": { "station": 96, "ost": 551054.308, "nord": 5366397.223, "hoehe": 744.41, "s_lage": 0.016, "s_hoehe": 0.027, "zeit": "05.06.2026 12:17:17", "ost_etrs89": 551055.246, "nord_etrs89": 5366398.063, "hoehe_etrs89": 744.386, "delta_ost_m": 0.938, "delta_nord_m": 0.84 }, "geometry": { "type": "Point", "coordinates": [ 9.690437555550506, 48.448650753543873 ] } },
{ "type": "Feature", "properties": { "station": 102, "ost": 551054.348, "nord": 5366391.228, "hoehe": 743.965, "s_lage": 0.018, "s_hoehe": 0.027, "zeit": "05.06.2026 12:17:54", "ost_etrs89": 551055.286, "nord_etrs89": 5366392.068, "hoehe_etrs89": 743.941, "delta_ost_m": 0.938, "delta_nord_m": 0.84 }, "geometry": { "type": "Point", "coordinates": [ 9.690437365347231, 48.448596820311352 ] } },
{ "type": "Feature", "properties": { "station": 108, "ost": 551054.262, "nord": 5366385.233, "hoehe": 743.409, "s_lage": 0.017, "s_hoehe": 0.027, "zeit": "05.06.2026 12:18:25", "ost_etrs89": 551055.2, "nord_etrs89": 5366386.073, "hoehe_etrs89": 743.385, "delta_ost_m": 0.938, "delta_nord_m": 0.84 }, "geometry": { "type": "Point", "coordinates": [ 9.690435471336251, 48.448542897300534 ] } },
{ "type": "Feature", "properties": { "station": 114, "ost": 551054.411, "nord": 5366379.467, "hoehe": 742.094, "s_lage": 0.017, "s_hoehe": 0.022, "zeit": "05.06.2026 12:18:57", "ost_etrs89": 551055.349, "nord_etrs89": 5366380.307, "hoehe_etrs89": 742.07, "delta_ost_m": 0.938, "delta_nord_m": 0.84 }, "geometry": { "type": "Point", "coordinates": [ 9.690436782991611, 48.448491015268587 ] } },
{ "type": "Feature", "properties": { "station": 120, "ost": 551054.357, "nord": 5366373.529, "hoehe": 740.443, "s_lage": 0.024, "s_hoehe": 0.03, "zeit": "05.06.2026 12:20:28", "ost_etrs89": 551055.295, "nord_etrs89": 5366374.369, "hoehe_etrs89": 740.419, "delta_ost_m": 0.938, "delta_nord_m": 0.84 }, "geometry": { "type": "Point", "coordinates": [ 9.690435328649942, 48.448437602422842 ] } },
{ "type": "Feature", "properties": { "station": 126, "ost": 551054.36, "nord": 5366367.514, "hoehe": 739.62, "s_lage": 0.019, "s_hoehe": 0.023, "zeit": "05.06.2026 12:24:06", "ost_etrs89": 551055.298, "nord_etrs89": 5366368.354, "hoehe_etrs89": 739.596, "delta_ost_m": 0.938, "delta_nord_m": 0.84 }, "geometry": { "type": "Point", "coordinates": [ 9.690434635690023, 48.448383492273507 ] } },
{ "type": "Feature", "properties": { "station": 132, "ost": 551054.492, "nord": 5366361.643, "hoehe": 738.948, "s_lage": 0.014, "s_hoehe": 0.022, "zeit": "05.06.2026 12:25:55", "ost_etrs89": 551055.43, "nord_etrs89": 5366362.483, "hoehe_etrs89": 738.924, "delta_ost_m": 0.938, "delta_nord_m": 0.84 }, "geometry": { "type": "Point", "coordinates": [ 9.69043570466118, 48.448330667057363 ] } },
{ "type": "Feature", "properties": { "station": 138, "ost": 551054.321, "nord": 5366355.656, "hoehe": 738.36, "s_lage": 0.017, "s_hoehe": 0.025, "zeit": "05.06.2026 12:29:01", "ost_etrs89": 551055.259, "nord_etrs89": 5366356.496, "hoehe_etrs89": 738.336, "delta_ost_m": 0.938, "delta_nord_m": 0.84 }, "geometry": { "type": "Point", "coordinates": [ 9.690432662251689, 48.448276822906479 ] } },
{ "type": "Feature", "properties": { "station": 142, "ost": 551054.408, "nord": 5366351.646, "hoehe": 738.231, "s_lage": 0.035, "s_hoehe": 0.042, "zeit": "05.06.2026 12:31:32", "ost_etrs89": 551055.346, "nord_etrs89": 5366352.486, "hoehe_etrs89": 738.207, "delta_ost_m": 0.938, "delta_nord_m": 0.84 }, "geometry": { "type": "Point", "coordinates": [ 9.690433349670695, 48.448240742576736 ] } }
]
}
