{
"type": "FeatureCollection",
"name": "Heroldstatt_WEA3_3",
"crs": { "type": "name", "properties": { "name": "urn:ogc:def:crs:OGC:1.3:CRS84" } },
"features": [
{ "type": "Feature", "properties": { "station": "000", "ost": 551442.93, "nord": 5365880.243, "hoehe": 753.714, "s_lage": 0.02, "s_hoehe": 0.026, "zeit": "09.06.2026 18:12:58", "ost_etrs89": 551443.868, "nord_etrs89": 5365881.084, "hoehe_etrs89": 753.691, "delta_ost_m": 0.938, "delta_nord_m": 0.841 }, "geometry": { "type": "Point", "coordinates": [ 9.695629104244924, 48.443968454312902 ] } },
{ "type": "Feature", "properties": { "station": "008", "ost": 551448.064, "nord": 5365874.155, "hoehe": 753.164, "s_lage": 0.021, "s_hoehe": 0.03, "zeit": "09.06.2026 18:14:52", "ost_etrs89": 551449.002, "nord_etrs89": 5365874.996, "hoehe_etrs89": 753.141, "delta_ost_m": 0.938, "delta_nord_m": 0.841 }, "geometry": { "type": "Point", "coordinates": [ 9.695697773406796, 48.4439132680914 ] } },
{ "type": "Feature", "properties": { "station": "016", "ost": 551453.199, "nord": 5365868.106, "hoehe": 752.696, "s_lage": 0.016, "s_hoehe": 0.026, "zeit": "09.06.2026 18:17:00", "ost_etrs89": 551454.137, "nord_etrs89": 5365868.947, "hoehe_etrs89": 752.673, "delta_ost_m": 0.938, "delta_nord_m": 0.841 }, "geometry": { "type": "Point", "coordinates": [ 9.695766460733102, 48.443858432584527 ] } },
{ "type": "Feature", "properties": { "station": "024", "ost": 551458.282, "nord": 5365861.804, "hoehe": 752.222, "s_lage": 0.013, "s_hoehe": 0.018, "zeit": "09.06.2026 18:17:35", "ost_etrs89": 551459.22, "nord_etrs89": 5365862.645, "hoehe_etrs89": 752.199, "delta_ost_m": 0.938, "delta_nord_m": 0.841 }, "geometry": { "type": "Point", "coordinates": [ 9.695834413729303, 48.443801325344474 ] } },
{ "type": "Feature", "properties": { "station": "024 mittestrasse", "ost": 551458.287, "nord": 5365861.821, "hoehe": 752.197, "s_lage": 0.014, "s_hoehe": 0.019, "zeit": "09.06.2026 18:18:32", "ost_etrs89": 551459.225, "nord_etrs89": 5365862.662, "hoehe_etrs89": 752.174, "delta_ost_m": 0.938, "delta_nord_m": 0.841 }, "geometry": { "type": "Point", "coordinates": [ 9.695834483423406, 48.443801477864717 ] } },
{ "type": "Feature", "properties": { "station": "032", "ost": 551463.254, "nord": 5365855.62, "hoehe": 751.751, "s_lage": 0.017, "s_hoehe": 0.024, "zeit": "09.06.2026 18:20:09", "ost_etrs89": 551464.192, "nord_etrs89": 5365856.461, "hoehe_etrs89": 751.728, "delta_ost_m": 0.938, "delta_nord_m": 0.841 }, "geometry": { "type": "Point", "coordinates": [ 9.695900880243773, 48.443745288647698 ] } },
{ "type": "Feature", "properties": { "station": "040", "ost": 551468.402, "nord": 5365849.511, "hoehe": 751.283, "s_lage": 0.031, "s_hoehe": 0.064, "zeit": "09.06.2026 18:20:57", "ost_etrs89": 551469.34, "nord_etrs89": 5365850.352, "hoehe_etrs89": 751.26, "delta_ost_m": 0.938, "delta_nord_m": 0.841 }, "geometry": { "type": "Point", "coordinates": [ 9.695969735523999, 48.443689912207574 ] } },
{ "type": "Feature", "properties": { "station": "048", "ost": 551474.96, "nord": 5365842.044, "hoehe": 750.971, "s_lage": 0.021, "s_hoehe": 0.026, "zeit": "09.06.2026 18:21:45", "ost_etrs89": 551475.898, "nord_etrs89": 5365842.885, "hoehe_etrs89": 750.948, "delta_ost_m": 0.938, "delta_nord_m": 0.841 }, "geometry": { "type": "Point", "coordinates": [ 9.696057488297736, 48.443622204083823 ] } },
{ "type": "Feature", "properties": { "station": "056", "ost": 551478.853, "nord": 5365837.585, "hoehe": 750.451, "s_lage": 0.026, "s_hoehe": 0.043, "zeit": "09.06.2026 18:22:45", "ost_etrs89": 551479.791, "nord_etrs89": 5365838.426, "hoehe_etrs89": 750.428, "delta_ost_m": 0.938, "delta_nord_m": 0.841 }, "geometry": { "type": "Point", "coordinates": [ 9.696109577280206, 48.443581773307876 ] } },
{ "type": "Feature", "properties": { "station": "064", "ost": 551484.018, "nord": 5365831.514, "hoehe": 750.339, "s_lage": 0.042, "s_hoehe": 0.108, "zeit": "09.06.2026 18:24:35", "ost_etrs89": 551484.956, "nord_etrs89": 5365832.355, "hoehe_etrs89": 750.316, "delta_ost_m": 0.938, "delta_nord_m": 0.841 }, "geometry": { "type": "Point", "coordinates": [ 9.696178666640966, 48.443526737194262 ] } },
{ "type": "Feature", "properties": { "station": "072", "ost": 551489.142, "nord": 5365825.404, "hoehe": 749.965, "s_lage": 0.025, "s_hoehe": 0.038, "zeit": "09.06.2026 18:25:29", "ost_etrs89": 551490.08, "nord_etrs89": 5365826.245, "hoehe_etrs89": 749.942, "delta_ost_m": 0.938, "delta_nord_m": 0.841 }, "geometry": { "type": "Point", "coordinates": [ 9.696247196699316, 48.443471353556163 ] } },
{ "type": "Feature", "properties": { "station": "080", "ost": 551494.182, "nord": 5365819.199, "hoehe": 749.671, "s_lage": 0.026, "s_hoehe": 0.041, "zeit": "09.06.2026 18:27:15", "ost_etrs89": 551495.12, "nord_etrs89": 5365820.04, "hoehe_etrs89": 749.648, "delta_ost_m": 0.938, "delta_nord_m": 0.841 }, "geometry": { "type": "Point", "coordinates": [ 9.6963145791703, 48.443415122146369 ] } },
{ "type": "Feature", "properties": { "station": "088", "ost": 551499.114, "nord": 5365812.979, "hoehe": 749.396, "s_lage": 0.017, "s_hoehe": 0.026, "zeit": "09.06.2026 18:30:31", "ost_etrs89": 551500.052, "nord_etrs89": 5365813.82, "hoehe_etrs89": 749.373, "delta_ost_m": 0.938, "delta_nord_m": 0.841 }, "geometry": { "type": "Point", "coordinates": [ 9.696380499391079, 48.443358764596567 ] } },
{ "type": "Feature", "properties": { "station": "096", "ost": 551504.155, "nord": 5365806.862, "hoehe": 749.153, "s_lage": 0.015, "s_hoehe": 0.027, "zeit": "09.06.2026 18:31:17", "ost_etrs89": 551505.093, "nord_etrs89": 5365807.703, "hoehe_etrs89": 749.13, "delta_ost_m": 0.938, "delta_nord_m": 0.841 }, "geometry": { "type": "Point", "coordinates": [ 9.696447905910437, 48.443303324659787 ] } },
{ "type": "Feature", "properties": { "station": "104", "ost": 551509.4, "nord": 5365800.713, "hoehe": 749.147, "s_lage": 0.017, "s_hoehe": 0.025, "zeit": "09.06.2026 18:31:48", "ost_etrs89": 551510.338, "nord_etrs89": 5365801.554, "hoehe_etrs89": 749.124, "delta_ost_m": 0.938, "delta_nord_m": 0.841 }, "geometry": { "type": "Point", "coordinates": [ 9.696518066604403, 48.443247580122673 ] } },
{ "type": "Feature", "properties": { "station": "112", "ost": 551514.417, "nord": 5365794.614, "hoehe": 748.673, "s_lage": 0.022, "s_hoehe": 0.026, "zeit": "09.06.2026 18:33:35", "ost_etrs89": 551515.355, "nord_etrs89": 5365795.455, "hoehe_etrs89": 748.65, "delta_ost_m": 0.938, "delta_nord_m": 0.841 }, "geometry": { "type": "Point", "coordinates": [ 9.696585150541104, 48.44319230399477 ] } },
{ "type": "Feature", "properties": { "station": "120", "ost": 551519.483, "nord": 5365788.437, "hoehe": 748.323, "s_lage": 0.015, "s_hoehe": 0.026, "zeit": "09.06.2026 18:34:06", "ost_etrs89": 551520.421, "nord_etrs89": 5365789.278, "hoehe_etrs89": 748.3, "delta_ost_m": 0.938, "delta_nord_m": 0.841 }, "geometry": { "type": "Point", "coordinates": [ 9.696652887257585, 48.443136322142848 ] } },
{ "type": "Feature", "properties": { "station": "128", "ost": 551524.792, "nord": 5365782.513, "hoehe": 748.131, "s_lage": 0.015, "s_hoehe": 0.02, "zeit": "09.06.2026 18:34:38", "ost_etrs89": 551525.73, "nord_etrs89": 5365783.354, "hoehe_etrs89": 748.108, "delta_ost_m": 0.938, "delta_nord_m": 0.841 }, "geometry": { "type": "Point", "coordinates": [ 9.696723940513936, 48.443082596302759 ] } },
{ "type": "Feature", "properties": { "station": "136", "ost": 551529.857, "nord": 5365776.433, "hoehe": 747.726, "s_lage": 0.018, "s_hoehe": 0.024, "zeit": "09.06.2026 18:35:09", "ost_etrs89": 551530.795, "nord_etrs89": 5365777.274, "hoehe_etrs89": 747.703, "delta_ost_m": 0.938, "delta_nord_m": 0.841 }, "geometry": { "type": "Point", "coordinates": [ 9.696791675347374, 48.443027487046336 ] } },
{ "type": "Feature", "properties": { "station": "142", "ost": 551533.909, "nord": 5365771.839, "hoehe": 747.619, "s_lage": 0.015, "s_hoehe": 0.025, "zeit": "09.06.2026 18:35:37", "ost_etrs89": 551534.847, "nord_etrs89": 5365772.68, "hoehe_etrs89": 747.596, "delta_ost_m": 0.938, "delta_nord_m": 0.841 }, "geometry": { "type": "Point", "coordinates": [ 9.696845896334525, 48.442985828485213 ] } }
]
}
