{
"type": "FeatureCollection",
"name": "Heroldstatt_WEA3_5",
"crs": { "type": "name", "properties": { "name": "urn:ogc:def:crs:OGC:1.3:CRS84" } },
"features": [
{ "type": "Feature", "properties": { "fid": 1, "station": "0", "ost": 551450.643, "nord": 5365886.715, "hoehe": 753.969, "s_lage": 0.018, "s_hoehe": 0.028, "zeit": "10.06.2026 12:16:58", "ost_etrs89": 551451.581, "nord_etrs89": 5365887.556, "hoehe_etrs89": 753.946, "delta_ost_m": 0.938, "delta_nord_m": 0.841 }, "geometry": { "type": "Point", "coordinates": [ 9.695734187387554, 48.444026044837905 ] } },
{ "type": "Feature", "properties": { "fid": 2, "station": "8", "ost": 551455.753, "nord": 5365880.485, "hoehe": 753.652, "s_lage": 0.02, "s_hoehe": 0.038, "zeit": "10.06.2026 12:17:45", "ost_etrs89": 551456.691, "nord_etrs89": 5365881.326, "hoehe_etrs89": 753.629, "delta_ost_m": 0.938, "delta_nord_m": 0.841 }, "geometry": { "type": "Point", "coordinates": [ 9.695802514557634, 48.443969583109372 ] } },
{ "type": "Feature", "properties": { "fid": 3, "station": "16", "ost": 551460.84, "nord": 5365874.424, "hoehe": 753.227, "s_lage": 0.039, "s_hoehe": 0.048, "zeit": "10.06.2026 12:18:32", "ost_etrs89": 551461.778, "nord_etrs89": 5365875.265, "hoehe_etrs89": 753.204, "delta_ost_m": 0.938, "delta_nord_m": 0.841 }, "geometry": { "type": "Point", "coordinates": [ 9.695870551360848, 48.443914643515335 ] } },
{ "type": "Feature", "properties": { "fid": 4, "station": "24", "ost": 551466.001, "nord": 5365868.316, "hoehe": 752.655, "s_lage": 0.031, "s_hoehe": 0.045, "zeit": "10.06.2026 12:19:14", "ost_etrs89": 551466.939, "nord_etrs89": 5365869.157, "hoehe_etrs89": 752.632, "delta_ost_m": 0.938, "delta_nord_m": 0.841 }, "geometry": { "type": "Point", "coordinates": [ 9.695939582797505, 48.443859275026568 ] } },
{ "type": "Feature", "properties": { "fid": 5, "station": "32", "ost": 551471.199, "nord": 5365862.227, "hoehe": 752.103, "s_lage": 0.027, "s_hoehe": 0.043, "zeit": "10.06.2026 12:19:55", "ost_etrs89": 551472.137, "nord_etrs89": 5365863.068, "hoehe_etrs89": 752.08, "delta_ost_m": 0.938, "delta_nord_m": 0.841 }, "geometry": { "type": "Point", "coordinates": [ 9.69600911669731, 48.44380407439148 ] } },
{ "type": "Feature", "properties": { "fid": 6, "station": "40", "ost": 551476.264, "nord": 5365856.103, "hoehe": 752.011, "s_lage": 0.017, "s_hoehe": 0.034, "zeit": "10.06.2026 12:20:34", "ost_etrs89": 551477.202, "nord_etrs89": 5365856.944, "hoehe_etrs89": 751.988, "delta_ost_m": 0.938, "delta_nord_m": 0.841 }, "geometry": { "type": "Point", "coordinates": [ 9.696076847850842, 48.443748569738162 ] } },
{ "type": "Feature", "properties": { "fid": 7, "station": "48", "ost": 551481.153, "nord": 5365849.819, "hoehe": 751.645, "s_lage": 0.02, "s_hoehe": 0.033, "zeit": "10.06.2026 12:21:38", "ost_etrs89": 551482.091, "nord_etrs89": 5365850.66, "hoehe_etrs89": 751.622, "delta_ost_m": 0.938, "delta_nord_m": 0.841 }, "geometry": { "type": "Point", "coordinates": [ 9.696142179493206, 48.44369164010881 ] } },
{ "type": "Feature", "properties": { "fid": 8, "station": "56", "ost": 551486.375, "nord": 5365843.74, "hoehe": 751.091, "s_lage": 0.024, "s_hoehe": 0.034, "zeit": "10.06.2026 12:22:21", "ost_etrs89": 551487.313, "nord_etrs89": 5365844.581, "hoehe_etrs89": 751.068, "delta_ost_m": 0.938, "delta_nord_m": 0.841 }, "geometry": { "type": "Point", "coordinates": [ 9.696212038678103, 48.443636527346847 ] } },
{ "type": "Feature", "properties": { "fid": 9, "station": "64", "ost": 551491.542, "nord": 5365837.564, "hoehe": 750.81, "s_lage": 0.02, "s_hoehe": 0.029, "zeit": "10.06.2026 12:23:14", "ost_etrs89": 551492.48, "nord_etrs89": 5365838.405, "hoehe_etrs89": 750.787, "delta_ost_m": 0.938, "delta_nord_m": 0.841 }, "geometry": { "type": "Point", "coordinates": [ 9.69628114213211, 48.443580546447194 ] } },
{ "type": "Feature", "properties": { "fid": 10, "station": "72", "ost": 551496.791, "nord": 5365831.771, "hoehe": 750.195, "s_lage": 0.016, "s_hoehe": 0.025, "zeit": "10.06.2026 12:26:24", "ost_etrs89": 551497.729, "nord_etrs89": 5365832.612, "hoehe_etrs89": 750.172, "delta_ost_m": 0.938, "delta_nord_m": 0.841 }, "geometry": { "type": "Point", "coordinates": [ 9.69635140125054, 48.443528004198008 ] } },
{ "type": "Feature", "properties": { "fid": 11, "station": "80", "ost": 551501.946, "nord": 5365825.638, "hoehe": 750.148, "s_lage": 0.017, "s_hoehe": 0.029, "zeit": "10.06.2026 12:28:19", "ost_etrs89": 551502.884, "nord_etrs89": 5365826.479, "hoehe_etrs89": 750.125, "delta_ost_m": 0.938, "delta_nord_m": 0.841 }, "geometry": { "type": "Point", "coordinates": [ 9.69642034744178, 48.443472411017403 ] } },
{ "type": "Feature", "properties": { "fid": 12, "station": "88", "ost": 551507.081, "nord": 5365819.438, "hoehe": 749.81, "s_lage": 0.016, "s_hoehe": 0.033, "zeit": "10.06.2026 12:29:17", "ost_etrs89": 551508.019, "nord_etrs89": 5365820.279, "hoehe_etrs89": 749.787, "delta_ost_m": 0.938, "delta_nord_m": 0.841 }, "geometry": { "type": "Point", "coordinates": [ 9.696489014823657, 48.443416216712116 ] } },
{ "type": "Feature", "properties": { "fid": 13, "station": "96", "ost": 551512.194, "nord": 5365813.33, "hoehe": 749.536, "s_lage": 0.017, "s_hoehe": 0.028, "zeit": "10.06.2026 12:30:36", "ost_etrs89": 551513.132, "nord_etrs89": 5365814.171, "hoehe_etrs89": 749.513, "delta_ost_m": 0.938, "delta_nord_m": 0.841 }, "geometry": { "type": "Point", "coordinates": [ 9.696557395911338, 48.443360851782366 ] } },
{ "type": "Feature", "properties": { "fid": 14, "station": "104", "ost": 551517.184, "nord": 5365807.064, "hoehe": 749.198, "s_lage": 0.043, "s_hoehe": 0.073, "zeit": "10.06.2026 12:38:31", "ost_etrs89": 551518.122, "nord_etrs89": 5365807.905, "hoehe_etrs89": 749.175, "delta_ost_m": 0.938, "delta_nord_m": 0.841 }, "geometry": { "type": "Point", "coordinates": [ 9.696624094344662, 48.443304075539373 ] } },
{ "type": "Feature", "properties": { "fid": 15, "station": "128", "ost": 551532.794, "nord": 5365788.77, "hoehe": 748.484, "s_lage": 0.022, "s_hoehe": 0.046, "zeit": "10.06.2026 12:45:00", "ost_etrs89": 551533.732, "nord_etrs89": 5365789.611, "hoehe_etrs89": 748.461, "delta_ost_m": 0.938, "delta_nord_m": 0.841 }, "geometry": { "type": "Point", "coordinates": [ 9.696832904110591, 48.443138228076094 ] } },
{ "type": "Feature", "properties": { "fid": 16, "station": "136", "ost": 551537.881, "nord": 5365782.687, "hoehe": 748.175, "s_lage": 0.017, "s_hoehe": 0.024, "zeit": "10.06.2026 12:45:36", "ost_etrs89": 551538.819, "nord_etrs89": 5365783.528, "hoehe_etrs89": 748.152, "delta_ost_m": 0.938, "delta_nord_m": 0.841 }, "geometry": { "type": "Point", "coordinates": [ 9.696900935987692, 48.443083089967416 ] } },
{ "type": "Feature", "properties": { "fid": 17, "station": "142", "ost": 551541.764, "nord": 5365778.034, "hoehe": 748.037, "s_lage": 0.017, "s_hoehe": 0.024, "zeit": "10.06.2026 12:46:14", "ost_etrs89": 551542.702, "nord_etrs89": 5365778.875, "hoehe_etrs89": 748.014, "delta_ost_m": 0.938, "delta_nord_m": 0.841 }, "geometry": { "type": "Point", "coordinates": [ 9.696952864664764, 48.443040914440729 ] } }
]
}
