{
"type": "FeatureCollection",
"name": "WEA1_3_korrigiert",
"crs": { "type": "name", "properties": { "name": "urn:ogc:def:crs:OGC:1.3:CRS84" } },
"features": [
{ "type": "Feature", "properties": { "station": 0, "ost": 551010.324, "nord": 5366948.889, "hoehe": 748.567, "s_lage": 0.0, "s_hoehe": 0.0, "zeit": "06.06.2026 12:00:00", "ost_etrs89": 551011.262, "nord_etrs89": 5366949.729, "hoehe_etrs89": 748.544, "delta_ost_m": 0.938, "delta_nord_m": 0.84 }, "geometry": { "type": "Point", "coordinates": [ 9.689910017207618, 48.453617011100675 ] } },
{ "type": "Feature", "properties": { "station": 8, "ost": 551011.514, "nord": 5366941.011, "hoehe": 748.592, "s_lage": 0.0, "s_hoehe": 0.0, "zeit": "06.06.2026 12:00:00", "ost_etrs89": 551012.452, "nord_etrs89": 5366941.851, "hoehe_etrs89": 748.569, "delta_ost_m": 0.938, "delta_nord_m": 0.84 }, "geometry": { "type": "Point", "coordinates": [ 9.689925150155124, 48.453546045545316 ] } },
{ "type": "Feature", "properties": { "station": 16, "ost": 551012.926, "nord": 5366933.039, "hoehe": 748.327, "s_lage": 0.0, "s_hoehe": 0.0, "zeit": "06.06.2026 12:00:00", "ost_etrs89": 551013.864, "nord_etrs89": 5366933.879, "hoehe_etrs89": 748.304, "delta_ost_m": 0.938, "delta_nord_m": 0.84 }, "geometry": { "type": "Point", "coordinates": [ 9.689943273844086, 48.45347421638111 ] } },
{ "type": "Feature", "properties": { "station": 24, "ost": 551013.945, "nord": 5366925.18, "hoehe": 747.898, "s_lage": 0.0, "s_hoehe": 0.0, "zeit": "06.06.2026 12:00:00", "ost_etrs89": 551014.883, "nord_etrs89": 5366926.02, "hoehe_etrs89": 747.875, "delta_ost_m": 0.938, "delta_nord_m": 0.84 }, "geometry": { "type": "Point", "coordinates": [ 9.689956096487981, 48.453403435605047 ] } },
{ "type": "Feature", "properties": { "station": 32, "ost": 551015.435, "nord": 5366917.329, "hoehe": 747.647, "s_lage": 0.0, "s_hoehe": 0.0, "zeit": "06.06.2026 12:00:00", "ost_etrs89": 551016.373, "nord_etrs89": 5366918.169, "hoehe_etrs89": 747.624, "delta_ost_m": 0.938, "delta_nord_m": 0.84 }, "geometry": { "type": "Point", "coordinates": [ 9.689975289671265, 48.453332688604732 ] } },
{ "type": "Feature", "properties": { "station": 40, "ost": 551017.044, "nord": 5366909.508, "hoehe": 746.972, "s_lage": 0.0, "s_hoehe": 0.0, "zeit": "06.06.2026 12:00:00", "ost_etrs89": 551017.982, "nord_etrs89": 5366910.348, "hoehe_etrs89": 746.949, "delta_ost_m": 0.938, "delta_nord_m": 0.84 }, "geometry": { "type": "Point", "coordinates": [ 9.689996095760948, 48.453262201826419 ] } },
{ "type": "Feature", "properties": { "station": 48, "ost": 551018.525, "nord": 5366901.696, "hoehe": 746.172, "s_lage": 0.0, "s_hoehe": 0.0, "zeit": "06.06.2026 12:00:00", "ost_etrs89": 551019.463, "nord_etrs89": 5366902.536, "hoehe_etrs89": 746.149, "delta_ost_m": 0.938, "delta_nord_m": 0.84 }, "geometry": { "type": "Point", "coordinates": [ 9.690015171879645, 48.453191806385036 ] } },
{ "type": "Feature", "properties": { "station": 56, "ost": 551019.916, "nord": 5366893.884, "hoehe": 745.469, "s_lage": 0.0, "s_hoehe": 0.0, "zeit": "06.06.2026 12:00:00", "ost_etrs89": 551020.854, "nord_etrs89": 5366894.724, "hoehe_etrs89": 745.446, "delta_ost_m": 0.938, "delta_nord_m": 0.84 }, "geometry": { "type": "Point", "coordinates": [ 9.690033030830863, 48.453121418237679 ] } },
{ "type": "Feature", "properties": { "station": 64, "ost": 551021.269, "nord": 5366886.066, "hoehe": 744.836, "s_lage": 0.0, "s_hoehe": 0.0, "zeit": "06.06.2026 12:00:00", "ost_etrs89": 551022.207, "nord_etrs89": 5366886.906, "hoehe_etrs89": 744.813, "delta_ost_m": 0.938, "delta_nord_m": 0.84 }, "geometry": { "type": "Point", "coordinates": [ 9.690050375109706, 48.453050979193399 ] } },
{ "type": "Feature", "properties": { "station": 72, "ost": 551022.641, "nord": 5366878.137, "hoehe": 744.382, "s_lage": 0.0, "s_hoehe": 0.0, "zeit": "06.06.2026 12:00:00", "ost_etrs89": 551023.579, "nord_etrs89": 5366878.977, "hoehe_etrs89": 744.359, "delta_ost_m": 0.938, "delta_nord_m": 0.84 }, "geometry": { "type": "Point", "coordinates": [ 9.690067962756144, 48.452979540068924 ] } },
{ "type": "Feature", "properties": { "station": 80, "ost": 551024.036, "nord": 5366870.372, "hoehe": 743.984, "s_lage": 0.0, "s_hoehe": 0.0, "zeit": "06.06.2026 12:00:00", "ost_etrs89": 551024.974, "nord_etrs89": 5366871.212, "hoehe_etrs89": 743.961, "delta_ost_m": 0.938, "delta_nord_m": 0.84 }, "geometry": { "type": "Point", "coordinates": [ 9.690085881386432, 48.452909574390752 ] } },
{ "type": "Feature", "properties": { "station": 88, "ost": 551025.399, "nord": 5366862.365, "hoehe": 743.616, "s_lage": 0.0, "s_hoehe": 0.0, "zeit": "06.06.2026 12:00:00", "ost_etrs89": 551026.337, "nord_etrs89": 5366863.205, "hoehe_etrs89": 743.593, "delta_ost_m": 0.938, "delta_nord_m": 0.84 }, "geometry": { "type": "Point", "coordinates": [ 9.690103337716408, 48.452837434315335 ] } },
{ "type": "Feature", "properties": { "station": 96, "ost": 551026.96, "nord": 5366854.593, "hoehe": 743.218, "s_lage": 0.0, "s_hoehe": 0.0, "zeit": "06.06.2026 12:00:00", "ost_etrs89": 551027.898, "nord_etrs89": 5366855.433, "hoehe_etrs89": 743.195, "delta_ost_m": 0.938, "delta_nord_m": 0.84 }, "geometry": { "type": "Point", "coordinates": [ 9.690123500283445, 48.452767392197536 ] } },
{ "type": "Feature", "properties": { "station": 104, "ost": 551028.386, "nord": 5366846.647, "hoehe": 742.798, "s_lage": 0.0, "s_hoehe": 0.0, "zeit": "06.06.2026 12:00:00", "ost_etrs89": 551029.324, "nord_etrs89": 5366847.487, "hoehe_etrs89": 742.775, "delta_ost_m": 0.938, "delta_nord_m": 0.84 }, "geometry": { "type": "Point", "coordinates": [ 9.69014181592423, 48.452695795750998 ] } },
{ "type": "Feature", "properties": { "station": 112, "ost": 551029.954, "nord": 5366838.955, "hoehe": 742.51, "s_lage": 0.0, "s_hoehe": 0.0, "zeit": "06.06.2026 12:00:00", "ost_etrs89": 551030.892, "nord_etrs89": 5366839.795, "hoehe_etrs89": 742.487, "delta_ost_m": 0.938, "delta_nord_m": 0.84 }, "geometry": { "type": "Point", "coordinates": [ 9.690162082801455, 48.452626472723317 ] } },
{ "type": "Feature", "properties": { "station": 120, "ost": 551031.176, "nord": 5366830.955, "hoehe": 742.025, "s_lage": 0.0, "s_hoehe": 0.0, "zeit": "06.06.2026 12:00:00", "ost_etrs89": 551032.114, "nord_etrs89": 5366831.795, "hoehe_etrs89": 742.002, "delta_ost_m": 0.938, "delta_nord_m": 0.84 }, "geometry": { "type": "Point", "coordinates": [ 9.69017763299067, 48.452554407040076 ] } },
{ "type": "Feature", "properties": { "station": 128, "ost": 551032.624, "nord": 5366823.085, "hoehe": 741.512, "s_lage": 0.0, "s_hoehe": 0.0, "zeit": "06.06.2026 12:00:00", "ost_etrs89": 551033.562, "nord_etrs89": 5366823.925, "hoehe_etrs89": 741.489, "delta_ost_m": 0.938, "delta_nord_m": 0.84 }, "geometry": { "type": "Point", "coordinates": [ 9.690196255261574, 48.452483492481178 ] } },
{ "type": "Feature", "properties": { "station": 136, "ost": 551033.893, "nord": 5366815.17, "hoehe": 741.357, "s_lage": 0.0, "s_hoehe": 0.0, "zeit": "06.06.2026 12:00:00", "ost_etrs89": 551034.831, "nord_etrs89": 5366816.01, "hoehe_etrs89": 741.334, "delta_ost_m": 0.938, "delta_nord_m": 0.84 }, "geometry": { "type": "Point", "coordinates": [ 9.69021245132071, 48.452412187624837 ] } },
{ "type": "Feature", "properties": { "station": 142, "ost": 551034.743, "nord": 5366809.273, "hoehe": 740.799, "s_lage": 0.0, "s_hoehe": 0.0, "zeit": "06.06.2026 12:00:00", "ost_etrs89": 551035.681, "nord_etrs89": 5366810.113, "hoehe_etrs89": 740.776, "delta_ost_m": 0.938, "delta_nord_m": 0.84 }, "geometry": { "type": "Point", "coordinates": [ 9.690223227125394, 48.452359070319446 ] } }
]
}
