{
"type": "FeatureCollection",
"name": "WEA1_5_korrigiert",
"crs": { "type": "name", "properties": { "name": "urn:ogc:def:crs:OGC:1.3:CRS84" } },
"features": [
{ "type": "Feature", "properties": { "station": 0, "ost": 551019.99, "nord": 5366950.698, "hoehe": 749.307, "s_lage": 0.0, "s_hoehe": 0.0, "zeit": "06.06.2026 12:00:00", "ost_etrs89": 551020.928, "nord_etrs89": 5366951.538, "hoehe_etrs89": 749.284, "delta_ost_m": 0.938, "delta_nord_m": 0.84 }, "geometry": { "type": "Point", "coordinates": [ 9.690040957232283, 48.453632500813839 ] } },
{ "type": "Feature", "properties": { "station": 8, "ost": 551021.001, "nord": 5366942.787, "hoehe": 749.156, "s_lage": 0.0, "s_hoehe": 0.0, "zeit": "06.06.2026 12:00:00", "ost_etrs89": 551021.939, "nord_etrs89": 5366943.627, "hoehe_etrs89": 749.133, "delta_ost_m": 0.938, "delta_nord_m": 0.84 }, "geometry": { "type": "Point", "coordinates": [ 9.690053665249767, 48.453561252895334 ] } },
{ "type": "Feature", "properties": { "station": 16, "ost": 551022.658, "nord": 5366935.031, "hoehe": 749.059, "s_lage": 0.0, "s_hoehe": 0.0, "zeit": "06.06.2026 12:00:00", "ost_etrs89": 551023.596, "nord_etrs89": 5366935.871, "hoehe_etrs89": 749.036, "delta_ost_m": 0.938, "delta_nord_m": 0.84 }, "geometry": { "type": "Point", "coordinates": [ 9.690075128377929, 48.45349134694164 ] } },
{ "type": "Feature", "properties": { "station": 24, "ost": 551024.08, "nord": 5366927.06, "hoehe": 748.703, "s_lage": 0.0, "s_hoehe": 0.0, "zeit": "06.06.2026 12:00:00", "ost_etrs89": 551025.018, "nord_etrs89": 5366927.9, "hoehe_etrs89": 748.68, "delta_ost_m": 0.938, "delta_nord_m": 0.84 }, "geometry": { "type": "Point", "coordinates": [ 9.690093387194221, 48.453419525939104 ] } },
{ "type": "Feature", "properties": { "station": 32, "ost": 551025.523, "nord": 5366919.28, "hoehe": 748.485, "s_lage": 0.0, "s_hoehe": 0.0, "zeit": "06.06.2026 12:00:00", "ost_etrs89": 551026.461, "nord_etrs89": 5366920.12, "hoehe_etrs89": 748.462, "delta_ost_m": 0.938, "delta_nord_m": 0.84 }, "geometry": { "type": "Point", "coordinates": [ 9.690111953240498, 48.453349421431788 ] } },
{ "type": "Feature", "properties": { "station": 40, "ost": 551027.006, "nord": 5366911.409, "hoehe": 747.773, "s_lage": 0.0, "s_hoehe": 0.0, "zeit": "06.06.2026 12:00:00", "ost_etrs89": 551027.944, "nord_etrs89": 5366912.249, "hoehe_etrs89": 747.75, "delta_ost_m": 0.938, "delta_nord_m": 0.84 }, "geometry": { "type": "Point", "coordinates": [ 9.690131049084224, 48.453278495057212 ] } },
{ "type": "Feature", "properties": { "station": 48, "ost": 551028.135, "nord": 5366903.531, "hoehe": 747.051, "s_lage": 0.0, "s_hoehe": 0.0, "zeit": "06.06.2026 12:00:00", "ost_etrs89": 551029.073, "nord_etrs89": 5366904.371, "hoehe_etrs89": 747.028, "delta_ost_m": 0.938, "delta_nord_m": 0.84 }, "geometry": { "type": "Point", "coordinates": [ 9.690145356692438, 48.453207534417665 ] } },
{ "type": "Feature", "properties": { "station": 56, "ost": 551029.454, "nord": 5366895.745, "hoehe": 746.224, "s_lage": 0.0, "s_hoehe": 0.0, "zeit": "06.06.2026 12:00:00", "ost_etrs89": 551030.392, "nord_etrs89": 5366896.585, "hoehe_etrs89": 746.201, "delta_ost_m": 0.938, "delta_nord_m": 0.84 }, "geometry": { "type": "Point", "coordinates": [ 9.690162244945867, 48.453137385981847 ] } },
{ "type": "Feature", "properties": { "station": 64, "ost": 551030.862, "nord": 5366887.918, "hoehe": 745.477, "s_lage": 0.0, "s_hoehe": 0.0, "zeit": "06.06.2026 12:00:00", "ost_etrs89": 551031.8, "nord_etrs89": 5366888.758, "hoehe_etrs89": 745.454, "delta_ost_m": 0.938, "delta_nord_m": 0.84 }, "geometry": { "type": "Point", "coordinates": [ 9.690180331745783, 48.453066861495998 ] } },
{ "type": "Feature", "properties": { "station": 72, "ost": 551032.286, "nord": 5366880.031, "hoehe": 745.075, "s_lage": 0.0, "s_hoehe": 0.0, "zeit": "06.06.2026 12:00:00", "ost_etrs89": 551033.224, "nord_etrs89": 5366880.871, "hoehe_etrs89": 745.052, "delta_ost_m": 0.938, "delta_nord_m": 0.84 }, "geometry": { "type": "Point", "coordinates": [ 9.690198627556555, 48.452995795959659 ] } },
{ "type": "Feature", "properties": { "station": 80, "ost": 551033.757, "nord": 5366872.216, "hoehe": 744.503, "s_lage": 0.0, "s_hoehe": 0.0, "zeit": "06.06.2026 12:00:00", "ost_etrs89": 551034.695, "nord_etrs89": 5366873.056, "hoehe_etrs89": 744.48, "delta_ost_m": 0.938, "delta_nord_m": 0.84 }, "geometry": { "type": "Point", "coordinates": [ 9.690217567698692, 48.452925374306858 ] } },
{ "type": "Feature", "properties": { "station": 88, "ost": 551035.325, "nord": 5366864.775, "hoehe": 744.947, "s_lage": 0.0, "s_hoehe": 0.0, "zeit": "06.06.2026 12:00:00", "ost_etrs89": 551036.263, "nord_etrs89": 5366865.615, "hoehe_etrs89": 744.924, "delta_ost_m": 0.938, "delta_nord_m": 0.84 }, "geometry": { "type": "Point", "coordinates": [ 9.690237865166068, 48.452858309219828 ] } },
{ "type": "Feature", "properties": { "station": 96, "ost": 551036.493, "nord": 5366856.503, "hoehe": 743.738, "s_lage": 0.0, "s_hoehe": 0.0, "zeit": "06.06.2026 12:00:00", "ost_etrs89": 551037.431, "nord_etrs89": 5366857.343, "hoehe_etrs89": 743.715, "delta_ost_m": 0.938, "delta_nord_m": 0.84 }, "geometry": { "type": "Point", "coordinates": [ 9.690252651883997, 48.452783801046024 ] } },
{ "type": "Feature", "properties": { "station": 104, "ost": 551037.799, "nord": 5366848.547, "hoehe": 743.428, "s_lage": 0.0, "s_hoehe": 0.0, "zeit": "06.06.2026 12:00:00", "ost_etrs89": 551038.737, "nord_etrs89": 5366849.387, "hoehe_etrs89": 743.405, "delta_ost_m": 0.938, "delta_nord_m": 0.84 }, "geometry": { "type": "Point", "coordinates": [ 9.690269343321376, 48.452712124355472 ] } },
{ "type": "Feature", "properties": { "station": 112, "ost": 551039.089, "nord": 5366840.735, "hoehe": 742.881, "s_lage": 0.0, "s_hoehe": 0.0, "zeit": "06.06.2026 12:00:00", "ost_etrs89": 551040.027, "nord_etrs89": 5366841.575, "hoehe_etrs89": 742.858, "delta_ost_m": 0.938, "delta_nord_m": 0.84 }, "geometry": { "type": "Point", "coordinates": [ 9.690285835898296, 48.452641744358019 ] } },
{ "type": "Feature", "properties": { "station": 120, "ost": 551040.54, "nord": 5366832.875, "hoehe": 742.579, "s_lage": 0.0, "s_hoehe": 0.0, "zeit": "06.06.2026 12:00:00", "ost_etrs89": 551041.478, "nord_etrs89": 5366833.715, "hoehe_etrs89": 742.556, "delta_ost_m": 0.938, "delta_nord_m": 0.84 }, "geometry": { "type": "Point", "coordinates": [ 9.690304499838497, 48.452570919498108 ] } },
{ "type": "Feature", "properties": { "station": 128, "ost": 551043.142, "nord": 5366824.796, "hoehe": 742.988, "s_lage": 0.0, "s_hoehe": 0.0, "zeit": "06.06.2026 12:00:00", "ost_etrs89": 551044.08, "nord_etrs89": 5366825.636, "hoehe_etrs89": 742.965, "delta_ost_m": 0.938, "delta_nord_m": 0.84 }, "geometry": { "type": "Point", "coordinates": [ 9.690338702387832, 48.45249803117914 ] } },
{ "type": "Feature", "properties": { "station": 136, "ost": 551043.582, "nord": 5366817.218, "hoehe": 741.724, "s_lage": 0.0, "s_hoehe": 0.0, "zeit": "06.06.2026 12:00:00", "ost_etrs89": 551044.52, "nord_etrs89": 5366818.058, "hoehe_etrs89": 741.701, "delta_ost_m": 0.938, "delta_nord_m": 0.84 }, "geometry": { "type": "Point", "coordinates": [ 9.690343728514399, 48.452429825146972 ] } },
{ "type": "Feature", "properties": { "station": 142, "ost": 551044.533, "nord": 5366811.333, "hoehe": 741.532, "s_lage": 0.0, "s_hoehe": 0.0, "zeit": "06.06.2026 12:00:00", "ost_etrs89": 551045.471, "nord_etrs89": 5366812.173, "hoehe_etrs89": 741.509, "delta_ost_m": 0.938, "delta_nord_m": 0.84 }, "geometry": { "type": "Point", "coordinates": [ 9.690355871503254, 48.45237680758644 ] } }
]
}
