{
"type": "FeatureCollection",
"name": "WEA1_2_korrigiert",
"crs": { "type": "name", "properties": { "name": "urn:ogc:def:crs:OGC:1.3:CRS84" } },
"features": [
{ "type": "Feature", "properties": { "station": 0, "ost": 551005.135, "nord": 5366948.209, "hoehe": 748.249, "s_lage": 0.0, "s_hoehe": 0.0, "zeit": "06.06.2026 12:00:00", "ost_etrs89": 551006.073, "nord_etrs89": 5366949.049, "hoehe_etrs89": 748.226, "delta_ost_m": 0.938, "delta_nord_m": 0.84 }, "geometry": { "type": "Point", "coordinates": [ 9.6898397601684, 48.453611314609027 ] } },
{ "type": "Feature", "properties": { "station": 8, "ost": 551006.61, "nord": 5366940.412, "hoehe": 748.164, "s_lage": 0.0, "s_hoehe": 0.0, "zeit": "06.06.2026 12:00:00", "ost_etrs89": 551007.548, "nord_etrs89": 5366941.252, "hoehe_etrs89": 748.141, "delta_ost_m": 0.938, "delta_nord_m": 0.84 }, "geometry": { "type": "Point", "coordinates": [ 9.689858757315458, 48.453541054619912 ] } },
{ "type": "Feature", "properties": { "station": 16, "ost": 551008.043, "nord": 5366932.509, "hoehe": 747.785, "s_lage": 0.0, "s_hoehe": 0.0, "zeit": "06.06.2026 12:00:00", "ost_etrs89": 551008.981, "nord_etrs89": 5366933.349, "hoehe_etrs89": 747.762, "delta_ost_m": 0.938, "delta_nord_m": 0.84 }, "geometry": { "type": "Point", "coordinates": [ 9.689877173501324, 48.453469844474874 ] } },
{ "type": "Feature", "properties": { "station": 24, "ost": 551009.393, "nord": 5366924.665, "hoehe": 747.571, "s_lage": 0.0, "s_hoehe": 0.0, "zeit": "06.06.2026 12:00:00", "ost_etrs89": 551010.331, "nord_etrs89": 5366925.505, "hoehe_etrs89": 747.548, "delta_ost_m": 0.938, "delta_nord_m": 0.84 }, "geometry": { "type": "Point", "coordinates": [ 9.689894474370039, 48.453399171808606 ] } },
{ "type": "Feature", "properties": { "station": 32, "ost": 551010.849, "nord": 5366916.762, "hoehe": 747.417, "s_lage": 0.0, "s_hoehe": 0.0, "zeit": "06.06.2026 12:00:00", "ost_etrs89": 551011.787, "nord_etrs89": 5366917.602, "hoehe_etrs89": 747.394, "delta_ost_m": 0.938, "delta_nord_m": 0.84 }, "geometry": { "type": "Point", "coordinates": [ 9.689913201498658, 48.453327959791906 ] } },
{ "type": "Feature", "properties": { "station": 40, "ost": 551012.195, "nord": 5366908.934, "hoehe": 746.523, "s_lage": 0.0, "s_hoehe": 0.0, "zeit": "06.06.2026 12:00:00", "ost_etrs89": 551013.133, "nord_etrs89": 5366909.774, "hoehe_etrs89": 746.5, "delta_ost_m": 0.938, "delta_nord_m": 0.84 }, "geometry": { "type": "Point", "coordinates": [ 9.689930450127129, 48.453257431376393 ] } },
{ "type": "Feature", "properties": { "station": 48, "ost": 551013.465, "nord": 5366901.059, "hoehe": 745.818, "s_lage": 0.0, "s_hoehe": 0.0, "zeit": "06.06.2026 12:00:00", "ost_etrs89": 551014.403, "nord_etrs89": 5366901.899, "hoehe_etrs89": 745.795, "delta_ost_m": 0.938, "delta_nord_m": 0.84 }, "geometry": { "type": "Point", "coordinates": [ 9.68994666519233, 48.4531864863159 ] } },
{ "type": "Feature", "properties": { "station": 56, "ost": 551014.859, "nord": 5366893.202, "hoehe": 745.387, "s_lage": 0.0, "s_hoehe": 0.0, "zeit": "06.06.2026 12:00:00", "ost_etrs89": 551015.797, "nord_etrs89": 5366894.042, "hoehe_etrs89": 745.364, "delta_ost_m": 0.938, "delta_nord_m": 0.84 }, "geometry": { "type": "Point", "coordinates": [ 9.68996455932219, 48.453115693123479 ] } },
{ "type": "Feature", "properties": { "station": 64, "ost": 551016.327, "nord": 5366885.361, "hoehe": 744.605, "s_lage": 0.0, "s_hoehe": 0.0, "zeit": "06.06.2026 12:00:00", "ost_etrs89": 551017.265, "nord_etrs89": 5366886.201, "hoehe_etrs89": 744.582, "delta_ost_m": 0.938, "delta_nord_m": 0.84 }, "geometry": { "type": "Point", "coordinates": [ 9.689983456091669, 48.453045037860797 ] } },
{ "type": "Feature", "properties": { "station": 72, "ost": 551017.592, "nord": 5366877.549, "hoehe": 744.112, "s_lage": 0.0, "s_hoehe": 0.0, "zeit": "06.06.2026 12:00:00", "ost_etrs89": 551018.53, "nord_etrs89": 5366878.389, "hoehe_etrs89": 744.089, "delta_ost_m": 0.938, "delta_nord_m": 0.84 }, "geometry": { "type": "Point", "coordinates": [ 9.68999961108033, 48.452974659933055 ] } },
{ "type": "Feature", "properties": { "station": 78, "ost": 551018.624, "nord": 5366871.613, "hoehe": 743.817, "s_lage": 0.0, "s_hoehe": 0.0, "zeit": "06.06.2026 12:00:00", "ost_etrs89": 551019.562, "nord_etrs89": 5366872.453, "hoehe_etrs89": 743.794, "delta_ost_m": 0.938, "delta_nord_m": 0.84 }, "geometry": { "type": "Point", "coordinates": [ 9.690012843734978, 48.452921177056801 ] } },
{ "type": "Feature", "properties": { "station": 88, "ost": 551020.306, "nord": 5366861.809, "hoehe": 743.391, "s_lage": 0.0, "s_hoehe": 0.0, "zeit": "06.06.2026 12:00:00", "ost_etrs89": 551021.244, "nord_etrs89": 5366862.649, "hoehe_etrs89": 743.368, "delta_ost_m": 0.938, "delta_nord_m": 0.84 }, "geometry": { "type": "Point", "coordinates": [ 9.690034395098058, 48.452832845633573 ] } },
{ "type": "Feature", "properties": { "station": 96, "ost": 551021.659, "nord": 5366853.893, "hoehe": 742.945, "s_lage": 0.0, "s_hoehe": 0.0, "zeit": "06.06.2026 12:00:00", "ost_etrs89": 551022.597, "nord_etrs89": 5366854.733, "hoehe_etrs89": 742.922, "delta_ost_m": 0.938, "delta_nord_m": 0.84 }, "geometry": { "type": "Point", "coordinates": [ 9.690051727334733, 48.452761524995466 ] } },
{ "type": "Feature", "properties": { "station": 104, "ost": 551022.995, "nord": 5366846.006, "hoehe": 742.517, "s_lage": 0.0, "s_hoehe": 0.0, "zeit": "06.06.2026 12:00:00", "ost_etrs89": 551023.933, "nord_etrs89": 5366846.846, "hoehe_etrs89": 742.494, "delta_ost_m": 0.938, "delta_nord_m": 0.84 }, "geometry": { "type": "Point", "coordinates": [ 9.6900688331614, 48.452690466611486 ] } },
{ "type": "Feature", "properties": { "station": 112, "ost": 551024.431, "nord": 5366838.239, "hoehe": 742.156, "s_lage": 0.0, "s_hoehe": 0.0, "zeit": "06.06.2026 12:00:00", "ost_etrs89": 551025.369, "nord_etrs89": 5366839.079, "hoehe_etrs89": 742.133, "delta_ost_m": 0.938, "delta_nord_m": 0.84 }, "geometry": { "type": "Point", "coordinates": [ 9.690087305907577, 48.452620479613707 ] } },
{ "type": "Feature", "properties": { "station": 116, "ost": 551025.192, "nord": 5366834.276, "hoehe": 741.976, "s_lage": 0.0, "s_hoehe": 0.0, "zeit": "06.06.2026 12:00:00", "ost_etrs89": 551026.13, "nord_etrs89": 5366835.116, "hoehe_etrs89": 741.953, "delta_ost_m": 0.938, "delta_nord_m": 0.84 }, "geometry": { "type": "Point", "coordinates": [ 9.690097114075058, 48.452584767458596 ] } },
{ "type": "Feature", "properties": { "station": 124, "ost": 551026.612, "nord": 5366826.524, "hoehe": 741.467, "s_lage": 0.0, "s_hoehe": 0.0, "zeit": "06.06.2026 12:00:00", "ost_etrs89": 551027.55, "nord_etrs89": 5366827.364, "hoehe_etrs89": 741.444, "delta_ost_m": 0.938, "delta_nord_m": 0.84 }, "geometry": { "type": "Point", "coordinates": [ 9.690115372200637, 48.45251491669022 ] } },
{ "type": "Feature", "properties": { "station": 130, "ost": 551027.592, "nord": 5366820.552, "hoehe": 741.228, "s_lage": 0.0, "s_hoehe": 0.0, "zeit": "06.06.2026 12:00:00", "ost_etrs89": 551028.53, "nord_etrs89": 5366821.392, "hoehe_etrs89": 741.205, "delta_ost_m": 0.938, "delta_nord_m": 0.84 }, "geometry": { "type": "Point", "coordinates": [ 9.690127897017089, 48.452461114164983 ] } },
{ "type": "Feature", "properties": { "station": 136, "ost": 551028.615, "nord": 5366814.716, "hoehe": 741.055, "s_lage": 0.0, "s_hoehe": 0.0, "zeit": "06.06.2026 12:00:00", "ost_etrs89": 551029.553, "nord_etrs89": 5366815.556, "hoehe_etrs89": 741.032, "delta_ost_m": 0.938, "delta_nord_m": 0.84 }, "geometry": { "type": "Point", "coordinates": [ 9.690141019890762, 48.452408531582599 ] } },
{ "type": "Feature", "properties": { "station": 142, "ost": 551029.735, "nord": 5366808.765, "hoehe": 740.734, "s_lage": 0.0, "s_hoehe": 0.0, "zeit": "06.06.2026 12:00:00", "ost_etrs89": 551030.673, "nord_etrs89": 5366809.605, "hoehe_etrs89": 740.711, "delta_ost_m": 0.938, "delta_nord_m": 0.84 }, "geometry": { "type": "Point", "coordinates": [ 9.690155440477984, 48.452354906612086 ] } }
]
}
