{
"type": "FeatureCollection",
"name": "WEA1_6_korrigiert",
"crs": { "type": "name", "properties": { "name": "urn:ogc:def:crs:OGC:1.3:CRS84" } },
"features": [
{ "type": "Feature", "properties": { "station": 0, "ost": 551022.581, "nord": 5366950.013, "hoehe": 754.597, "s_lage": 0.0, "s_hoehe": 0.0, "zeit": "06.06.2026 12:00:00", "ost_etrs89": 551023.519, "nord_etrs89": 5366950.853, "hoehe_etrs89": 754.574, "delta_ost_m": 0.938, "delta_nord_m": 0.84 }, "geometry": { "type": "Point", "coordinates": [ 9.69007591348624, 48.45362612857123 ] } },
{ "type": "Feature", "properties": { "station": 8, "ost": 551026.263, "nord": 5366943.734, "hoehe": 749.306, "s_lage": 0.0, "s_hoehe": 0.0, "zeit": "06.06.2026 12:00:00", "ost_etrs89": 551027.201, "nord_etrs89": 5366944.574, "hoehe_etrs89": 749.283, "delta_ost_m": 0.938, "delta_nord_m": 0.84 }, "geometry": { "type": "Point", "coordinates": [ 9.690124942018919, 48.453569345220558 ] } },
{ "type": "Feature", "properties": { "station": 16, "ost": 551027.703, "nord": 5366935.876, "hoehe": 749.279, "s_lage": 0.0, "s_hoehe": 0.0, "zeit": "06.06.2026 12:00:00", "ost_etrs89": 551028.641, "nord_etrs89": 5366936.716, "hoehe_etrs89": 749.256, "delta_ost_m": 0.938, "delta_nord_m": 0.84 }, "geometry": { "type": "Point", "coordinates": [ 9.690143457993546, 48.453498539279217 ] } },
{ "type": "Feature", "properties": { "station": 24, "ost": 551029.115, "nord": 5366927.973, "hoehe": 749.049, "s_lage": 0.0, "s_hoehe": 0.0, "zeit": "06.06.2026 12:00:00", "ost_etrs89": 551030.053, "nord_etrs89": 5366928.813, "hoehe_etrs89": 749.026, "delta_ost_m": 0.938, "delta_nord_m": 0.84 }, "geometry": { "type": "Point", "coordinates": [ 9.690161589770678, 48.453427330793204 ] } },
{ "type": "Feature", "properties": { "station": 32, "ost": 551030.571, "nord": 5366920.229, "hoehe": 748.853, "s_lage": 0.0, "s_hoehe": 0.0, "zeit": "06.06.2026 12:00:00", "ost_etrs89": 551031.509, "nord_etrs89": 5366921.069, "hoehe_etrs89": 748.83, "delta_ost_m": 0.938, "delta_nord_m": 0.84 }, "geometry": { "type": "Point", "coordinates": [ 9.690180335921415, 48.453357549070603 ] } },
{ "type": "Feature", "properties": { "station": 40, "ost": 551031.996, "nord": 5366912.446, "hoehe": 748.443, "s_lage": 0.0, "s_hoehe": 0.0, "zeit": "06.06.2026 12:00:00", "ost_etrs89": 551032.934, "nord_etrs89": 5366913.286, "hoehe_etrs89": 748.42, "delta_ost_m": 0.938, "delta_nord_m": 0.84 }, "geometry": { "type": "Point", "coordinates": [ 9.690198658036433, 48.453287419021642 ] } },
{ "type": "Feature", "properties": { "station": 48, "ost": 551033.05, "nord": 5366904.496, "hoehe": 747.255, "s_lage": 0.0, "s_hoehe": 0.0, "zeit": "06.06.2026 12:00:00", "ost_etrs89": 551033.988, "nord_etrs89": 5366905.336, "hoehe_etrs89": 747.232, "delta_ost_m": 0.938, "delta_nord_m": 0.84 }, "geometry": { "type": "Point", "coordinates": [ 9.69021194250873, 48.453215816758238 ] } },
{ "type": "Feature", "properties": { "station": 56, "ost": 551034.732, "nord": 5366896.576, "hoehe": 746.401, "s_lage": 0.0, "s_hoehe": 0.0, "zeit": "06.06.2026 12:00:00", "ost_etrs89": 551035.67, "nord_etrs89": 5366897.416, "hoehe_etrs89": 746.378, "delta_ost_m": 0.938, "delta_nord_m": 0.84 }, "geometry": { "type": "Point", "coordinates": [ 9.690233723369383, 48.45314443343014 ] } },
{ "type": "Feature", "properties": { "station": 64, "ost": 551035.985, "nord": 5366888.824, "hoehe": 745.927, "s_lage": 0.0, "s_hoehe": 0.0, "zeit": "06.06.2026 12:00:00", "ost_etrs89": 551036.923, "nord_etrs89": 5366889.664, "hoehe_etrs89": 745.904, "delta_ost_m": 0.938, "delta_nord_m": 0.84 }, "geometry": { "type": "Point", "coordinates": [ 9.690249723076114, 48.453074596192572 ] } },
{ "type": "Feature", "properties": { "station": 72, "ost": 551037.605, "nord": 5366880.958, "hoehe": 745.336, "s_lage": 0.0, "s_hoehe": 0.0, "zeit": "06.06.2026 12:00:00", "ost_etrs89": 551038.543, "nord_etrs89": 5366881.798, "hoehe_etrs89": 745.313, "delta_ost_m": 0.938, "delta_nord_m": 0.84 }, "geometry": { "type": "Point", "coordinates": [ 9.690270671954686, 48.453003703659583 ] } },
{ "type": "Feature", "properties": { "station": 80, "ost": 551038.884, "nord": 5366873.078, "hoehe": 744.864, "s_lage": 0.0, "s_hoehe": 0.0, "zeit": "06.06.2026 12:00:00", "ost_etrs89": 551039.822, "nord_etrs89": 5366873.918, "hoehe_etrs89": 744.841, "delta_ost_m": 0.938, "delta_nord_m": 0.84 }, "geometry": { "type": "Point", "coordinates": [ 9.690287007569758, 48.452932712841474 ] } },
{ "type": "Feature", "properties": { "station": 88, "ost": 551040.314, "nord": 5366865.332, "hoehe": 744.226, "s_lage": 0.0, "s_hoehe": 0.0, "zeit": "06.06.2026 12:00:00", "ost_etrs89": 551041.252, "nord_etrs89": 5366866.172, "hoehe_etrs89": 744.203, "delta_ost_m": 0.938, "delta_nord_m": 0.84 }, "geometry": { "type": "Point", "coordinates": [ 9.690305401520257, 48.452862915211568 ] } },
{ "type": "Feature", "properties": { "station": 96, "ost": 551041.703, "nord": 5366857.51, "hoehe": 743.992, "s_lage": 0.0, "s_hoehe": 0.0, "zeit": "06.06.2026 12:00:00", "ost_etrs89": 551042.641, "nord_etrs89": 5366858.35, "hoehe_etrs89": 743.969, "delta_ost_m": 0.938, "delta_nord_m": 0.84 }, "geometry": { "type": "Point", "coordinates": [ 9.690323231692998, 48.452792437221653 ] } },
{ "type": "Feature", "properties": { "station": 104, "ost": 551042.893, "nord": 5366849.774, "hoehe": 743.866, "s_lage": 0.0, "s_hoehe": 0.0, "zeit": "06.06.2026 12:00:00", "ost_etrs89": 551043.831, "nord_etrs89": 5366850.614, "hoehe_etrs89": 743.843, "delta_ost_m": 0.938, "delta_nord_m": 0.84 }, "geometry": { "type": "Point", "coordinates": [ 9.690338381148324, 48.452722749012338 ] } },
{ "type": "Feature", "properties": { "station": 110, "ost": 551044.154, "nord": 5366842.422, "hoehe": 743.398, "s_lage": 0.0, "s_hoehe": 0.0, "zeit": "06.06.2026 12:00:00", "ost_etrs89": 551045.092, "nord_etrs89": 5366843.262, "hoehe_etrs89": 743.375, "delta_ost_m": 0.938, "delta_nord_m": 0.84 }, "geometry": { "type": "Point", "coordinates": [ 9.690354537553526, 48.452656509436082 ] } },
{ "type": "Feature", "properties": { "station": 116, "ost": 551045.949, "nord": 5366836.048, "hoehe": 741.105, "s_lage": 0.0, "s_hoehe": 0.0, "zeit": "06.06.2026 12:00:00", "ost_etrs89": 551046.887, "nord_etrs89": 5366836.888, "hoehe_etrs89": 741.082, "delta_ost_m": 0.938, "delta_nord_m": 0.84 }, "geometry": { "type": "Point", "coordinates": [ 9.690378034669509, 48.452599024449071 ] } },
{ "type": "Feature", "properties": { "station": 128, "ost": 551047.382, "nord": 5366826.136, "hoehe": 742.821, "s_lage": 0.0, "s_hoehe": 0.0, "zeit": "06.06.2026 12:00:00", "ost_etrs89": 551048.32, "nord_etrs89": 5366826.976, "hoehe_etrs89": 742.798, "delta_ost_m": 0.938, "delta_nord_m": 0.84 }, "geometry": { "type": "Point", "coordinates": [ 9.690396204783395, 48.452509741608516 ] } },
{ "type": "Feature", "properties": { "station": 136, "ost": 551048.552, "nord": 5366818.158, "hoehe": 741.985, "s_lage": 0.0, "s_hoehe": 0.0, "zeit": "06.06.2026 12:00:00", "ost_etrs89": 551049.49, "nord_etrs89": 5366818.998, "hoehe_etrs89": 741.962, "delta_ost_m": 0.938, "delta_nord_m": 0.84 }, "geometry": { "type": "Point", "coordinates": [ 9.690411054077309, 48.452437878020802 ] } },
{ "type": "Feature", "properties": { "station": 142, "ost": 551049.434, "nord": 5366812.156, "hoehe": 741.768, "s_lage": 0.0, "s_hoehe": 0.0, "zeit": "06.06.2026 12:00:00", "ost_etrs89": 551050.372, "nord_etrs89": 5366812.996, "hoehe_etrs89": 741.745, "delta_ost_m": 0.938, "delta_nord_m": 0.84 }, "geometry": { "type": "Point", "coordinates": [ 9.690422249619498, 48.452383813540507 ] } }
]
}
