{
"type": "FeatureCollection",
"name": "WEA1_4_korrigiert",
"crs": { "type": "name", "properties": { "name": "urn:ogc:def:crs:OGC:1.3:CRS84" } },
"features": [
{ "type": "Feature", "properties": { "station": 0, "ost": 551015.05, "nord": 5366949.832, "hoehe": 748.85, "s_lage": 0.0, "s_hoehe": 0.0, "zeit": "06.06.2026 12:00:00", "ost_etrs89": 551015.988, "nord_etrs89": 5366950.672, "hoehe_etrs89": 748.827, "delta_ost_m": 0.938, "delta_nord_m": 0.84 }, "geometry": { "type": "Point", "coordinates": [ 9.689974044873267, 48.453625110990671 ] } },
{ "type": "Feature", "properties": { "station": 8, "ost": 551016.558, "nord": 5366941.994, "hoehe": 748.916, "s_lage": 0.0, "s_hoehe": 0.0, "zeit": "06.06.2026 12:00:00", "ost_etrs89": 551017.496, "nord_etrs89": 5366942.834, "hoehe_etrs89": 748.893, "delta_ost_m": 0.938, "delta_nord_m": 0.84 }, "geometry": { "type": "Point", "coordinates": [ 9.689993483121684, 48.453554479475997 ] } },
{ "type": "Feature", "properties": { "station": 16, "ost": 551017.898, "nord": 5366934.077, "hoehe": 749.619, "s_lage": 0.0, "s_hoehe": 0.0, "zeit": "06.06.2026 12:00:00", "ost_etrs89": 551018.836, "nord_etrs89": 5366934.917, "hoehe_etrs89": 749.596, "delta_ost_m": 0.938, "delta_nord_m": 0.84 }, "geometry": { "type": "Point", "coordinates": [ 9.690010639721812, 48.453483150909825 ] } },
{ "type": "Feature", "properties": { "station": 24, "ost": 551019.529, "nord": 5366926.313, "hoehe": 748.413, "s_lage": 0.0, "s_hoehe": 0.0, "zeit": "06.06.2026 12:00:00", "ost_etrs89": 551020.467, "nord_etrs89": 5366927.153, "hoehe_etrs89": 748.39, "delta_ost_m": 0.938, "delta_nord_m": 0.84 }, "geometry": { "type": "Point", "coordinates": [ 9.69003175028892, 48.453413175104771 ] } },
{ "type": "Feature", "properties": { "station": 32, "ost": 551021.177, "nord": 5366918.509, "hoehe": 748.184, "s_lage": 0.0, "s_hoehe": 0.0, "zeit": "06.06.2026 12:00:00", "ost_etrs89": 551022.115, "nord_etrs89": 5366919.349, "hoehe_etrs89": 748.161, "delta_ost_m": 0.938, "delta_nord_m": 0.84 }, "geometry": { "type": "Point", "coordinates": [ 9.690053085823505, 48.45334283808392 ] } },
{ "type": "Feature", "properties": { "station": 40, "ost": 551022.428, "nord": 5366910.653, "hoehe": 747.454, "s_lage": 0.0, "s_hoehe": 0.0, "zeit": "06.06.2026 12:00:00", "ost_etrs89": 551023.366, "nord_etrs89": 5366911.493, "hoehe_etrs89": 747.431, "delta_ost_m": 0.938, "delta_nord_m": 0.84 }, "geometry": { "type": "Point", "coordinates": [ 9.690069046112386, 48.453272065469193 ] } },
{ "type": "Feature", "properties": { "station": 48, "ost": 551023.818, "nord": 5366902.783, "hoehe": 746.676, "s_lage": 0.0, "s_hoehe": 0.0, "zeit": "06.06.2026 12:00:00", "ost_etrs89": 551024.756, "nord_etrs89": 5366903.623, "hoehe_etrs89": 746.653, "delta_ost_m": 0.938, "delta_nord_m": 0.84 }, "geometry": { "type": "Point", "coordinates": [ 9.690086884421779, 48.453201155638155 ] } },
{ "type": "Feature", "properties": { "station": 56, "ost": 551025.02, "nord": 5366894.896, "hoehe": 745.956, "s_lage": 0.0, "s_hoehe": 0.0, "zeit": "06.06.2026 12:00:00", "ost_etrs89": 551025.958, "nord_etrs89": 5366895.736, "hoehe_etrs89": 745.933, "delta_ost_m": 0.938, "delta_nord_m": 0.84 }, "geometry": { "type": "Point", "coordinates": [ 9.690102178190076, 48.453130108120646 ] } },
{ "type": "Feature", "properties": { "station": 64, "ost": 551026.338, "nord": 5366886.981, "hoehe": 745.2, "s_lage": 0.0, "s_hoehe": 0.0, "zeit": "06.06.2026 12:00:00", "ost_etrs89": 551027.276, "nord_etrs89": 5366887.821, "hoehe_etrs89": 745.177, "delta_ost_m": 0.938, "delta_nord_m": 0.84 }, "geometry": { "type": "Point", "coordinates": [ 9.690119037228158, 48.453058799310213 ] } },
{ "type": "Feature", "properties": { "station": 72, "ost": 551027.567, "nord": 5366879.306, "hoehe": 744.409, "s_lage": 0.0, "s_hoehe": 0.0, "zeit": "06.06.2026 12:00:00", "ost_etrs89": 551028.505, "nord_etrs89": 5366880.146, "hoehe_etrs89": 744.386, "delta_ost_m": 0.938, "delta_nord_m": 0.84 }, "geometry": { "type": "Point", "coordinates": [ 9.690134721890891, 48.452989656711559 ] } },
{ "type": "Feature", "properties": { "station": 80, "ost": 551028.801, "nord": 5366871.317, "hoehe": 744.308, "s_lage": 0.0, "s_hoehe": 0.0, "zeit": "06.06.2026 12:00:00", "ost_etrs89": 551029.739, "nord_etrs89": 5366872.157, "hoehe_etrs89": 744.285, "delta_ost_m": 0.938, "delta_nord_m": 0.84 }, "geometry": { "type": "Point", "coordinates": [ 9.690150435846835, 48.45291768901668 ] } },
{ "type": "Feature", "properties": { "station": 88, "ost": 551030.069, "nord": 5366863.479, "hoehe": 743.924, "s_lage": 0.0, "s_hoehe": 0.0, "zeit": "06.06.2026 12:00:00", "ost_etrs89": 551031.007, "nord_etrs89": 5366864.319, "hoehe_etrs89": 743.901, "delta_ost_m": 0.938, "delta_nord_m": 0.84 }, "geometry": { "type": "Point", "coordinates": [ 9.690166627966303, 48.452847076930574 ] } },
{ "type": "Feature", "properties": { "station": 96, "ost": 551031.493, "nord": 5366855.561, "hoehe": 743.363, "s_lage": 0.0, "s_hoehe": 0.0, "zeit": "06.06.2026 12:00:00", "ost_etrs89": 551032.431, "nord_etrs89": 5366856.401, "hoehe_etrs89": 743.34, "delta_ost_m": 0.938, "delta_nord_m": 0.84 }, "geometry": { "type": "Point", "coordinates": [ 9.690184919940885, 48.452775732523527 ] } },
{ "type": "Feature", "properties": { "station": 104, "ost": 551032.981, "nord": 5366847.726, "hoehe": 743.16, "s_lage": 0.0, "s_hoehe": 0.0, "zeit": "06.06.2026 12:00:00", "ost_etrs89": 551033.919, "nord_etrs89": 5366848.566, "hoehe_etrs89": 743.137, "delta_ost_m": 0.938, "delta_nord_m": 0.84 }, "geometry": { "type": "Point", "coordinates": [ 9.690204087482613, 48.452705129575349 ] } },
{ "type": "Feature", "properties": { "station": 112, "ost": 551034.414, "nord": 5366839.852, "hoehe": 742.631, "s_lage": 0.0, "s_hoehe": 0.0, "zeit": "06.06.2026 12:00:00", "ost_etrs89": 551035.352, "nord_etrs89": 5366840.692, "hoehe_etrs89": 742.608, "delta_ost_m": 0.938, "delta_nord_m": 0.84 }, "geometry": { "type": "Point", "coordinates": [ 9.690222506431111, 48.45263418024728 ] } },
{ "type": "Feature", "properties": { "station": 120, "ost": 551035.798, "nord": 5366831.978, "hoehe": 742.286, "s_lage": 0.0, "s_hoehe": 0.0, "zeit": "06.06.2026 12:00:00", "ost_etrs89": 551036.736, "nord_etrs89": 5366832.818, "hoehe_etrs89": 742.263, "delta_ost_m": 0.938, "delta_nord_m": 0.84 }, "geometry": { "type": "Point", "coordinates": [ 9.690240262684698, 48.452563234890043 ] } },
{ "type": "Feature", "properties": { "station": 128, "ost": 551037.369, "nord": 5366824.171, "hoehe": 741.844, "s_lage": 0.0, "s_hoehe": 0.0, "zeit": "06.06.2026 12:00:00", "ost_etrs89": 551038.307, "nord_etrs89": 5366825.011, "hoehe_etrs89": 741.821, "delta_ost_m": 0.938, "delta_nord_m": 0.84 }, "geometry": { "type": "Point", "coordinates": [ 9.690260555924244, 48.45249287708144 ] } },
{ "type": "Feature", "properties": { "station": 136, "ost": 551038.527, "nord": 5366816.245, "hoehe": 741.533, "s_lage": 0.0, "s_hoehe": 0.0, "zeit": "06.06.2026 12:00:00", "ost_etrs89": 551039.465, "nord_etrs89": 5366817.085, "hoehe_etrs89": 741.51, "delta_ost_m": 0.938, "delta_nord_m": 0.84 }, "geometry": { "type": "Point", "coordinates": [ 9.690275249466055, 48.452421482266239 ] } },
{ "type": "Feature", "properties": { "station": 142, "ost": 551039.57, "nord": 5366810.34, "hoehe": 741.244, "s_lage": 0.0, "s_hoehe": 0.0, "zeit": "06.06.2026 12:00:00", "ost_etrs89": 551040.508, "nord_etrs89": 5366811.18, "hoehe_etrs89": 741.221, "delta_ost_m": 0.938, "delta_nord_m": 0.84 }, "geometry": { "type": "Point", "coordinates": [ 9.690288634229869, 48.45236827733342 ] } }
]
}
