{
"type": "FeatureCollection",
"name": "WEA3_5_Strasse",
"crs": { "type": "name", "properties": { "name": "urn:ogc:def:crs:OGC:1.3:CRS84" } },
"features": [
{ "type": "Feature", "properties": { "fid": 1, "station": "112-str", "ost": 551522.5, "nord": 5365801.102, "hoehe": 749.236, "s_lage": 0.019, "s_hoehe": 0.034, "zeit": "10.06.2026 12:39:49", "ost_etrs89": 551523.438, "nord_etrs89": 5365801.943, "hoehe_etrs89": 749.213, "delta_ost_m": 0.938, "delta_nord_m": 0.841 }, "geometry": { "type": "Point", "coordinates": [ 9.696695237834483, 48.443250007303035 ] } },
{ "type": "Feature", "properties": { "fid": 2, "station": "112-stz", "ost": 551527.689, "nord": 5365794.983, "hoehe": 748.716, "s_lage": 0.017, "s_hoehe": 0.039, "zeit": "10.06.2026 12:42:36", "ost_etrs89": 551528.627, "nord_etrs89": 5365795.824, "hoehe_etrs89": 748.693, "delta_ost_m": 0.938, "delta_nord_m": 0.841 }, "geometry": { "type": "Point", "coordinates": [ 9.69676464470691, 48.443194537075449 ] } },
{ "type": "Feature", "properties": { "fid": 3, "station": "strm1", "ost": 551561.029, "nord": 5365795.706, "hoehe": 749.351, "s_lage": 0.021, "s_hoehe": 0.026, "zeit": "10.06.2026 12:51:48", "ost_etrs89": 551561.967, "nord_etrs89": 5365796.547, "hoehe_etrs89": 749.328, "delta_ost_m": 0.938, "delta_nord_m": 0.841 }, "geometry": { "type": "Point", "coordinates": [ 9.6972155189503, 48.44319831077825 ] } },
{ "type": "Feature", "properties": { "fid": 4, "station": "strm2", "ost": 551545.347, "nord": 5365798.064, "hoehe": 749.22, "s_lage": 0.021, "s_hoehe": 0.035, "zeit": "10.06.2026 12:52:45", "ost_etrs89": 551546.285, "nord_etrs89": 5365798.905, "hoehe_etrs89": 749.197, "delta_ost_m": 0.938, "delta_nord_m": 0.841 }, "geometry": { "type": "Point", "coordinates": [ 9.697003775161527, 48.443220807380392 ] } },
{ "type": "Feature", "properties": { "fid": 5, "station": "strm3", "ost": 551533.401, "nord": 5365799.913, "hoehe": 749.245, "s_lage": 0.018, "s_hoehe": 0.025, "zeit": "10.06.2026 12:53:34", "ost_etrs89": 551534.339, "nord_etrs89": 5365800.754, "hoehe_etrs89": 749.222, "delta_ost_m": 0.938, "delta_nord_m": 0.841 }, "geometry": { "type": "Point", "coordinates": [ 9.696842482501213, 48.443238418846576 ] } },
{ "type": "Feature", "properties": { "fid": 6, "station": "strm4", "ost": 551518.118, "nord": 5365801.997, "hoehe": 749.253, "s_lage": 0.019, "s_hoehe": 0.032, "zeit": "10.06.2026 12:54:35", "ost_etrs89": 551519.056, "nord_etrs89": 5365802.838, "hoehe_etrs89": 749.23, "delta_ost_m": 0.938, "delta_nord_m": 0.841 }, "geometry": { "type": "Point", "coordinates": [ 9.696636099493336, 48.443258417249666 ] } },
{ "type": "Feature", "properties": { "fid": 7, "station": "strm5", "ost": 551505.804, "nord": 5365803.733, "hoehe": 749.337, "s_lage": 0.016, "s_hoehe": 0.025, "zeit": "10.06.2026 12:55:28", "ost_etrs89": 551506.742, "nord_etrs89": 5365804.574, "hoehe_etrs89": 749.314, "delta_ost_m": 0.938, "delta_nord_m": 0.841 }, "geometry": { "type": "Point", "coordinates": [ 9.696469817000784, 48.443275041787281 ] } },
{ "type": "Feature", "properties": { "fid": 8, "station": "strm6", "ost": 551493.358, "nord": 5365805.447, "hoehe": 749.321, "s_lage": 0.022, "s_hoehe": 0.031, "zeit": "10.06.2026 12:55:57", "ost_etrs89": 551494.296, "nord_etrs89": 5365806.288, "hoehe_etrs89": 749.298, "delta_ost_m": 0.938, "delta_nord_m": 0.841 }, "geometry": { "type": "Point", "coordinates": [ 9.696301746935715, 48.443291478976015 ] } },
{ "type": "Feature", "properties": { "fid": 9, "station": "strm7", "ost": 551483.042, "nord": 5365806.619, "hoehe": 749.333, "s_lage": 0.019, "s_hoehe": 0.026, "zeit": "10.06.2026 12:56:34", "ost_etrs89": 551483.98, "nord_etrs89": 5365807.46, "hoehe_etrs89": 749.31, "delta_ost_m": 0.938, "delta_nord_m": 0.841 }, "geometry": { "type": "Point", "coordinates": [ 9.696162409612517, 48.443302865963041 ] } },
{ "type": "Feature", "properties": { "fid": 10, "station": "strm8", "ost": 551466.268, "nord": 5365808.427, "hoehe": 749.254, "s_lage": 0.017, "s_hoehe": 0.027, "zeit": "10.06.2026 12:57:05", "ost_etrs89": 551467.206, "nord_etrs89": 5365809.268, "hoehe_etrs89": 749.231, "delta_ost_m": 0.938, "delta_nord_m": 0.841 }, "geometry": { "type": "Point", "coordinates": [ 9.695935832496527, 48.443320502219102 ] } }
]
}
